{"type":"FeatureCollection","crs_note":"GCJ-02","ui_default_layer":true,"attribution":"Water geometry: schematic from public geography for sandbox basemap underlay. Prefer OSM waterways when local extract available. © OpenStreetMap contributors when replaced by OSM.","features":[{"type":"Feature","properties":{"water_id":"sh:w:huangpu","name":"黄浦江","water_type":"river","source":"schematic_centerline_public","fill":"#7DD3FC","fill_opacity":0.55,"stroke":"#0284C7"},"geometry":{"type":"Polygon","coordinates":[[[121.432826,30.998547],[121.45279,31.048543],[121.472708,31.098444],[121.482636,31.138286],[121.487617,31.168268],[121.492595,31.188231],[121.494567,31.207996],[121.492593,31.222791],[121.490584,31.233019],[121.492785,31.243755],[121.502871,31.253904],[121.512698,31.268677],[121.522624,31.288582],[121.53244,31.307928],[121.522626,31.327331],[121.512601,31.347508],[121.507573,31.367685],[121.502592,31.387706],[121.506298,31.388378],[121.511277,31.368357],[121.516209,31.34849],[121.52611,31.328595],[121.536226,31.307928],[121.526106,31.287314],[121.5161,31.267261],[121.505995,31.25208],[121.496151,31.242281],[121.494366,31.233019],[121.496341,31.223227],[121.498349,31.207996],[121.496333,31.187753],[121.491343,31.167724],[121.486352,31.137704],[121.47634,31.097558],[121.456362,31.047497],[121.436396,30.997499],[121.432826,30.998547]]]}},{"type":"Feature","properties":{"water_id":"sh:w:huangpu_cl","name":"黄浦江中线","water_type":"river_centerline","source":"schematic"},"geometry":{"type":"LineString","coordinates":[[121.434611,30.998023],[121.454576,31.04802],[121.474524,31.098001],[121.484494,31.137995],[121.48948,31.167996],[121.494464,31.187992],[121.496458,31.207996],[121.494467,31.223009],[121.492475,31.233019],[121.494468,31.243018],[121.504433,31.252992],[121.514399,31.267969],[121.524365,31.287948],[121.534333,31.307928],[121.524368,31.327963],[121.514405,31.347999],[121.509425,31.368021],[121.504445,31.388042]]}},{"type":"Feature","properties":{"water_id":"sh:w:suzhou_creek","name":"苏州河（下游示意）","water_type":"river","source":"schematic_centerline_public","fill":"#BAE6FD","fill_opacity":0.45,"stroke":"#0EA5E9"},"geometry":{"type":"Polygon","coordinates":[[[121.424571,31.238697],[121.444524,31.240672],[121.464476,31.243632],[121.484505,31.245587],[121.494614,31.243542],[121.494322,31.242494],[121.484501,31.244509],[121.464656,31.242566],[121.444704,31.239606],[121.424717,31.237627],[121.424571,31.238697]]]}},{"type":"Feature","properties":{"water_id":"sh:w:dishui_lake","name":"滴水湖","water_type":"lake","source":"schematic_circle_public","fill":"#38BDF8","fill_opacity":0.5,"stroke":"#0284C7"},"geometry":{"type":"Polygon","coordinates":[[[121.942696,30.902633],[121.942579,30.904157],[121.942232,30.905656],[121.94166,30.907102],[121.940872,30.908472],[121.939883,30.909742],[121.938709,30.910891],[121.937371,30.911898],[121.93589,30.912747],[121.934294,30.913422],[121.932608,30.913913],[121.930862,30.914211],[121.929085,30.914311],[121.927309,30.914211],[121.925563,30.913913],[121.923877,30.913422],[121.92228,30.912747],[121.9208,30.911898],[121.919462,30.910891],[121.918288,30.909742],[121.917299,30.908472],[121.916511,30.907102],[121.915939,30.905656],[121.915592,30.904157],[121.915475,30.902633],[121.915592,30.901109],[121.915939,30.899611],[121.916511,30.898164],[121.917299,30.896794],[121.918288,30.895524],[121.919462,30.894376],[121.9208,30.893368],[121.92228,30.89252],[121.923877,30.891844],[121.925563,30.891353],[121.927309,30.891055],[121.929085,30.890955],[121.930862,30.891055],[121.932608,30.891353],[121.934294,30.891844],[121.93589,30.89252],[121.937371,30.893368],[121.938709,30.894376],[121.939883,30.895524],[121.940872,30.896794],[121.94166,30.898164],[121.942232,30.899611],[121.942579,30.901109],[121.942696,30.902633]]]}}]}