{"type":"FeatureCollection","features":[{"type":"Feature","properties":{"building_id":"hongqiao_hub:seed:0","source":"synthetic_seed_not_real_footprint","source_id":"0","building":"residential","name":"","levels":null,"footprint_m2":null,"centroid_lng":121.35774,"centroid_lat":31.182477,"geometry_source":"synthetic_seed"},"geometry":{"type":"Polygon","coordinates":[[[121.35301813137043,31.18425422616614],[121.35325768649004,31.184253848743953],[121.35325766572612,31.184493728150454],[121.35301811060769,31.18449410557268],[121.35301813137043,31.18425422616614]]]}},{"type":"Feature","properties":{"building_id":"hongqiao_hub:seed:1","source":"synthetic_seed_not_real_footprint","source_id":"1","building":"yes","name":"","levels":null,"footprint_m2":null,"centroid_lng":121.346954,"centroid_lat":31.219259,"geometry_source":"synthetic_seed"},"geometry":{"type":"Polygon","coordinates":[[[121.34225038941902,31.221036444093574],[121.34248988555186,31.221036018101575],[121.3424898648162,31.221275904825752],[121.3422503686847,31.22127633081779],[121.34225038941902,31.221036444093574]]]}},{"type":"Feature","properties":{"building_id":"hongqiao_hub:seed:2","source":"synthetic_seed_not_real_footprint","source_id":"2","building":"apartments","name":"","levels":null,"footprint_m2":null,"centroid_lng":121.318259,"centroid_lat":31.173686,"geometry_source":"synthetic_seed"},"geometry":{"type":"Polygon","coordinates":[[[121.31362339756555,31.175539773890076],[121.31386285977726,31.17553932353641],[121.31386283924545,31.17577920133957],[121.31362337703517,31.175779651693272],[121.31362339756555,31.175539773890076]]]}},{"type":"Feature","properties":{"building_id":"hongqiao_hub:seed:3","source":"synthetic_seed_not_real_footprint","source_id":"3","building":"commercial","name":"","levels":null,"footprint_m2":null,"centroid_lng":121.339847,"centroid_lat":31.168636,"geometry_source":"synthetic_seed"},"geometry":{"type":"Polygon","coordinates":[[[121.33516308539924,31.170451360515038],[121.33540255651364,31.17045091405162],[121.33540253585738,31.170690790952488],[121.33516306474438,31.17069123741594],[121.33516308539924,31.170451360515038]]]}},{"type":"Feature","properties":{"building_id":"hongqiao_hub:seed:4","source":"synthetic_seed_not_real_footprint","source_id":"4","building":"office","name":"","levels":null,"footprint_m2":null,"centroid_lng":121.327455,"centroid_lat":31.215687,"geometry_source":"synthetic_seed"},"geometry":{"type":"Polygon","coordinates":[[[121.32279496440161,31.217502606434334],[121.32303441762394,31.21750214699422],[121.32303439700515,31.21774203297092],[121.32279494378425,31.217742492411066],[121.32279496440161,31.217502606434334]]]}},{"type":"Feature","properties":{"building_id":"hongqiao_hub:seed:5","source":"synthetic_seed_not_real_footprint","source_id":"5","building":"residential","name":"","levels":null,"footprint_m2":null,"centroid_lng":121.357345,"centroid_lat":31.184438,"geometry_source":"synthetic_seed"},"geometry":{"type":"Polygon","coordinates":[[[121.35262369733297,31.18621486613198],[121.35286324987331,31.186214486573395],[121.35286322910981,31.186454366346457],[121.35262367657067,31.186454745905078],[121.35262369733297,31.18621486613198]]]}},{"type":"Feature","properties":{"building_id":"hongqiao_hub:seed:6","source":"synthetic_seed_not_real_footprint","source_id":"6","building":"yes","name":"","levels":null,"footprint_m2":null,"centroid_lng":121.357742,"centroid_lat":31.181011,"geometry_source":"synthetic_seed"},"geometry":{"type":"Polygon","coordinates":[[[121.35302025447841,31.182788960608804],[121.35325980961832,31.18278858319773],[121.35325978885552,31.183028462332036],[121.35302023371679,31.183028839743145],[121.35302025447841,31.182788960608804]]]}},{"type":"Feature","properties":{"building_id":"hongqiao_hub:seed:7","source":"synthetic_seed_not_real_footprint","source_id":"7","building":"apartments","name":"","levels":null,"footprint_m2":null,"centroid_lng":121.368778,"centroid_lat":31.209595,"geometry_source":"synthetic_seed"},"geometry":{"type":"Polygon","coordinates":[[[121.36403511531078,31.211343033093378],[121.36427475406056,31.211342725596595],[121.36427473322594,31.211582610306603],[121.36403509447713,31.211582917803426],[121.36403511531078,31.211343033093378]]]}},{"type":"Feature","properties":{"building_id":"hongqiao_hub:seed:8","source":"synthetic_seed_not_real_footprint","source_id":"8","building":"commercial","name":"","levels":null,"footprint_m2":null,"centroid_lng":121.302453,"centroid_lat":31.218204,"geometry_source":"synthetic_seed"},"geometry":{"type":"Polygon","coordinates":[[[121.29784741253027,31.22006407877468],[121.29808693085566,31.22006367946648],[121.29808691037948,31.220303565974746],[121.29784739205537,31.22030396528298],[121.29784741253027,31.22006407877468]]]}},{"type":"Feature","properties":{"building_id":"hongqiao_hub:seed:9","source":"synthetic_seed_not_real_footprint","source_id":"9","building":"office","name":"","levels":null,"footprint_m2":null,"centroid_lng":121.352497,"centroid_lat":31.214286,"geometry_source":"synthetic_seed"},"geometry":{"type":"Polygon","coordinates":[[[121.3477824708497,31.21605620076233],[121.34802199423838,31.216055797163786],[121.34802197347658,31.216295682844766],[121.34778245008914,31.216296086443347],[121.3477824708497,31.21605620076233]]]}},{"type":"Feature","properties":{"building_id":"hongqiao_hub:seed:10","source":"synthetic_seed_not_real_footprint","source_id":"10","building":"residential","name":"","levels":null,"footprint_m2":null,"centroid_lng":121.350534,"centroid_lat":31.217461,"geometry_source":"synthetic_seed"},"geometry":{"type":"Polygon","coordinates":[[[121.34582314278084,31.21923303332404],[121.346062655774,31.219232621163815],[121.34606263502017,31.219472507508726],[121.3458231220283,31.219472919668984],[121.34582314278084,31.21923303332404]]]}},{"type":"Feature","properties":{"building_id":"hongqiao_hub:seed:11","source":"synthetic_seed_not_real_footprint","source_id":"11","building":"yes","name":"","levels":null,"footprint_m2":null,"centroid_lng":121.30323,"centroid_lat":31.217401,"geometry_source":"synthetic_seed"},"geometry":{"type":"Polygon","coordinates":[[[121.29862291721305,31.219260162173015],[121.29886243162198,31.219259759370395],[121.29886241114225,31.219499645709686],[121.29862289673461,31.219500048512344],[121.29862291721305,31.219260162173015]]]}},{"type":"Feature","properties":{"building_id":"hongqiao_hub:seed:12","source":"synthetic_seed_not_real_footprint","source_id":"12","building":"apartments","name":"","levels":null,"footprint_m2":null,"centroid_lng":121.31887,"centroid_lat":31.190136,"geometry_source":"synthetic_seed"},"geometry":{"type":"Polygon","coordinates":[[[121.3142316196878,31.19198035303595],[121.3144710806551,31.191979901590646],[121.31447106010714,31.19221978244973],[121.31423159914127,31.19222023389507],[121.3142316196878,31.19198035303595]]]}},{"type":"Feature","properties":{"building_id":"hongqiao_hub:seed:13","source":"synthetic_seed_not_real_footprint","source_id":"13","building":"commercial","name":"","levels":null,"footprint_m2":null,"centroid_lng":121.32213,"centroid_lat":31.19983,"geometry_source":"synthetic_seed"},"geometry":{"type":"Polygon","coordinates":[[[121.31748343441691,31.20166341411972],[121.31772289055851,31.201662958021984],[121.31772286998377,31.201902840770497],[121.3174834138436,31.201903296868267],[121.31748343441691,31.20166341411972]]]}},{"type":"Feature","properties":{"building_id":"hongqiao_hub:seed:14","source":"synthetic_seed_not_real_footprint","source_id":"14","building":"office","name":"","levels":null,"footprint_m2":null,"centroid_lng":121.323091,"centroid_lat":31.16462,"geometry_source":"synthetic_seed"},"geometry":{"type":"Polygon","coordinates":[[[121.31844527233476,31.166469282351983],[121.31868472771941,31.166468825264065],[121.3186847071658,31.166708701465645],[121.31844525178258,31.166709158553594],[121.31844527233476,31.166469282351983]]]}},{"type":"Feature","properties":{"building_id":"hongqiao_hub:seed:15","source":"synthetic_seed_not_real_footprint","source_id":"15","building":"residential","name":"","levels":null,"footprint_m2":null,"centroid_lng":121.305669,"centroid_lat":31.196638,"geometry_source":"synthetic_seed"},"geometry":{"type":"Polygon","coordinates":[[[121.30105870054796,31.198503040252213],[121.30129820350372,31.198502627117524],[121.30129818302652,31.198742509239015],[121.30105868007207,31.19874292237374],[121.30105870054796,31.198503040252213]]]}},{"type":"Feature","properties":{"building_id":"hongqiao_hub:seed:16","source":"synthetic_seed_not_real_footprint","source_id":"16","building":"yes","name":"","levels":null,"footprint_m2":null,"centroid_lng":121.318125,"centroid_lat":31.197711,"geometry_source":"synthetic_seed"},"geometry":{"type":"Polygon","coordinates":[[[121.31348764162088,31.199553013674553],[121.31372710395296,31.199552563565366],[121.31372708340363,31.19979244589582],[121.31348762107298,31.19979289600504],[121.31348764162088,31.199553013674553]]]}},{"type":"Feature","properties":{"building_id":"hongqiao_hub:seed:17","source":"synthetic_seed_not_real_footprint","source_id":"17","building":"apartments","name":"","levels":null,"footprint_m2":null,"centroid_lng":121.32737,"centroid_lat":31.190325,"geometry_source":"synthetic_seed"},"geometry":{"type":"Polygon","coordinates":[[[121.32271233570434,31.192153093481647],[121.32295178907519,31.192152634056672],[121.32295176847632,31.192392514950743],[121.3227123151069,31.19239297437575],[121.32271233570434,31.192153093481647]]]}},{"type":"Feature","properties":{"building_id":"hongqiao_hub:seed:18","source":"synthetic_seed_not_real_footprint","source_id":"18","building":"commercial","name":"","levels":null,"footprint_m2":null,"centroid_lng":121.325349,"centroid_lat":31.190948,"geometry_source":"synthetic_seed"},"geometry":{"type":"Polygon","coordinates":[[[121.32069588417609,31.192779650499133],[121.32093533792218,31.192779191747654],[121.32093531733496,31.193019072761597],[121.32069586359029,31.193019531513112],[121.32069588417609,31.192779650499133]]]}},{"type":"Feature","properties":{"building_id":"hongqiao_hub:seed:19","source":"synthetic_seed_not_real_footprint","source_id":"19","building":"office","name":"","levels":null,"footprint_m2":null,"centroid_lng":121.327347,"centroid_lat":31.175951,"geometry_source":"synthetic_seed"},"geometry":{"type":"Polygon","coordinates":[[[121.3226906213618,31.177786353374383],[121.32293007481812,31.17778589395483],[121.32293005423037,31.178025772165967],[121.32269060077549,31.17802623158555],[121.3226906213618,31.177786353374383]]]}},{"type":"Feature","properties":{"building_id":"hongqiao_hub:seed:20","source":"synthetic_seed_not_real_footprint","source_id":"20","building":"residential","name":"","levels":null,"footprint_m2":null,"centroid_lng":121.315761,"centroid_lat":31.171501,"geometry_source":"synthetic_seed"},"geometry":{"type":"Polygon","coordinates":[[[121.3111311514998,31.173360547338213],[121.31137061923764,31.17336010214449],[121.31137059872218,31.1735999795567],[121.31113113098574,31.173600424750457],[121.3111311514998,31.173360547338213]]]}},{"type":"Feature","properties":{"building_id":"hongqiao_hub:seed:21","source":"synthetic_seed_not_real_footprint","source_id":"21","building":"yes","name":"","levels":null,"footprint_m2":null,"centroid_lng":121.319175,"centroid_lat":31.183568,"geometry_source":"synthetic_seed"},"geometry":{"type":"Polygon","coordinates":[[[121.31453649686124,31.185415057445915],[121.31477595732457,31.18541460548342],[121.31477593677982,31.185654485099207],[121.31453647631791,31.18565493706174],[121.31453649686124,31.185415057445915]]]}},{"type":"Feature","properties":{"building_id":"hongqiao_hub:seed:22","source":"synthetic_seed_not_real_footprint","source_id":"22","building":"apartments","name":"","levels":null,"footprint_m2":null,"centroid_lng":121.318562,"centroid_lat":31.199811,"geometry_source":"synthetic_seed"},"geometry":{"type":"Polygon","coordinates":[[[121.3139234824447,31.20165116576677],[121.31416294392315,31.201650714860584],[121.31416292336964,31.20189059760585],[121.31392346189261,31.201891048512067],[121.3139234824447,31.20165116576677]]]}},{"type":"Feature","properties":{"building_id":"hongqiao_hub:seed:23","source":"synthetic_seed_not_real_footprint","source_id":"23","building":"commercial","name":"","levels":null,"footprint_m2":null,"centroid_lng":121.355174,"centroid_lat":31.220482,"geometry_source":"synthetic_seed"},"geometry":{"type":"Polygon","coordinates":[[[121.35045369525118,31.222244827379388],[121.35069323403752,31.222244436549197],[121.35069321325705,31.222484323530928],[121.35045367447194,31.222484714361155],[121.35045369525118,31.222244827379388]]]}},{"type":"Feature","properties":{"building_id":"hongqiao_hub:seed:24","source":"synthetic_seed_not_real_footprint","source_id":"24","building":"office","name":"","levels":null,"footprint_m2":null,"centroid_lng":121.325737,"centroid_lat":31.18535,"geometry_source":"synthetic_seed"},"geometry":{"type":"Polygon","coordinates":[[[121.32108348118483,31.18718369713315],[121.3213229348222,31.187183238193533],[121.32132291423692,31.187423118142675],[121.32108346060099,31.187423577082324],[121.32108348118483,31.18718369713315]]]}},{"type":"Feature","properties":{"building_id":"hongqiao_hub:seed:25","source":"synthetic_seed_not_real_footprint","source_id":"25","building":"residential","name":"","levels":null,"footprint_m2":null,"centroid_lng":121.318314,"centroid_lat":31.195745,"geometry_source":"synthetic_seed"},"geometry":{"type":"Polygon","coordinates":[[[121.31367638657075,31.197587624934744],[121.31391584854563,31.197587174477],[121.3139158279967,31.197827056421765],[121.31367636602322,31.197827506879545],[121.31367638657075,31.197587624934744]]]}},{"type":"Feature","properties":{"building_id":"hongqiao_hub:seed:26","source":"synthetic_seed_not_real_footprint","source_id":"26","building":"yes","name":"","levels":null,"footprint_m2":null,"centroid_lng":121.313166,"centroid_lat":31.185241,"geometry_source":"synthetic_seed"},"geometry":{"type":"Polygon","coordinates":[[[121.30854069196246,31.18709837543417],[121.30878016673414,31.187097936786813],[121.30878014622331,31.18733781671728],[121.30854067145302,31.187338255364672],[121.30854069196246,31.18709837543417]]]}},{"type":"Feature","properties":{"building_id":"hongqiao_hub:seed:27","source":"synthetic_seed_not_real_footprint","source_id":"27","building":"apartments","name":"","levels":null,"footprint_m2":null,"centroid_lng":121.319438,"centroid_lat":31.187359,"geometry_source":"synthetic_seed"},"geometry":{"type":"Polygon","coordinates":[[[121.3147985810521,31.189203665848435],[121.31503804104085,31.18920321345228],[121.31503802049166,31.18944309378192],[121.31479856050431,31.189443546178108],[121.3147985810521,31.189203665848435]]]}},{"type":"Feature","properties":{"building_id":"hongqiao_hub:seed:28","source":"synthetic_seed_not_real_footprint","source_id":"28","building":"commercial","name":"","levels":null,"footprint_m2":null,"centroid_lng":121.311853,"centroid_lat":31.188825,"geometry_source":"synthetic_seed"},"geometry":{"type":"Polygon","coordinates":[[[121.307230246012,31.190682974826395],[121.30746972489314,31.1906825399466],[121.30746970438715,31.190922420556138],[121.30723022550738,31.190922855435968],[121.307230246012,31.190682974826395]]]}},{"type":"Feature","properties":{"building_id":"hongqiao_hub:seed:29","source":"synthetic_seed_not_real_footprint","source_id":"29","building":"office","name":"","levels":null,"footprint_m2":null,"centroid_lng":121.358554,"centroid_lat":31.183328,"geometry_source":"synthetic_seed"},"geometry":{"type":"Polygon","coordinates":[[[121.3538305552625,31.185103524007435],[121.35407011576984,31.185103151069978],[121.35407009500128,31.185343030635064],[121.35383053449512,31.185343403572556],[121.3538305552625,31.185103524007435]]]}},{"type":"Feature","properties":{"building_id":"hongqiao_hub:seed:30","source":"synthetic_seed_not_real_footprint","source_id":"30","building":"residential","name":"","levels":null,"footprint_m2":null,"centroid_lng":121.348207,"centroid_lat":31.182299,"geometry_source":"synthetic_seed"},"geometry":{"type":"Polygon","coordinates":[[[121.34350396241172,31.18409225559106],[121.3437434643372,31.184091834181487],[121.34374344362314,31.18433171355633],[121.34350394169897,31.18433213496594],[121.34350396241172,31.18409225559106]]]}},{"type":"Feature","properties":{"building_id":"hongqiao_hub:seed:31","source":"synthetic_seed_not_real_footprint","source_id":"31","building":"yes","name":"","levels":null,"footprint_m2":null,"centroid_lng":121.357467,"centroid_lat":31.18183,"geometry_source":"synthetic_seed"},"geometry":{"type":"Polygon","coordinates":[[[121.35274569529204,31.183607982387137],[121.35298524863565,31.183607603485903],[121.35298522787356,31.18384748277213],[121.35274567453115,31.1838478616734],[121.35274569529204,31.183607982387137]]]}},{"type":"Feature","properties":{"building_id":"hongqiao_hub:seed:32","source":"synthetic_seed_not_real_footprint","source_id":"32","building":"apartments","name":"","levels":null,"footprint_m2":null,"centroid_lng":121.326597,"centroid_lat":31.204621,"geometry_source":"synthetic_seed"},"geometry":{"type":"Polygon","coordinates":[[[121.32193986929049,31.20644355978757],[121.32217932261457,31.20644310052731],[121.3221793020094,31.206682984232984],[121.32193984868675,31.206683443493283],[121.32193986929049,31.20644355978757]]]}},{"type":"Feature","properties":{"building_id":"hongqiao_hub:seed:33","source":"synthetic_seed_not_real_footprint","source_id":"33","building":"commercial","name":"","levels":null,"footprint_m2":null,"centroid_lng":121.318432,"centroid_lat":31.19109,"geometry_source":"synthetic_seed"},"geometry":{"type":"Polygon","coordinates":[[[121.3137945206133,31.192934702521665],[121.3140339823893,31.192934251850115],[121.31403396184322,31.19317413289236],[121.31379450006862,31.193174583563945],[121.3137945206133,31.192934702521665]]]}},{"type":"Feature","properties":{"building_id":"hongqiao_hub:seed:34","source":"synthetic_seed_not_real_footprint","source_id":"34","building":"office","name":"","levels":null,"footprint_m2":null,"centroid_lng":121.322991,"centroid_lat":31.194359,"geometry_source":"synthetic_seed"},"geometry":{"type":"Polygon","coordinates":[[[121.31834295120052,31.196193462338744],[121.31858240649876,31.196193005342053],[121.31858238592304,31.196432887015852],[121.31834293062624,31.19643334401258],[121.31834295120052,31.196193462338744]]]}},{"type":"Feature","properties":{"building_id":"hongqiao_hub:seed:35","source":"synthetic_seed_not_real_footprint","source_id":"35","building":"residential","name":"","levels":null,"footprint_m2":null,"centroid_lng":121.314351,"centroid_lat":31.186363,"geometry_source":"synthetic_seed"},"geometry":{"type":"Polygon","coordinates":[[[121.30972299587982,31.188217642396744],[121.30996246722258,31.188217200609945],[121.30996244670403,31.18845708075179],[121.30972297536267,31.188457522538624],[121.30972299587982,31.188217642396744]]]}},{"type":"Feature","properties":{"building_id":"hongqiao_hub:seed:36","source":"synthetic_seed_not_real_footprint","source_id":"36","building":"yes","name":"","levels":null,"footprint_m2":null,"centroid_lng":121.352454,"centroid_lat":31.192377,"geometry_source":"synthetic_seed"},"geometry":{"type":"Polygon","coordinates":[[[121.34774145075741,31.194157914387365],[121.34798097402563,31.19415751059733],[121.34798095328098,31.194397391882582],[121.34774143001403,31.194397795672653],[121.34774145075741,31.194157914387365]]]}},{"type":"Feature","properties":{"building_id":"hongqiao_hub:seed:37","source":"synthetic_seed_not_real_footprint","source_id":"37","building":"apartments","name":"","levels":null,"footprint_m2":null,"centroid_lng":121.305626,"centroid_lat":31.217604,"geometry_source":"synthetic_seed"},"geometry":{"type":"Polygon","coordinates":[[[121.30101400008111,31.21945899830658],[121.30125350311603,31.219458585342483],[121.30125348262314,31.219698471724058],[121.30101397958954,31.219698884688192],[121.30101400008111,31.21945899830658]]]}},{"type":"Feature","properties":{"building_id":"hongqiao_hub:seed:38","source":"synthetic_seed_not_real_footprint","source_id":"38","building":"commercial","name":"","levels":null,"footprint_m2":null,"centroid_lng":121.351317,"centroid_lat":31.193126,"geometry_source":"synthetic_seed"},"geometry":{"type":"Polygon","coordinates":[[[121.346606662148,31.194908471534635],[121.346846179315,31.194908062710844],[121.34684615857579,31.195147944141144],[121.34660664141008,31.19514835296497],[121.346606662148,31.194908471534635]]]}},{"type":"Feature","properties":{"building_id":"hongqiao_hub:seed:39","source":"synthetic_seed_not_real_footprint","source_id":"39","building":"office","name":"","levels":null,"footprint_m2":null,"centroid_lng":121.361091,"centroid_lat":31.21382,"geometry_source":"synthetic_seed"},"geometry":{"type":"Polygon","coordinates":[[[121.35636035121153,31.215576722344757],[121.35659992920519,31.2155763640875],[121.35659990840091,31.215816249670283],[121.35636033040838,31.21581660792758],[121.35636035121153,31.215576722344757]]]}},{"type":"Feature","properties":{"building_id":"hongqiao_hub:seed:40","source":"synthetic_seed_not_real_footprint","source_id":"40","building":"residential","name":"","levels":null,"footprint_m2":null,"centroid_lng":121.303789,"centroid_lat":31.209691,"geometry_source":"synthetic_seed"},"geometry":{"type":"Polygon","coordinates":[[[121.29918144222245,31.211552900291295],[121.2994209539222,31.2115524950357],[121.29942093344532,31.211792379775193],[121.29918142174687,31.211792785030827],[121.29918144222245,31.211552900291295]]]}},{"type":"Feature","properties":{"building_id":"hongqiao_hub:seed:41","source":"synthetic_seed_not_real_footprint","source_id":"41","building":"yes","name":"","levels":null,"footprint_m2":null,"centroid_lng":121.329178,"centroid_lat":31.211315,"geometry_source":"synthetic_seed"},"geometry":{"type":"Polygon","coordinates":[[[121.32451441563978,31.21312939376168],[121.32475386930723,31.213128934384184],[121.32475384868144,31.213368819453624],[121.32451439501543,31.213369278831156],[121.32451441563978,31.21312939376168]]]}},{"type":"Feature","properties":{"building_id":"hongqiao_hub:seed:42","source":"synthetic_seed_not_real_footprint","source_id":"42","building":"apartments","name":"","levels":null,"footprint_m2":null,"centroid_lng":121.34653,"centroid_lat":31.172306,"geometry_source":"synthetic_seed"},"geometry":{"type":"Polygon","coordinates":[[[121.34183133448893,31.174107286332394],[121.34207082906745,31.1741068588636],[121.34207080837035,31.174346736415075],[121.34183131379316,31.174347163883905],[121.34183133448893,31.174107286332394]]]}},{"type":"Feature","properties":{"building_id":"hongqiao_hub:seed:43","source":"synthetic_seed_not_real_footprint","source_id":"43","building":"commercial","name":"","levels":null,"footprint_m2":null,"centroid_lng":121.309954,"centroid_lat":31.189874,"geometry_source":"synthetic_seed"},"geometry":{"type":"Polygon","coordinates":[[[121.30533525087425,31.19173486806251],[121.30557473634425,31.191734439165064],[121.3055747158483,31.19197431997529],[121.30533523037964,31.191974748872774],[121.30533525087425,31.19173486806251]]]}},{"type":"Feature","properties":{"building_id":"hongqiao_hub:seed:44","source":"synthetic_seed_not_real_footprint","source_id":"44","building":"office","name":"","levels":null,"footprint_m2":null,"centroid_lng":121.319579,"centroid_lat":31.221275,"geometry_source":"synthetic_seed"},"geometry":{"type":"Polygon","coordinates":[[[121.31493635816723,31.22310295844008],[121.31517581771836,31.22310250581201],[121.31517579714243,31.223342392967332],[121.31493633759273,31.223342845595436],[121.31493635816723,31.22310295844008]]]}},{"type":"Feature","properties":{"building_id":"hongqiao_hub:seed:45","source":"synthetic_seed_not_real_footprint","source_id":"45","building":"residential","name":"","levels":null,"footprint_m2":null,"centroid_lng":121.357105,"centroid_lat":31.197568,"geometry_source":"synthetic_seed"},"geometry":{"type":"Polygon","coordinates":[[[121.35238301026047,31.199338736781243],[121.35262256118926,31.19933835593562],[121.35262254041682,31.199578238232153],[121.3523829894892,31.199578619077815],[121.35238301026047,31.199338736781243]]]}},{"type":"Feature","properties":{"building_id":"hongqiao_hub:seed:46","source":"synthetic_seed_not_real_footprint","source_id":"46","building":"yes","name":"","levels":null,"footprint_m2":null,"centroid_lng":121.365236,"centroid_lat":31.200858,"geometry_source":"synthetic_seed"},"geometry":{"type":"Polygon","coordinates":[[[121.36049943818416,31.202614996966958],[121.36073904765928,31.20261466494485],[121.3607390268463,31.202854547891064],[121.36049941737224,31.20285487991321],[121.36049943818416,31.202614996966958]]]}},{"type":"Feature","properties":{"building_id":"hongqiao_hub:seed:47","source":"synthetic_seed_not_real_footprint","source_id":"47","building":"apartments","name":"","levels":null,"footprint_m2":null,"centroid_lng":121.347278,"centroid_lat":31.210529,"geometry_source":"synthetic_seed"},"geometry":{"type":"Polygon","coordinates":[[[121.34257446359499,31.21231002375947],[121.34281396118955,31.212309598924822],[121.34281394045884,31.21254948382988],[121.3425744428656,31.212549908664567],[121.34257446359499,31.21231002375947]]]}},{"type":"Feature","properties":{"building_id":"hongqiao_hub:seed:48","source":"synthetic_seed_not_real_footprint","source_id":"48","building":"commercial","name":"","levels":null,"footprint_m2":null,"centroid_lng":121.353785,"centroid_lat":31.185033,"geometry_source":"synthetic_seed"},"geometry":{"type":"Polygon","coordinates":[[[121.34907045858256,31.186815343835747],[121.34930998936437,31.186814946229223],[121.34930996861844,31.18705482611458],[121.34907043783788,31.187055223721142],[121.34907045858256,31.186815343835747]]]}},{"type":"Feature","properties":{"building_id":"hongqiao_hub:seed:49","source":"synthetic_seed_not_real_footprint","source_id":"49","building":"office","name":"","levels":null,"footprint_m2":null,"centroid_lng":121.326698,"centroid_lat":31.196004,"geometry_source":"synthetic_seed"},"geometry":{"type":"Polygon","coordinates":[[[121.32204137889516,31.19783057370539],[121.3222808322584,31.197830114418185],[121.32228081165921,31.198069996412386],[121.32204135829741,31.19807045569962],[121.32204137889516,31.19783057370539]]]}},{"type":"Feature","properties":{"building_id":"hongqiao_hub:seed:50","source":"synthetic_seed_not_real_footprint","source_id":"50","building":"residential","name":"","levels":null,"footprint_m2":null,"centroid_lng":121.368347,"centroid_lat":31.224239,"geometry_source":"synthetic_seed"},"geometry":{"type":"Polygon","coordinates":[[[121.36360349777554,31.22598064644999],[121.36384313278137,31.225980335865806],[121.36384311193713,31.226220223646486],[121.36360347693227,31.22622053423071],[121.36360349777554,31.22598064644999]]]}},{"type":"Feature","properties":{"building_id":"hongqiao_hub:seed:51","source":"synthetic_seed_not_real_footprint","source_id":"51","building":"yes","name":"","levels":null,"footprint_m2":null,"centroid_lng":121.353674,"centroid_lat":31.208968,"geometry_source":"synthetic_seed"},"geometry":{"type":"Polygon","coordinates":[[[121.34895760635669,31.210738777866183],[121.34919713637696,31.210738379728497],[121.34919711561311,31.21097826431261],[121.34895758559409,31.210978662450337],[121.34895760635669,31.210738777866183]]]}},{"type":"Feature","properties":{"building_id":"hongqiao_hub:seed:52","source":"synthetic_seed_not_real_footprint","source_id":"52","building":"apartments","name":"","levels":null,"footprint_m2":null,"centroid_lng":121.32133,"centroid_lat":31.176843,"geometry_source":"synthetic_seed"},"geometry":{"type":"Polygon","coordinates":[[[121.31668721442617,31.178689377266384],[121.31692667166278,31.178688922131496],[121.31692665111036,31.17892880050571],[121.31668719387517,31.178929255640632],[121.31668721442617,31.178689377266384]]]}},{"type":"Feature","properties":{"building_id":"hongqiao_hub:seed:53","source":"synthetic_seed_not_real_footprint","source_id":"53","building":"commercial","name":"","levels":null,"footprint_m2":null,"centroid_lng":121.369358,"centroid_lat":31.176892,"geometry_source":"synthetic_seed"},"geometry":{"type":"Polygon","coordinates":[[[121.36461708324879,31.17865544578556],[121.36485672713707,31.17865514248877],[121.3648567063255,31.1788950208646],[121.36461706243819,31.178895324161434],[121.36461708324879,31.17865544578556]]]}},{"type":"Feature","properties":{"building_id":"hongqiao_hub:seed:54","source":"synthetic_seed_not_real_footprint","source_id":"54","building":"office","name":"","levels":null,"footprint_m2":null,"centroid_lng":121.32704,"centroid_lat":31.197591,"geometry_source":"synthetic_seed"},"geometry":{"type":"Polygon","coordinates":[[[121.32238246371115,31.199416139762008],[121.32262191703899,31.199415680393397],[121.32262189643653,31.199655562698936],[121.32238244311013,31.199656022067582],[121.32238246371115,31.199416139762008]]]}},{"type":"Feature","properties":{"building_id":"hongqiao_hub:seed:55","source":"synthetic_seed_not_real_footprint","source_id":"55","building":"residential","name":"","levels":null,"footprint_m2":null,"centroid_lng":121.330873,"centroid_lat":31.222887,"geometry_source":"synthetic_seed"},"geometry":{"type":"Polygon","coordinates":[[[121.32620456484976,31.224692666330625],[121.3264440194993,31.22469220756068],[121.32644399885447,31.224932095057785],[121.32620454420636,31.224932553827767],[121.32620456484976,31.224692666330625]]]}},{"type":"Feature","properties":{"building_id":"hongqiao_hub:seed:56","source":"synthetic_seed_not_real_footprint","source_id":"56","building":"yes","name":"","levels":null,"footprint_m2":null,"centroid_lng":121.337788,"centroid_lat":31.171558,"geometry_source":"synthetic_seed"},"geometry":{"type":"Polygon","coordinates":[[[121.33310839737084,31.173375715489392],[121.3333478631949,31.173375264856794],[121.3333478425484,31.17361514227596],[121.33310837672575,31.173615592908593],[121.33310839737084,31.173375715489392]]]}},{"type":"Feature","properties":{"building_id":"hongqiao_hub:seed:57","source":"synthetic_seed_not_real_footprint","source_id":"57","building":"apartments","name":"","levels":null,"footprint_m2":null,"centroid_lng":121.30864,"centroid_lat":31.220821,"geometry_source":"synthetic_seed"},"geometry":{"type":"Polygon","coordinates":[[[121.30402140868439,31.2226692257439],[121.30426089896869,31.222668801345435],[121.3042608784566,31.222908688405955],[121.30402138817365,31.222909112804455],[121.30402140868439,31.2226692257439]]]}},{"type":"Feature","properties":{"building_id":"hongqiao_hub:seed:58","source":"synthetic_seed_not_real_footprint","source_id":"58","building":"commercial","name":"","levels":null,"footprint_m2":null,"centroid_lng":121.323045,"centroid_lat":31.187561,"geometry_source":"synthetic_seed"},"geometry":{"type":"Polygon","coordinates":[[[121.31839741136153,31.18939873035397],[121.31863686665083,31.18939827330644],[121.31863684607998,31.189638153673876],[121.31839739079211,31.189638610721442],[121.31839741136153,31.18939873035397]]]}},{"type":"Feature","properties":{"building_id":"hongqiao_hub:seed:59","source":"synthetic_seed_not_real_footprint","source_id":"59","building":"office","name":"","levels":null,"footprint_m2":null,"centroid_lng":121.336306,"centroid_lat":31.173502,"geometry_source":"synthetic_seed"},"geometry":{"type":"Polygon","coordinates":[[[121.33162954053518,31.175321515672323],[121.33186900312957,31.175321062534238],[121.33186898249029,31.175560940301686],[121.33162951989732,31.175561393439807],[121.33162954053518,31.175321515672323]]]}},{"type":"Feature","properties":{"building_id":"hongqiao_hub:seed:60","source":"synthetic_seed_not_real_footprint","source_id":"60","building":"residential","name":"","levels":null,"footprint_m2":null,"centroid_lng":121.309246,"centroid_lat":31.193499,"geometry_source":"synthetic_seed"},"geometry":{"type":"Polygon","coordinates":[[[121.30462845402306,31.195359333262672],[121.30486794211741,31.19535890675458],[121.3048679216227,31.195598788263364],[121.3046284335297,31.19559921477149],[121.30462845402306,31.195359333262672]]]}},{"type":"Feature","properties":{"building_id":"hongqiao_hub:seed:61","source":"synthetic_seed_not_real_footprint","source_id":"61","building":"yes","name":"","levels":null,"footprint_m2":null,"centroid_lng":121.314104,"centroid_lat":31.191822,"geometry_source":"synthetic_seed"},"geometry":{"type":"Polygon","coordinates":[[[121.30947607256455,31.193674381443362],[121.309715544565,31.193673940289525],[121.30971552404372,31.19391382147333],[121.30947605204467,31.193914262627203],[121.30947607256455,31.193674381443362]]]}},{"type":"Feature","properties":{"building_id":"hongqiao_hub:seed:62","source":"synthetic_seed_not_real_footprint","source_id":"62","building":"apartments","name":"","levels":null,"footprint_m2":null,"centroid_lng":121.33152,"centroid_lat":31.168317,"geometry_source":"synthetic_seed"},"geometry":{"type":"Polygon","coordinates":[[[121.32685478503676,31.170148265333044],[121.32709424058149,31.170147806947174],[121.3270942199746,31.170387683793084],[121.3268547644313,31.17038814217899],[121.32685478503676,31.170148265333044]]]}},{"type":"Feature","properties":{"building_id":"hongqiao_hub:seed:63","source":"synthetic_seed_not_real_footprint","source_id":"63","building":"commercial","name":"","levels":null,"footprint_m2":null,"centroid_lng":121.317968,"centroid_lat":31.189821,"geometry_source":"synthetic_seed"},"geometry":{"type":"Polygon","coordinates":[[[121.31333166846679,31.191667202320414],[121.31357113115757,31.19166675250712],[121.3135711106152,31.19190663330602],[121.31333164792582,31.191907083119347],[121.31333166846679,31.191667202320414]]]}},{"type":"Feature","properties":{"building_id":"hongqiao_hub:seed:64","source":"synthetic_seed_not_real_footprint","source_id":"64","building":"office","name":"","levels":null,"footprint_m2":null,"centroid_lng":121.300861,"centroid_lat":31.195383,"geometry_source":"synthetic_seed"},"geometry":{"type":"Polygon","coordinates":[[[121.29626052117518,31.19725671618205],[121.29650004800233,31.197256324336475],[121.29650002755187,31.197496206213142],[121.29626050072598,31.197496598058752],[121.29626052117518,31.19725671618205]]]}},{"type":"Feature","properties":{"building_id":"hongqiao_hub:seed:65","source":"synthetic_seed_not_real_footprint","source_id":"65","building":"residential","name":"","levels":null,"footprint_m2":null,"centroid_lng":121.308828,"centroid_lat":31.223475,"geometry_source":"synthetic_seed"},"geometry":{"type":"Polygon","coordinates":[[[121.30420878265063,31.225321647288148],[121.304448272185,31.22532122222684],[121.30444825166984,31.225561109852862],[121.30420876213682,31.22556153491421],[121.30420878265063,31.225321647288148]]]}},{"type":"Feature","properties":{"building_id":"hongqiao_hub:seed:66","source":"synthetic_seed_not_real_footprint","source_id":"66","building":"yes","name":"","levels":null,"footprint_m2":null,"centroid_lng":121.357945,"centroid_lat":31.186819,"geometry_source":"synthetic_seed"},"geometry":{"type":"Polygon","coordinates":[[[121.35322237559092,31.188593728912103],[121.35346193203486,31.188593352608216],[121.35346191126656,31.18883323282983],[121.35322235482381,31.188833609133756],[121.35322237559092,31.188593728912103]]]}},{"type":"Feature","properties":{"building_id":"hongqiao_hub:seed:67","source":"synthetic_seed_not_real_footprint","source_id":"67","building":"apartments","name":"","levels":null,"footprint_m2":null,"centroid_lng":121.347961,"centroid_lat":31.21009,"geometry_source":"synthetic_seed"},"geometry":{"type":"Polygon","coordinates":[[[121.34325607455321,31.21187002769568],[121.34349557520248,31.21186960536079],[121.34349555446835,31.212109490175596],[121.34325605382038,31.212109912510527],[121.34325607455321,31.21187002769568]]]}},{"type":"Feature","properties":{"building_id":"hongqiao_hub:seed:68","source":"synthetic_seed_not_real_footprint","source_id":"68","building":"commercial","name":"","levels":null,"footprint_m2":null,"centroid_lng":121.303119,"centroid_lat":31.208159,"geometry_source":"synthetic_seed"},"geometry":{"type":"Polygon","coordinates":[[[121.29851292982309,31.210022762958893],[121.29875244483472,31.210022360650996],[121.29875242436262,31.210262245077413],[121.29851290935227,31.210262647385346],[121.29851292982309,31.210022762958893]]]}},{"type":"Feature","properties":{"building_id":"hongqiao_hub:seed:69","source":"synthetic_seed_not_real_footprint","source_id":"69","building":"office","name":"","levels":null,"footprint_m2":null,"centroid_lng":121.367618,"centroid_lat":31.188841,"geometry_source":"synthetic_seed"},"geometry":{"type":"Polygon","coordinates":[[[121.36287869062181,31.190600694828863],[121.36311831961564,31.190600379095308],[121.36311829880188,31.19084025969949],[121.36287866980905,31.190840575433082],[121.36287869062181,31.190600694828863]]]}},{"type":"Feature","properties":{"building_id":"hongqiao_hub:seed:70","source":"synthetic_seed_not_real_footprint","source_id":"70","building":"residential","name":"","levels":null,"footprint_m2":null,"centroid_lng":121.327571,"centroid_lat":31.211815,"geometry_source":"synthetic_seed"},"geometry":{"type":"Polygon","coordinates":[[[121.32291103273678,31.213632230851125],[121.32315048599004,31.213631771398134],[121.3231504653735,31.213871656570902],[121.3229110121217,31.213872116023925],[121.32291103273678,31.213632230851125]]]}},{"type":"Feature","properties":{"building_id":"hongqiao_hub:seed:71","source":"synthetic_seed_not_real_footprint","source_id":"71","building":"yes","name":"","levels":null,"footprint_m2":null,"centroid_lng":121.318781,"centroid_lat":31.191355,"geometry_source":"synthetic_seed"},"geometry":{"type":"Polygon","coordinates":[[[121.31414271510913,31.193198915681474],[121.31438217623138,31.193198464390402],[121.31438215568302,31.19343834548357],[121.3141426945622,31.19343879677468],[121.31414271510913,31.193198915681474]]]}},{"type":"Feature","properties":{"building_id":"hongqiao_hub:seed:72","source":"synthetic_seed_not_real_footprint","source_id":"72","building":"apartments","name":"","levels":null,"footprint_m2":null,"centroid_lng":121.307391,"centroid_lat":31.212244,"geometry_source":"synthetic_seed"},"geometry":{"type":"Polygon","coordinates":[[[121.3027757783931,31.214098489677028],[121.30301527378577,31.214098069833078],[121.30301525328721,31.214337955097395],[121.30277575789586,31.21433837494138],[121.3027757783931,31.214098489677028]]]}},{"type":"Feature","properties":{"building_id":"hongqiao_hub:seed:73","source":"synthetic_seed_not_real_footprint","source_id":"73","building":"commercial","name":"","levels":null,"footprint_m2":null,"centroid_lng":121.318391,"centroid_lat":31.186853,"geometry_source":"synthetic_seed"},"geometry":{"type":"Polygon","coordinates":[[[121.3137539751785,31.188699887124848],[121.31399343705787,31.188699436528154],[121.31399341651525,31.188939316762074],[121.3137539546373,31.188939767358804],[121.3137539751785,31.188699887124848]]]}},{"type":"Feature","properties":{"building_id":"hongqiao_hub:seed:74","source":"synthetic_seed_not_real_footprint","source_id":"74","building":"office","name":"","levels":null,"footprint_m2":null,"centroid_lng":121.3442,"centroid_lat":31.175893,"geometry_source":"synthetic_seed"},"geometry":{"type":"Polygon","coordinates":[[[121.33950598280106,31.177696652049274],[121.33974546807349,31.1776962170156],[121.33974544738669,31.17793609521374],[121.33950596211562,31.17793653024745],[121.33950598280106,31.177696652049274]]]}},{"type":"Feature","properties":{"building_id":"hongqiao_hub:seed:75","source":"synthetic_seed_not_real_footprint","source_id":"75","building":"residential","name":"","levels":null,"footprint_m2":null,"centroid_lng":121.309494,"centroid_lat":31.172225,"geometry_source":"synthetic_seed"},"geometry":{"type":"Polygon","coordinates":[[[121.30487774100382,31.174095575930934],[121.30511722828032,31.174095148579106],[121.30511720780036,31.174335026121526],[121.30487772052521,31.17433545347339],[121.30487774100382,31.174095575930934]]]}},{"type":"Feature","properties":{"building_id":"hongqiao_hub:seed:76","source":"synthetic_seed_not_real_footprint","source_id":"76","building":"yes","name":"","levels":null,"footprint_m2":null,"centroid_lng":121.333247,"centroid_lat":31.168991,"geometry_source":"synthetic_seed"},"geometry":{"type":"Polygon","coordinates":[[[121.32857781504887,31.1708186250961],[121.32881727256049,31.17081816810305],[121.3288172519428,31.171058045067483],[121.3285777944326,31.171058502060564],[121.32857781504887,31.1708186250961]]]}},{"type":"Feature","properties":{"building_id":"hongqiao_hub:seed:77","source":"synthetic_seed_not_real_footprint","source_id":"77","building":"apartments","name":"","levels":null,"footprint_m2":null,"centroid_lng":121.319121,"centroid_lat":31.205076,"geometry_source":"synthetic_seed"},"geometry":{"type":"Polygon","coordinates":[[[121.31448077647593,31.206912553594858],[121.31472023690648,31.20691210171971],[121.31472021634565,31.207151985518244],[121.3144807559165,31.207152437393425],[121.31448077647593,31.206912553594858]]]}},{"type":"Feature","properties":{"building_id":"hongqiao_hub:seed:78","source":"synthetic_seed_not_real_footprint","source_id":"78","building":"commercial","name":"","levels":null,"footprint_m2":null,"centroid_lng":121.327322,"centroid_lat":31.193513,"geometry_source":"synthetic_seed"},"geometry":{"type":"Polygon","coordinates":[[[121.32266417141702,31.195339607006947],[121.32290362476733,31.195339147588587],[121.32290360416631,31.19557902909743],[121.32266415081743,31.195579488515826],[121.32266417141702,31.195339607006947]]]}},{"type":"Feature","properties":{"building_id":"hongqiao_hub:seed:79","source":"synthetic_seed_not_real_footprint","source_id":"79","building":"office","name":"","levels":null,"footprint_m2":null,"centroid_lng":121.312023,"centroid_lat":31.21445,"geometry_source":"synthetic_seed"},"geometry":{"type":"Polygon","coordinates":[[[121.30739768653693,31.216295185799808],[121.30763716471633,31.21629475041127],[121.30763714418984,31.216534636132323],[121.30739766601184,31.216535071520898],[121.30739768653693,31.216295185799808]]]}},{"type":"Feature","properties":{"building_id":"hongqiao_hub:seed:80","source":"synthetic_seed_not_real_footprint","source_id":"80","building":"residential","name":"","levels":null,"footprint_m2":null,"centroid_lng":121.313223,"centroid_lat":31.206727,"geometry_source":"synthetic_seed"},"geometry":{"type":"Polygon","coordinates":[[[121.30859573042537,31.20857370576062],[121.30883520490163,31.20857326695338],[121.30883518437412,31.20881315108695],[121.30859570989924,31.208813589894227],[121.30859573042537,31.20857370576062]]]}}]}