{"type":"FeatureCollection","features":[{"type":"Feature","properties":{"building_id":"hongqiao_hub:seed:0","source":"synthetic_seed_not_real_footprint","source_id":"0","building":"residential","name":"","levels":null,"footprint_m2":null,"centroid_lng":121.35774,"centroid_lat":31.182477,"geometry_source":"synthetic_seed"},"geometry":{"type":"Polygon","coordinates":[[[121.35762000000001,31.182357],[121.35786,31.182357],[121.35786,31.182596999999998],[121.35762000000001,31.182596999999998],[121.35762000000001,31.182357]]]}},{"type":"Feature","properties":{"building_id":"hongqiao_hub:seed:1","source":"synthetic_seed_not_real_footprint","source_id":"1","building":"yes","name":"","levels":null,"footprint_m2":null,"centroid_lng":121.346954,"centroid_lat":31.219259,"geometry_source":"synthetic_seed"},"geometry":{"type":"Polygon","coordinates":[[[121.346834,31.219139000000002],[121.34707399999999,31.219139000000002],[121.34707399999999,31.219379],[121.346834,31.219379],[121.346834,31.219139000000002]]]}},{"type":"Feature","properties":{"building_id":"hongqiao_hub:seed:2","source":"synthetic_seed_not_real_footprint","source_id":"2","building":"apartments","name":"","levels":null,"footprint_m2":null,"centroid_lng":121.318259,"centroid_lat":31.173686,"geometry_source":"synthetic_seed"},"geometry":{"type":"Polygon","coordinates":[[[121.318139,31.173566],[121.318379,31.173566],[121.318379,31.173806],[121.318139,31.173806],[121.318139,31.173566]]]}},{"type":"Feature","properties":{"building_id":"hongqiao_hub:seed:3","source":"synthetic_seed_not_real_footprint","source_id":"3","building":"commercial","name":"","levels":null,"footprint_m2":null,"centroid_lng":121.339847,"centroid_lat":31.168636,"geometry_source":"synthetic_seed"},"geometry":{"type":"Polygon","coordinates":[[[121.33972700000001,31.168516],[121.339967,31.168516],[121.339967,31.168756],[121.33972700000001,31.168756],[121.33972700000001,31.168516]]]}},{"type":"Feature","properties":{"building_id":"hongqiao_hub:seed:4","source":"synthetic_seed_not_real_footprint","source_id":"4","building":"office","name":"","levels":null,"footprint_m2":null,"centroid_lng":121.327455,"centroid_lat":31.215687,"geometry_source":"synthetic_seed"},"geometry":{"type":"Polygon","coordinates":[[[121.327335,31.215567],[121.327575,31.215567],[121.327575,31.215806999999998],[121.327335,31.215806999999998],[121.327335,31.215567]]]}},{"type":"Feature","properties":{"building_id":"hongqiao_hub:seed:5","source":"synthetic_seed_not_real_footprint","source_id":"5","building":"residential","name":"","levels":null,"footprint_m2":null,"centroid_lng":121.357345,"centroid_lat":31.184438,"geometry_source":"synthetic_seed"},"geometry":{"type":"Polygon","coordinates":[[[121.357225,31.184318],[121.35746499999999,31.184318],[121.35746499999999,31.184558],[121.357225,31.184558],[121.357225,31.184318]]]}},{"type":"Feature","properties":{"building_id":"hongqiao_hub:seed:6","source":"synthetic_seed_not_real_footprint","source_id":"6","building":"yes","name":"","levels":null,"footprint_m2":null,"centroid_lng":121.357742,"centroid_lat":31.181011,"geometry_source":"synthetic_seed"},"geometry":{"type":"Polygon","coordinates":[[[121.357622,31.180891000000003],[121.357862,31.180891000000003],[121.357862,31.181131],[121.357622,31.181131],[121.357622,31.180891000000003]]]}},{"type":"Feature","properties":{"building_id":"hongqiao_hub:seed:7","source":"synthetic_seed_not_real_footprint","source_id":"7","building":"apartments","name":"","levels":null,"footprint_m2":null,"centroid_lng":121.368778,"centroid_lat":31.209595,"geometry_source":"synthetic_seed"},"geometry":{"type":"Polygon","coordinates":[[[121.36865800000001,31.209475],[121.368898,31.209475],[121.368898,31.209715],[121.36865800000001,31.209715],[121.36865800000001,31.209475]]]}},{"type":"Feature","properties":{"building_id":"hongqiao_hub:seed:8","source":"synthetic_seed_not_real_footprint","source_id":"8","building":"commercial","name":"","levels":null,"footprint_m2":null,"centroid_lng":121.302453,"centroid_lat":31.218204,"geometry_source":"synthetic_seed"},"geometry":{"type":"Polygon","coordinates":[[[121.302333,31.218084],[121.302573,31.218084],[121.302573,31.218324],[121.302333,31.218324],[121.302333,31.218084]]]}},{"type":"Feature","properties":{"building_id":"hongqiao_hub:seed:9","source":"synthetic_seed_not_real_footprint","source_id":"9","building":"office","name":"","levels":null,"footprint_m2":null,"centroid_lng":121.352497,"centroid_lat":31.214286,"geometry_source":"synthetic_seed"},"geometry":{"type":"Polygon","coordinates":[[[121.352377,31.214166000000002],[121.352617,31.214166000000002],[121.352617,31.214406],[121.352377,31.214406],[121.352377,31.214166000000002]]]}},{"type":"Feature","properties":{"building_id":"hongqiao_hub:seed:10","source":"synthetic_seed_not_real_footprint","source_id":"10","building":"residential","name":"","levels":null,"footprint_m2":null,"centroid_lng":121.350534,"centroid_lat":31.217461,"geometry_source":"synthetic_seed"},"geometry":{"type":"Polygon","coordinates":[[[121.350414,31.217341],[121.35065399999999,31.217341],[121.35065399999999,31.217581],[121.350414,31.217581],[121.350414,31.217341]]]}},{"type":"Feature","properties":{"building_id":"hongqiao_hub:seed:11","source":"synthetic_seed_not_real_footprint","source_id":"11","building":"yes","name":"","levels":null,"footprint_m2":null,"centroid_lng":121.30323,"centroid_lat":31.217401,"geometry_source":"synthetic_seed"},"geometry":{"type":"Polygon","coordinates":[[[121.30311,31.217281],[121.30335,31.217281],[121.30335,31.217520999999998],[121.30311,31.217520999999998],[121.30311,31.217281]]]}},{"type":"Feature","properties":{"building_id":"hongqiao_hub:seed:12","source":"synthetic_seed_not_real_footprint","source_id":"12","building":"apartments","name":"","levels":null,"footprint_m2":null,"centroid_lng":121.31887,"centroid_lat":31.190136,"geometry_source":"synthetic_seed"},"geometry":{"type":"Polygon","coordinates":[[[121.31875000000001,31.190016],[121.31899,31.190016],[121.31899,31.190255999999998],[121.31875000000001,31.190255999999998],[121.31875000000001,31.190016]]]}},{"type":"Feature","properties":{"building_id":"hongqiao_hub:seed:13","source":"synthetic_seed_not_real_footprint","source_id":"13","building":"commercial","name":"","levels":null,"footprint_m2":null,"centroid_lng":121.32213,"centroid_lat":31.19983,"geometry_source":"synthetic_seed"},"geometry":{"type":"Polygon","coordinates":[[[121.32201,31.19971],[121.32225,31.19971],[121.32225,31.199949999999998],[121.32201,31.199949999999998],[121.32201,31.19971]]]}},{"type":"Feature","properties":{"building_id":"hongqiao_hub:seed:14","source":"synthetic_seed_not_real_footprint","source_id":"14","building":"office","name":"","levels":null,"footprint_m2":null,"centroid_lng":121.323091,"centroid_lat":31.16462,"geometry_source":"synthetic_seed"},"geometry":{"type":"Polygon","coordinates":[[[121.32297100000001,31.1645],[121.323211,31.1645],[121.323211,31.16474],[121.32297100000001,31.16474],[121.32297100000001,31.1645]]]}},{"type":"Feature","properties":{"building_id":"hongqiao_hub:seed:15","source":"synthetic_seed_not_real_footprint","source_id":"15","building":"residential","name":"","levels":null,"footprint_m2":null,"centroid_lng":121.305669,"centroid_lat":31.196638,"geometry_source":"synthetic_seed"},"geometry":{"type":"Polygon","coordinates":[[[121.305549,31.196518],[121.30578899999999,31.196518],[121.30578899999999,31.196758],[121.305549,31.196758],[121.305549,31.196518]]]}},{"type":"Feature","properties":{"building_id":"hongqiao_hub:seed:16","source":"synthetic_seed_not_real_footprint","source_id":"16","building":"yes","name":"","levels":null,"footprint_m2":null,"centroid_lng":121.318125,"centroid_lat":31.197711,"geometry_source":"synthetic_seed"},"geometry":{"type":"Polygon","coordinates":[[[121.318005,31.197591000000003],[121.31824499999999,31.197591000000003],[121.31824499999999,31.197831],[121.318005,31.197831],[121.318005,31.197591000000003]]]}},{"type":"Feature","properties":{"building_id":"hongqiao_hub:seed:17","source":"synthetic_seed_not_real_footprint","source_id":"17","building":"apartments","name":"","levels":null,"footprint_m2":null,"centroid_lng":121.32737,"centroid_lat":31.190325,"geometry_source":"synthetic_seed"},"geometry":{"type":"Polygon","coordinates":[[[121.32725,31.190205000000002],[121.32749,31.190205000000002],[121.32749,31.190445],[121.32725,31.190445],[121.32725,31.190205000000002]]]}},{"type":"Feature","properties":{"building_id":"hongqiao_hub:seed:18","source":"synthetic_seed_not_real_footprint","source_id":"18","building":"commercial","name":"","levels":null,"footprint_m2":null,"centroid_lng":121.325349,"centroid_lat":31.190948,"geometry_source":"synthetic_seed"},"geometry":{"type":"Polygon","coordinates":[[[121.32522900000001,31.190828],[121.325469,31.190828],[121.325469,31.191067999999998],[121.32522900000001,31.191067999999998],[121.32522900000001,31.190828]]]}},{"type":"Feature","properties":{"building_id":"hongqiao_hub:seed:19","source":"synthetic_seed_not_real_footprint","source_id":"19","building":"office","name":"","levels":null,"footprint_m2":null,"centroid_lng":121.327347,"centroid_lat":31.175951,"geometry_source":"synthetic_seed"},"geometry":{"type":"Polygon","coordinates":[[[121.32722700000001,31.175831000000002],[121.327467,31.175831000000002],[121.327467,31.176071],[121.32722700000001,31.176071],[121.32722700000001,31.175831000000002]]]}},{"type":"Feature","properties":{"building_id":"hongqiao_hub:seed:20","source":"synthetic_seed_not_real_footprint","source_id":"20","building":"residential","name":"","levels":null,"footprint_m2":null,"centroid_lng":121.315761,"centroid_lat":31.171501,"geometry_source":"synthetic_seed"},"geometry":{"type":"Polygon","coordinates":[[[121.315641,31.171381],[121.31588099999999,31.171381],[121.31588099999999,31.171621],[121.315641,31.171621],[121.315641,31.171381]]]}},{"type":"Feature","properties":{"building_id":"hongqiao_hub:seed:21","source":"synthetic_seed_not_real_footprint","source_id":"21","building":"yes","name":"","levels":null,"footprint_m2":null,"centroid_lng":121.319175,"centroid_lat":31.183568,"geometry_source":"synthetic_seed"},"geometry":{"type":"Polygon","coordinates":[[[121.319055,31.183448000000002],[121.319295,31.183448000000002],[121.319295,31.183688],[121.319055,31.183688],[121.319055,31.183448000000002]]]}},{"type":"Feature","properties":{"building_id":"hongqiao_hub:seed:22","source":"synthetic_seed_not_real_footprint","source_id":"22","building":"apartments","name":"","levels":null,"footprint_m2":null,"centroid_lng":121.318562,"centroid_lat":31.199811,"geometry_source":"synthetic_seed"},"geometry":{"type":"Polygon","coordinates":[[[121.318442,31.199691],[121.318682,31.199691],[121.318682,31.199931],[121.318442,31.199931],[121.318442,31.199691]]]}},{"type":"Feature","properties":{"building_id":"hongqiao_hub:seed:23","source":"synthetic_seed_not_real_footprint","source_id":"23","building":"commercial","name":"","levels":null,"footprint_m2":null,"centroid_lng":121.355174,"centroid_lat":31.220482,"geometry_source":"synthetic_seed"},"geometry":{"type":"Polygon","coordinates":[[[121.35505400000001,31.220362],[121.355294,31.220362],[121.355294,31.220602],[121.35505400000001,31.220602],[121.35505400000001,31.220362]]]}},{"type":"Feature","properties":{"building_id":"hongqiao_hub:seed:24","source":"synthetic_seed_not_real_footprint","source_id":"24","building":"office","name":"","levels":null,"footprint_m2":null,"centroid_lng":121.325737,"centroid_lat":31.18535,"geometry_source":"synthetic_seed"},"geometry":{"type":"Polygon","coordinates":[[[121.32561700000001,31.18523],[121.325857,31.18523],[121.325857,31.18547],[121.32561700000001,31.18547],[121.32561700000001,31.18523]]]}},{"type":"Feature","properties":{"building_id":"hongqiao_hub:seed:25","source":"synthetic_seed_not_real_footprint","source_id":"25","building":"residential","name":"","levels":null,"footprint_m2":null,"centroid_lng":121.318314,"centroid_lat":31.195745,"geometry_source":"synthetic_seed"},"geometry":{"type":"Polygon","coordinates":[[[121.318194,31.195625],[121.318434,31.195625],[121.318434,31.195864999999998],[121.318194,31.195864999999998],[121.318194,31.195625]]]}},{"type":"Feature","properties":{"building_id":"hongqiao_hub:seed:26","source":"synthetic_seed_not_real_footprint","source_id":"26","building":"yes","name":"","levels":null,"footprint_m2":null,"centroid_lng":121.313166,"centroid_lat":31.185241,"geometry_source":"synthetic_seed"},"geometry":{"type":"Polygon","coordinates":[[[121.313046,31.185121000000002],[121.31328599999999,31.185121000000002],[121.31328599999999,31.185361],[121.313046,31.185361],[121.313046,31.185121000000002]]]}},{"type":"Feature","properties":{"building_id":"hongqiao_hub:seed:27","source":"synthetic_seed_not_real_footprint","source_id":"27","building":"apartments","name":"","levels":null,"footprint_m2":null,"centroid_lng":121.319438,"centroid_lat":31.187359,"geometry_source":"synthetic_seed"},"geometry":{"type":"Polygon","coordinates":[[[121.31931800000001,31.187239],[121.319558,31.187239],[121.319558,31.187479],[121.31931800000001,31.187479],[121.31931800000001,31.187239]]]}},{"type":"Feature","properties":{"building_id":"hongqiao_hub:seed:28","source":"synthetic_seed_not_real_footprint","source_id":"28","building":"commercial","name":"","levels":null,"footprint_m2":null,"centroid_lng":121.311853,"centroid_lat":31.188825,"geometry_source":"synthetic_seed"},"geometry":{"type":"Polygon","coordinates":[[[121.311733,31.188705000000002],[121.311973,31.188705000000002],[121.311973,31.188945],[121.311733,31.188945],[121.311733,31.188705000000002]]]}},{"type":"Feature","properties":{"building_id":"hongqiao_hub:seed:29","source":"synthetic_seed_not_real_footprint","source_id":"29","building":"office","name":"","levels":null,"footprint_m2":null,"centroid_lng":121.358554,"centroid_lat":31.183328,"geometry_source":"synthetic_seed"},"geometry":{"type":"Polygon","coordinates":[[[121.358434,31.183208],[121.358674,31.183208],[121.358674,31.183448],[121.358434,31.183448],[121.358434,31.183208]]]}},{"type":"Feature","properties":{"building_id":"hongqiao_hub:seed:30","source":"synthetic_seed_not_real_footprint","source_id":"30","building":"residential","name":"","levels":null,"footprint_m2":null,"centroid_lng":121.348207,"centroid_lat":31.182299,"geometry_source":"synthetic_seed"},"geometry":{"type":"Polygon","coordinates":[[[121.348087,31.182179],[121.348327,31.182179],[121.348327,31.182419],[121.348087,31.182419],[121.348087,31.182179]]]}},{"type":"Feature","properties":{"building_id":"hongqiao_hub:seed:31","source":"synthetic_seed_not_real_footprint","source_id":"31","building":"yes","name":"","levels":null,"footprint_m2":null,"centroid_lng":121.357467,"centroid_lat":31.18183,"geometry_source":"synthetic_seed"},"geometry":{"type":"Polygon","coordinates":[[[121.357347,31.181710000000002],[121.357587,31.181710000000002],[121.357587,31.18195],[121.357347,31.18195],[121.357347,31.181710000000002]]]}},{"type":"Feature","properties":{"building_id":"hongqiao_hub:seed:32","source":"synthetic_seed_not_real_footprint","source_id":"32","building":"apartments","name":"","levels":null,"footprint_m2":null,"centroid_lng":121.326597,"centroid_lat":31.204621,"geometry_source":"synthetic_seed"},"geometry":{"type":"Polygon","coordinates":[[[121.32647700000001,31.204501],[121.326717,31.204501],[121.326717,31.204741],[121.32647700000001,31.204741],[121.32647700000001,31.204501]]]}},{"type":"Feature","properties":{"building_id":"hongqiao_hub:seed:33","source":"synthetic_seed_not_real_footprint","source_id":"33","building":"commercial","name":"","levels":null,"footprint_m2":null,"centroid_lng":121.318432,"centroid_lat":31.19109,"geometry_source":"synthetic_seed"},"geometry":{"type":"Polygon","coordinates":[[[121.318312,31.19097],[121.318552,31.19097],[121.318552,31.191209999999998],[121.318312,31.191209999999998],[121.318312,31.19097]]]}},{"type":"Feature","properties":{"building_id":"hongqiao_hub:seed:34","source":"synthetic_seed_not_real_footprint","source_id":"34","building":"office","name":"","levels":null,"footprint_m2":null,"centroid_lng":121.322991,"centroid_lat":31.194359,"geometry_source":"synthetic_seed"},"geometry":{"type":"Polygon","coordinates":[[[121.322871,31.194239],[121.323111,31.194239],[121.323111,31.194478999999998],[121.322871,31.194478999999998],[121.322871,31.194239]]]}},{"type":"Feature","properties":{"building_id":"hongqiao_hub:seed:35","source":"synthetic_seed_not_real_footprint","source_id":"35","building":"residential","name":"","levels":null,"footprint_m2":null,"centroid_lng":121.314351,"centroid_lat":31.186363,"geometry_source":"synthetic_seed"},"geometry":{"type":"Polygon","coordinates":[[[121.314231,31.186243],[121.314471,31.186243],[121.314471,31.186483],[121.314231,31.186483],[121.314231,31.186243]]]}},{"type":"Feature","properties":{"building_id":"hongqiao_hub:seed:36","source":"synthetic_seed_not_real_footprint","source_id":"36","building":"yes","name":"","levels":null,"footprint_m2":null,"centroid_lng":121.352454,"centroid_lat":31.192377,"geometry_source":"synthetic_seed"},"geometry":{"type":"Polygon","coordinates":[[[121.352334,31.192257],[121.35257399999999,31.192257],[121.35257399999999,31.192497],[121.352334,31.192497],[121.352334,31.192257]]]}},{"type":"Feature","properties":{"building_id":"hongqiao_hub:seed:37","source":"synthetic_seed_not_real_footprint","source_id":"37","building":"apartments","name":"","levels":null,"footprint_m2":null,"centroid_lng":121.305626,"centroid_lat":31.217604,"geometry_source":"synthetic_seed"},"geometry":{"type":"Polygon","coordinates":[[[121.30550600000001,31.217484000000002],[121.305746,31.217484000000002],[121.305746,31.217724],[121.30550600000001,31.217724],[121.30550600000001,31.217484000000002]]]}},{"type":"Feature","properties":{"building_id":"hongqiao_hub:seed:38","source":"synthetic_seed_not_real_footprint","source_id":"38","building":"commercial","name":"","levels":null,"footprint_m2":null,"centroid_lng":121.351317,"centroid_lat":31.193126,"geometry_source":"synthetic_seed"},"geometry":{"type":"Polygon","coordinates":[[[121.351197,31.193006],[121.35143699999999,31.193006],[121.35143699999999,31.193246],[121.351197,31.193246],[121.351197,31.193006]]]}},{"type":"Feature","properties":{"building_id":"hongqiao_hub:seed:39","source":"synthetic_seed_not_real_footprint","source_id":"39","building":"office","name":"","levels":null,"footprint_m2":null,"centroid_lng":121.361091,"centroid_lat":31.21382,"geometry_source":"synthetic_seed"},"geometry":{"type":"Polygon","coordinates":[[[121.360971,31.2137],[121.361211,31.2137],[121.361211,31.213939999999997],[121.360971,31.213939999999997],[121.360971,31.2137]]]}},{"type":"Feature","properties":{"building_id":"hongqiao_hub:seed:40","source":"synthetic_seed_not_real_footprint","source_id":"40","building":"residential","name":"","levels":null,"footprint_m2":null,"centroid_lng":121.303789,"centroid_lat":31.209691,"geometry_source":"synthetic_seed"},"geometry":{"type":"Polygon","coordinates":[[[121.303669,31.209571],[121.30390899999999,31.209571],[121.30390899999999,31.209811],[121.303669,31.209811],[121.303669,31.209571]]]}},{"type":"Feature","properties":{"building_id":"hongqiao_hub:seed:41","source":"synthetic_seed_not_real_footprint","source_id":"41","building":"yes","name":"","levels":null,"footprint_m2":null,"centroid_lng":121.329178,"centroid_lat":31.211315,"geometry_source":"synthetic_seed"},"geometry":{"type":"Polygon","coordinates":[[[121.329058,31.211195],[121.329298,31.211195],[121.329298,31.211434999999998],[121.329058,31.211434999999998],[121.329058,31.211195]]]}},{"type":"Feature","properties":{"building_id":"hongqiao_hub:seed:42","source":"synthetic_seed_not_real_footprint","source_id":"42","building":"apartments","name":"","levels":null,"footprint_m2":null,"centroid_lng":121.34653,"centroid_lat":31.172306,"geometry_source":"synthetic_seed"},"geometry":{"type":"Polygon","coordinates":[[[121.34641,31.172186],[121.34665,31.172186],[121.34665,31.172425999999998],[121.34641,31.172425999999998],[121.34641,31.172186]]]}},{"type":"Feature","properties":{"building_id":"hongqiao_hub:seed:43","source":"synthetic_seed_not_real_footprint","source_id":"43","building":"commercial","name":"","levels":null,"footprint_m2":null,"centroid_lng":121.309954,"centroid_lat":31.189874,"geometry_source":"synthetic_seed"},"geometry":{"type":"Polygon","coordinates":[[[121.30983400000001,31.189754],[121.310074,31.189754],[121.310074,31.189994],[121.30983400000001,31.189994],[121.30983400000001,31.189754]]]}},{"type":"Feature","properties":{"building_id":"hongqiao_hub:seed:44","source":"synthetic_seed_not_real_footprint","source_id":"44","building":"office","name":"","levels":null,"footprint_m2":null,"centroid_lng":121.319579,"centroid_lat":31.221275,"geometry_source":"synthetic_seed"},"geometry":{"type":"Polygon","coordinates":[[[121.31945900000001,31.221155],[121.319699,31.221155],[121.319699,31.221394999999998],[121.31945900000001,31.221394999999998],[121.31945900000001,31.221155]]]}},{"type":"Feature","properties":{"building_id":"hongqiao_hub:seed:45","source":"synthetic_seed_not_real_footprint","source_id":"45","building":"residential","name":"","levels":null,"footprint_m2":null,"centroid_lng":121.357105,"centroid_lat":31.197568,"geometry_source":"synthetic_seed"},"geometry":{"type":"Polygon","coordinates":[[[121.35698500000001,31.197448],[121.357225,31.197448],[121.357225,31.197688],[121.35698500000001,31.197688],[121.35698500000001,31.197448]]]}},{"type":"Feature","properties":{"building_id":"hongqiao_hub:seed:46","source":"synthetic_seed_not_real_footprint","source_id":"46","building":"yes","name":"","levels":null,"footprint_m2":null,"centroid_lng":121.365236,"centroid_lat":31.200858,"geometry_source":"synthetic_seed"},"geometry":{"type":"Polygon","coordinates":[[[121.365116,31.200738],[121.36535599999999,31.200738],[121.36535599999999,31.200978],[121.365116,31.200978],[121.365116,31.200738]]]}},{"type":"Feature","properties":{"building_id":"hongqiao_hub:seed:47","source":"synthetic_seed_not_real_footprint","source_id":"47","building":"apartments","name":"","levels":null,"footprint_m2":null,"centroid_lng":121.347278,"centroid_lat":31.210529,"geometry_source":"synthetic_seed"},"geometry":{"type":"Polygon","coordinates":[[[121.34715800000001,31.210409000000002],[121.347398,31.210409000000002],[121.347398,31.210649],[121.34715800000001,31.210649],[121.34715800000001,31.210409000000002]]]}},{"type":"Feature","properties":{"building_id":"hongqiao_hub:seed:48","source":"synthetic_seed_not_real_footprint","source_id":"48","building":"commercial","name":"","levels":null,"footprint_m2":null,"centroid_lng":121.353785,"centroid_lat":31.185033,"geometry_source":"synthetic_seed"},"geometry":{"type":"Polygon","coordinates":[[[121.353665,31.184913],[121.353905,31.184913],[121.353905,31.185153],[121.353665,31.185153],[121.353665,31.184913]]]}},{"type":"Feature","properties":{"building_id":"hongqiao_hub:seed:49","source":"synthetic_seed_not_real_footprint","source_id":"49","building":"office","name":"","levels":null,"footprint_m2":null,"centroid_lng":121.326698,"centroid_lat":31.196004,"geometry_source":"synthetic_seed"},"geometry":{"type":"Polygon","coordinates":[[[121.326578,31.195884],[121.32681799999999,31.195884],[121.32681799999999,31.196123999999998],[121.326578,31.196123999999998],[121.326578,31.195884]]]}},{"type":"Feature","properties":{"building_id":"hongqiao_hub:seed:50","source":"synthetic_seed_not_real_footprint","source_id":"50","building":"residential","name":"","levels":null,"footprint_m2":null,"centroid_lng":121.368347,"centroid_lat":31.224239,"geometry_source":"synthetic_seed"},"geometry":{"type":"Polygon","coordinates":[[[121.368227,31.224119],[121.368467,31.224119],[121.368467,31.224359],[121.368227,31.224359],[121.368227,31.224119]]]}},{"type":"Feature","properties":{"building_id":"hongqiao_hub:seed:51","source":"synthetic_seed_not_real_footprint","source_id":"51","building":"yes","name":"","levels":null,"footprint_m2":null,"centroid_lng":121.353674,"centroid_lat":31.208968,"geometry_source":"synthetic_seed"},"geometry":{"type":"Polygon","coordinates":[[[121.353554,31.208848],[121.353794,31.208848],[121.353794,31.209087999999998],[121.353554,31.209087999999998],[121.353554,31.208848]]]}},{"type":"Feature","properties":{"building_id":"hongqiao_hub:seed:52","source":"synthetic_seed_not_real_footprint","source_id":"52","building":"apartments","name":"","levels":null,"footprint_m2":null,"centroid_lng":121.32133,"centroid_lat":31.176843,"geometry_source":"synthetic_seed"},"geometry":{"type":"Polygon","coordinates":[[[121.32121000000001,31.176723000000003],[121.32145,31.176723000000003],[121.32145,31.176963],[121.32121000000001,31.176963],[121.32121000000001,31.176723000000003]]]}},{"type":"Feature","properties":{"building_id":"hongqiao_hub:seed:53","source":"synthetic_seed_not_real_footprint","source_id":"53","building":"commercial","name":"","levels":null,"footprint_m2":null,"centroid_lng":121.369358,"centroid_lat":31.176892,"geometry_source":"synthetic_seed"},"geometry":{"type":"Polygon","coordinates":[[[121.36923800000001,31.176772],[121.369478,31.176772],[121.369478,31.177011999999998],[121.36923800000001,31.177011999999998],[121.36923800000001,31.176772]]]}},{"type":"Feature","properties":{"building_id":"hongqiao_hub:seed:54","source":"synthetic_seed_not_real_footprint","source_id":"54","building":"office","name":"","levels":null,"footprint_m2":null,"centroid_lng":121.32704,"centroid_lat":31.197591,"geometry_source":"synthetic_seed"},"geometry":{"type":"Polygon","coordinates":[[[121.32692,31.197471],[121.32715999999999,31.197471],[121.32715999999999,31.197710999999998],[121.32692,31.197710999999998],[121.32692,31.197471]]]}},{"type":"Feature","properties":{"building_id":"hongqiao_hub:seed:55","source":"synthetic_seed_not_real_footprint","source_id":"55","building":"residential","name":"","levels":null,"footprint_m2":null,"centroid_lng":121.330873,"centroid_lat":31.222887,"geometry_source":"synthetic_seed"},"geometry":{"type":"Polygon","coordinates":[[[121.330753,31.222767],[121.33099299999999,31.222767],[121.33099299999999,31.223007],[121.330753,31.223007],[121.330753,31.222767]]]}},{"type":"Feature","properties":{"building_id":"hongqiao_hub:seed:56","source":"synthetic_seed_not_real_footprint","source_id":"56","building":"yes","name":"","levels":null,"footprint_m2":null,"centroid_lng":121.337788,"centroid_lat":31.171558,"geometry_source":"synthetic_seed"},"geometry":{"type":"Polygon","coordinates":[[[121.33766800000001,31.171438000000002],[121.337908,31.171438000000002],[121.337908,31.171678],[121.33766800000001,31.171678],[121.33766800000001,31.171438000000002]]]}},{"type":"Feature","properties":{"building_id":"hongqiao_hub:seed:57","source":"synthetic_seed_not_real_footprint","source_id":"57","building":"apartments","name":"","levels":null,"footprint_m2":null,"centroid_lng":121.30864,"centroid_lat":31.220821,"geometry_source":"synthetic_seed"},"geometry":{"type":"Polygon","coordinates":[[[121.30852,31.220701000000002],[121.30875999999999,31.220701000000002],[121.30875999999999,31.220941],[121.30852,31.220941],[121.30852,31.220701000000002]]]}},{"type":"Feature","properties":{"building_id":"hongqiao_hub:seed:58","source":"synthetic_seed_not_real_footprint","source_id":"58","building":"commercial","name":"","levels":null,"footprint_m2":null,"centroid_lng":121.323045,"centroid_lat":31.187561,"geometry_source":"synthetic_seed"},"geometry":{"type":"Polygon","coordinates":[[[121.322925,31.187441],[121.32316499999999,31.187441],[121.32316499999999,31.187680999999998],[121.322925,31.187680999999998],[121.322925,31.187441]]]}},{"type":"Feature","properties":{"building_id":"hongqiao_hub:seed:59","source":"synthetic_seed_not_real_footprint","source_id":"59","building":"office","name":"","levels":null,"footprint_m2":null,"centroid_lng":121.336306,"centroid_lat":31.173502,"geometry_source":"synthetic_seed"},"geometry":{"type":"Polygon","coordinates":[[[121.336186,31.173382],[121.33642599999999,31.173382],[121.33642599999999,31.173621999999998],[121.336186,31.173621999999998],[121.336186,31.173382]]]}},{"type":"Feature","properties":{"building_id":"hongqiao_hub:seed:60","source":"synthetic_seed_not_real_footprint","source_id":"60","building":"residential","name":"","levels":null,"footprint_m2":null,"centroid_lng":121.309246,"centroid_lat":31.193499,"geometry_source":"synthetic_seed"},"geometry":{"type":"Polygon","coordinates":[[[121.309126,31.193379],[121.309366,31.193379],[121.309366,31.193618999999998],[121.309126,31.193618999999998],[121.309126,31.193379]]]}},{"type":"Feature","properties":{"building_id":"hongqiao_hub:seed:61","source":"synthetic_seed_not_real_footprint","source_id":"61","building":"yes","name":"","levels":null,"footprint_m2":null,"centroid_lng":121.314104,"centroid_lat":31.191822,"geometry_source":"synthetic_seed"},"geometry":{"type":"Polygon","coordinates":[[[121.313984,31.191702],[121.314224,31.191702],[121.314224,31.191941999999997],[121.313984,31.191941999999997],[121.313984,31.191702]]]}},{"type":"Feature","properties":{"building_id":"hongqiao_hub:seed:62","source":"synthetic_seed_not_real_footprint","source_id":"62","building":"apartments","name":"","levels":null,"footprint_m2":null,"centroid_lng":121.33152,"centroid_lat":31.168317,"geometry_source":"synthetic_seed"},"geometry":{"type":"Polygon","coordinates":[[[121.3314,31.168197],[121.33164,31.168197],[121.33164,31.168436999999997],[121.3314,31.168436999999997],[121.3314,31.168197]]]}},{"type":"Feature","properties":{"building_id":"hongqiao_hub:seed:63","source":"synthetic_seed_not_real_footprint","source_id":"63","building":"commercial","name":"","levels":null,"footprint_m2":null,"centroid_lng":121.317968,"centroid_lat":31.189821,"geometry_source":"synthetic_seed"},"geometry":{"type":"Polygon","coordinates":[[[121.317848,31.189701],[121.31808799999999,31.189701],[121.31808799999999,31.189940999999997],[121.317848,31.189940999999997],[121.317848,31.189701]]]}},{"type":"Feature","properties":{"building_id":"hongqiao_hub:seed:64","source":"synthetic_seed_not_real_footprint","source_id":"64","building":"office","name":"","levels":null,"footprint_m2":null,"centroid_lng":121.300861,"centroid_lat":31.195383,"geometry_source":"synthetic_seed"},"geometry":{"type":"Polygon","coordinates":[[[121.300741,31.195263],[121.300981,31.195263],[121.300981,31.195503],[121.300741,31.195503],[121.300741,31.195263]]]}},{"type":"Feature","properties":{"building_id":"hongqiao_hub:seed:65","source":"synthetic_seed_not_real_footprint","source_id":"65","building":"residential","name":"","levels":null,"footprint_m2":null,"centroid_lng":121.308828,"centroid_lat":31.223475,"geometry_source":"synthetic_seed"},"geometry":{"type":"Polygon","coordinates":[[[121.30870800000001,31.223355],[121.308948,31.223355],[121.308948,31.223595],[121.30870800000001,31.223595],[121.30870800000001,31.223355]]]}},{"type":"Feature","properties":{"building_id":"hongqiao_hub:seed:66","source":"synthetic_seed_not_real_footprint","source_id":"66","building":"yes","name":"","levels":null,"footprint_m2":null,"centroid_lng":121.357945,"centroid_lat":31.186819,"geometry_source":"synthetic_seed"},"geometry":{"type":"Polygon","coordinates":[[[121.357825,31.186699],[121.358065,31.186699],[121.358065,31.186939],[121.357825,31.186939],[121.357825,31.186699]]]}},{"type":"Feature","properties":{"building_id":"hongqiao_hub:seed:67","source":"synthetic_seed_not_real_footprint","source_id":"67","building":"apartments","name":"","levels":null,"footprint_m2":null,"centroid_lng":121.347961,"centroid_lat":31.21009,"geometry_source":"synthetic_seed"},"geometry":{"type":"Polygon","coordinates":[[[121.347841,31.209970000000002],[121.348081,31.209970000000002],[121.348081,31.21021],[121.347841,31.21021],[121.347841,31.209970000000002]]]}},{"type":"Feature","properties":{"building_id":"hongqiao_hub:seed:68","source":"synthetic_seed_not_real_footprint","source_id":"68","building":"commercial","name":"","levels":null,"footprint_m2":null,"centroid_lng":121.303119,"centroid_lat":31.208159,"geometry_source":"synthetic_seed"},"geometry":{"type":"Polygon","coordinates":[[[121.302999,31.208039],[121.30323899999999,31.208039],[121.30323899999999,31.208278999999997],[121.302999,31.208278999999997],[121.302999,31.208039]]]}},{"type":"Feature","properties":{"building_id":"hongqiao_hub:seed:69","source":"synthetic_seed_not_real_footprint","source_id":"69","building":"office","name":"","levels":null,"footprint_m2":null,"centroid_lng":121.367618,"centroid_lat":31.188841,"geometry_source":"synthetic_seed"},"geometry":{"type":"Polygon","coordinates":[[[121.367498,31.188721],[121.36773799999999,31.188721],[121.36773799999999,31.188961],[121.367498,31.188961],[121.367498,31.188721]]]}},{"type":"Feature","properties":{"building_id":"hongqiao_hub:seed:70","source":"synthetic_seed_not_real_footprint","source_id":"70","building":"residential","name":"","levels":null,"footprint_m2":null,"centroid_lng":121.327571,"centroid_lat":31.211815,"geometry_source":"synthetic_seed"},"geometry":{"type":"Polygon","coordinates":[[[121.32745100000001,31.211695000000002],[121.327691,31.211695000000002],[121.327691,31.211935],[121.32745100000001,31.211935],[121.32745100000001,31.211695000000002]]]}},{"type":"Feature","properties":{"building_id":"hongqiao_hub:seed:71","source":"synthetic_seed_not_real_footprint","source_id":"71","building":"yes","name":"","levels":null,"footprint_m2":null,"centroid_lng":121.318781,"centroid_lat":31.191355,"geometry_source":"synthetic_seed"},"geometry":{"type":"Polygon","coordinates":[[[121.318661,31.191235000000002],[121.318901,31.191235000000002],[121.318901,31.191475],[121.318661,31.191475],[121.318661,31.191235000000002]]]}},{"type":"Feature","properties":{"building_id":"hongqiao_hub:seed:72","source":"synthetic_seed_not_real_footprint","source_id":"72","building":"apartments","name":"","levels":null,"footprint_m2":null,"centroid_lng":121.307391,"centroid_lat":31.212244,"geometry_source":"synthetic_seed"},"geometry":{"type":"Polygon","coordinates":[[[121.307271,31.212124],[121.30751099999999,31.212124],[121.30751099999999,31.212363999999997],[121.307271,31.212363999999997],[121.307271,31.212124]]]}},{"type":"Feature","properties":{"building_id":"hongqiao_hub:seed:73","source":"synthetic_seed_not_real_footprint","source_id":"73","building":"commercial","name":"","levels":null,"footprint_m2":null,"centroid_lng":121.318391,"centroid_lat":31.186853,"geometry_source":"synthetic_seed"},"geometry":{"type":"Polygon","coordinates":[[[121.31827100000001,31.186733],[121.318511,31.186733],[121.318511,31.186973],[121.31827100000001,31.186973],[121.31827100000001,31.186733]]]}},{"type":"Feature","properties":{"building_id":"hongqiao_hub:seed:74","source":"synthetic_seed_not_real_footprint","source_id":"74","building":"office","name":"","levels":null,"footprint_m2":null,"centroid_lng":121.3442,"centroid_lat":31.175893,"geometry_source":"synthetic_seed"},"geometry":{"type":"Polygon","coordinates":[[[121.34408,31.175773],[121.34432,31.175773],[121.34432,31.176012999999998],[121.34408,31.176012999999998],[121.34408,31.175773]]]}},{"type":"Feature","properties":{"building_id":"hongqiao_hub:seed:75","source":"synthetic_seed_not_real_footprint","source_id":"75","building":"residential","name":"","levels":null,"footprint_m2":null,"centroid_lng":121.309494,"centroid_lat":31.172225,"geometry_source":"synthetic_seed"},"geometry":{"type":"Polygon","coordinates":[[[121.309374,31.172105000000002],[121.309614,31.172105000000002],[121.309614,31.172345],[121.309374,31.172345],[121.309374,31.172105000000002]]]}},{"type":"Feature","properties":{"building_id":"hongqiao_hub:seed:76","source":"synthetic_seed_not_real_footprint","source_id":"76","building":"yes","name":"","levels":null,"footprint_m2":null,"centroid_lng":121.333247,"centroid_lat":31.168991,"geometry_source":"synthetic_seed"},"geometry":{"type":"Polygon","coordinates":[[[121.333127,31.168871],[121.333367,31.168871],[121.333367,31.169110999999997],[121.333127,31.169110999999997],[121.333127,31.168871]]]}},{"type":"Feature","properties":{"building_id":"hongqiao_hub:seed:77","source":"synthetic_seed_not_real_footprint","source_id":"77","building":"apartments","name":"","levels":null,"footprint_m2":null,"centroid_lng":121.319121,"centroid_lat":31.205076,"geometry_source":"synthetic_seed"},"geometry":{"type":"Polygon","coordinates":[[[121.319001,31.204956],[121.31924099999999,31.204956],[121.31924099999999,31.205195999999997],[121.319001,31.205195999999997],[121.319001,31.204956]]]}},{"type":"Feature","properties":{"building_id":"hongqiao_hub:seed:78","source":"synthetic_seed_not_real_footprint","source_id":"78","building":"commercial","name":"","levels":null,"footprint_m2":null,"centroid_lng":121.327322,"centroid_lat":31.193513,"geometry_source":"synthetic_seed"},"geometry":{"type":"Polygon","coordinates":[[[121.327202,31.193393],[121.32744199999999,31.193393],[121.32744199999999,31.193633],[121.327202,31.193633],[121.327202,31.193393]]]}},{"type":"Feature","properties":{"building_id":"hongqiao_hub:seed:79","source":"synthetic_seed_not_real_footprint","source_id":"79","building":"office","name":"","levels":null,"footprint_m2":null,"centroid_lng":121.312023,"centroid_lat":31.21445,"geometry_source":"synthetic_seed"},"geometry":{"type":"Polygon","coordinates":[[[121.311903,31.21433],[121.31214299999999,31.21433],[121.31214299999999,31.21457],[121.311903,31.21457],[121.311903,31.21433]]]}},{"type":"Feature","properties":{"building_id":"hongqiao_hub:seed:80","source":"synthetic_seed_not_real_footprint","source_id":"80","building":"residential","name":"","levels":null,"footprint_m2":null,"centroid_lng":121.313223,"centroid_lat":31.206727,"geometry_source":"synthetic_seed"},"geometry":{"type":"Polygon","coordinates":[[[121.313103,31.206607],[121.31334299999999,31.206607],[121.31334299999999,31.206847],[121.313103,31.206847],[121.313103,31.206607]]]}}]}