{"type":"FeatureCollection","features":[{"type":"Feature","properties":{"parcel_id":"hongqiao_hub:parcel:0001","geometry_method":"road_barrier_raster_plus_buildings","functional_type":"residential","dominant_type":"residential","confidence":1,"building_count":1,"avg_building_area_m2":606,"centroid_lng":121.309494,"centroid_lat":31.172225,"parcel_area_m2":1123085,"safety_clipped":false,"classification_source":"osm_tags+building_morphology+spatial_prior","synthetic_classification":true,"qc_flags":""},"geometry":{"type":"MultiPolygon","coordinates":[[[[121.29946699861861,31.162982019484403],[121.3105743160577,31.162982019484403],[121.3105743160577,31.16325543951844],[121.29946699861861,31.16325543951844],[121.29946699861861,31.162982019484403]]],[[[121.29946699861861,31.16325543951844],[121.3105743160577,31.16325543951844],[121.3105743160577,31.16352885955248],[121.29946699861861,31.16352885955248],[121.29946699861861,31.16325543951844]]],[[[121.29946699861861,31.16352885955248],[121.31145120953973,31.16352885955248],[121.31145120953973,31.163802279586516],[121.29946699861861,31.163802279586516],[121.29946699861861,31.16352885955248]]],[[[121.29946699861861,31.163802279586516],[121.31232810302177,31.163802279586516],[121.31232810302177,31.164075699620554],[121.29946699861861,31.164075699620554],[121.29946699861861,31.163802279586516]]],[[[121.29946699861861,31.164075699620557],[121.31291269867646,31.164075699620557],[121.31291269867646,31.164349119654595],[121.29946699861861,31.164349119654595],[121.29946699861861,31.164075699620557]]],[[[121.29946699861861,31.164349119654595],[121.31349729433114,31.164349119654595],[121.31349729433114,31.164622539688633],[121.29946699861861,31.164622539688633],[121.29946699861861,31.164349119654595]]],[[[121.29946699861861,31.164622539688633],[121.31378959215849,31.164622539688633],[121.31378959215849,31.16489595972267],[121.29946699861861,31.16489595972267],[121.29946699861861,31.164622539688633]]],[[[121.29946699861861,31.16489595972267],[121.31378959215849,31.16489595972267],[121.31378959215849,31.16516937975671],[121.29946699861861,31.16516937975671],[121.29946699861861,31.16489595972267]]],[[[121.29946699861861,31.16516937975671],[121.31349729433114,31.16516937975671],[121.31349729433114,31.165442799790746],[121.29946699861861,31.165442799790746],[121.29946699861861,31.16516937975671]]],[[[121.29946699861861,31.165442799790746],[121.3132049965038,31.165442799790746],[121.3132049965038,31.165716219824784],[121.29946699861861,31.165716219824784],[121.29946699861861,31.165442799790746]]],[[[121.29946699861861,31.165716219824784],[121.31291269867646,31.165716219824784],[121.31291269867646,31.16598963985882],[121.29946699861861,31.16598963985882],[121.29946699861861,31.165716219824784]]],[[[121.29946699861861,31.16598963985882],[121.31291269867646,31.16598963985882],[121.31291269867646,31.16626305989286],[121.29946699861861,31.16626305989286],[121.29946699861861,31.16598963985882]]],[[[121.29946699861861,31.166263059892863],[121.31262040084911,31.166263059892863],[121.31262040084911,31.1665364799269],[121.29946699861861,31.1665364799269],[121.29946699861861,31.166263059892863]]],[[[121.29946699861861,31.1665364799269],[121.31232810302177,31.1665364799269],[121.31232810302177,31.16680989996094],[121.29946699861861,31.16680989996094],[121.29946699861861,31.1665364799269]]],[[[121.29946699861861,31.16680989996094],[121.31232810302177,31.16680989996094],[121.31232810302177,31.167083319994976],[121.29946699861861,31.167083319994976],[121.29946699861861,31.16680989996094]]],[[[121.29946699861861,31.167083319994976],[121.31203580519443,31.167083319994976],[121.31203580519443,31.167356740029014],[121.29946699861861,31.167356740029014],[121.29946699861861,31.167083319994976]]],[[[121.29946699861861,31.167356740029014],[121.31203580519443,31.167356740029014],[121.31203580519443,31.16763016006305],[121.29946699861861,31.16763016006305],[121.29946699861861,31.167356740029014]]],[[[121.29946699861861,31.16763016006305],[121.31174350736708,31.16763016006305],[121.31174350736708,31.16790358009709],[121.29946699861861,31.16790358009709],[121.29946699861861,31.16763016006305]]],[[[121.29946699861861,31.16790358009709],[121.31145120953973,31.16790358009709],[121.31145120953973,31.168177000131127],[121.29946699861861,31.168177000131127],[121.29946699861861,31.16790358009709]]],[[[121.29946699861861,31.16817700013113],[121.31145120953973,31.16817700013113],[121.31145120953973,31.16845042016517],[121.29946699861861,31.16845042016517],[121.29946699861861,31.16817700013113]]],[[[121.29946699861861,31.16845042016517],[121.31115891171238,31.16845042016517],[121.31115891171238,31.168723840199206],[121.29946699861861,31.168723840199206],[121.29946699861861,31.16845042016517]]],[[[121.29946699861861,31.168723840199206],[121.31115891171238,31.168723840199206],[121.31115891171238,31.168997260233244],[121.29946699861861,31.168997260233244],[121.29946699861861,31.168723840199206]]],[[[121.29946699861861,31.168997260233244],[121.31086661388504,31.168997260233244],[121.31086661388504,31.16927068026728],[121.29946699861861,31.16927068026728],[121.29946699861861,31.168997260233244]]],[[[121.29946699861861,31.16927068026728],[121.3105743160577,31.16927068026728],[121.3105743160577,31.16954410030132],[121.29946699861861,31.16954410030132],[121.29946699861861,31.16927068026728]]],[[[121.29946699861861,31.16954410030132],[121.3105743160577,31.16954410030132],[121.3105743160577,31.169817520335357],[121.29946699861861,31.169817520335357],[121.29946699861861,31.16954410030132]]],[[[121.29946699861861,31.169817520335357],[121.31028201823035,31.169817520335357],[121.31028201823035,31.170090940369395],[121.29946699861861,31.170090940369395],[121.29946699861861,31.169817520335357]]],[[[121.29946699861861,31.170090940369395],[121.30998972040301,31.170090940369395],[121.30998972040301,31.170364360403433],[121.29946699861861,31.170364360403433],[121.29946699861861,31.170090940369395]]],[[[121.29946699861861,31.170364360403436],[121.30998972040301,31.170364360403436],[121.30998972040301,31.170637780437474],[121.29946699861861,31.170637780437474],[121.29946699861861,31.170364360403436]]],[[[121.29946699861861,31.170637780437474],[121.30969742257567,31.170637780437474],[121.30969742257567,31.17091120047151],[121.29946699861861,31.17091120047151],[121.29946699861861,31.170637780437474]]],[[[121.29946699861861,31.17091120047151],[121.30969742257567,31.17091120047151],[121.30969742257567,31.17118462050555],[121.29946699861861,31.17118462050555],[121.29946699861861,31.17091120047151]]],[[[121.3000515942733,31.17118462050555],[121.30940512474832,31.17118462050555],[121.30940512474832,31.171458040539587],[121.3000515942733,31.171458040539587],[121.3000515942733,31.17118462050555]]],[[[121.3000515942733,31.171458040539587],[121.30823593343894,31.171458040539587],[121.30823593343894,31.171731460573625],[121.3000515942733,31.171731460573625],[121.3000515942733,31.171458040539587]]],[[[121.30034389210064,31.171731460573625],[121.30560525299285,31.171731460573625],[121.30560525299285,31.172004880607663],[121.30034389210064,31.172004880607663],[121.30034389210064,31.171731460573625]]]]}},{"type":"Feature","properties":{"parcel_id":"hongqiao_hub:parcel:0002","geometry_method":"road_barrier_raster_plus_buildings","functional_type":"office","dominant_type":"office","confidence":0.89,"building_count":1,"avg_building_area_m2":606,"centroid_lng":121.323091,"centroid_lat":31.16462,"parcel_area_m2":553551,"safety_clipped":false,"classification_source":"osm_tags+building_morphology+spatial_prior","synthetic_classification":true,"qc_flags":""},"geometry":{"type":"MultiPolygon","coordinates":[[[[121.31642027260459,31.162982019484403],[121.3210970378421,31.162982019484403],[121.3210970378421,31.16325543951844],[121.31642027260459,31.16325543951844],[121.31642027260459,31.162982019484403]]],[[[121.31642027260459,31.16325543951844],[121.3210970378421,31.16325543951844],[121.3210970378421,31.16352885955248],[121.31642027260459,31.16352885955248],[121.31642027260459,31.16325543951844]]],[[[121.31642027260459,31.16352885955248],[121.3210970378421,31.16352885955248],[121.3210970378421,31.163802279586516],[121.31642027260459,31.163802279586516],[121.31642027260459,31.16352885955248]]],[[[121.31612797477725,31.163802279586516],[121.32226622915147,31.163802279586516],[121.32226622915147,31.164075699620554],[121.31612797477725,31.164075699620554],[121.31612797477725,31.163802279586516]]],[[[121.3158356769499,31.164075699620557],[121.32226622915147,31.164075699620557],[121.32226622915147,31.164349119654595],[121.3158356769499,31.164349119654595],[121.3158356769499,31.164075699620557]]],[[[121.31554337912256,31.164349119654595],[121.32226622915147,31.164349119654595],[121.32226622915147,31.164622539688633],[121.31554337912256,31.164622539688633],[121.31554337912256,31.164349119654595]]],[[[121.3152510812952,31.164622539688633],[121.32197393132412,31.164622539688633],[121.32197393132412,31.16489595972267],[121.3152510812952,31.16489595972267],[121.3152510812952,31.164622539688633]]],[[[121.3152510812952,31.16489595972267],[121.32197393132412,31.16489595972267],[121.32197393132412,31.16516937975671],[121.3152510812952,31.16516937975671],[121.3152510812952,31.16489595972267]]],[[[121.31495878346786,31.16516937975671],[121.32168163349678,31.16516937975671],[121.32168163349678,31.165442799790746],[121.31495878346786,31.165442799790746],[121.31495878346786,31.16516937975671]]],[[[121.31466648564052,31.165442799790746],[121.32138933566944,31.165442799790746],[121.32138933566944,31.165716219824784],[121.31466648564052,31.165716219824784],[121.31466648564052,31.165442799790746]]],[[[121.31466648564052,31.165716219824784],[121.32138933566944,31.165716219824784],[121.32138933566944,31.16598963985882],[121.31466648564052,31.16598963985882],[121.31466648564052,31.165716219824784]]],[[[121.31437418781317,31.16598963985882],[121.32138933566944,31.16598963985882],[121.32138933566944,31.16626305989286],[121.31437418781317,31.16626305989286],[121.31437418781317,31.16598963985882]]],[[[121.31408188998583,31.166263059892863],[121.3210970378421,31.166263059892863],[121.3210970378421,31.1665364799269],[121.31408188998583,31.1665364799269],[121.31408188998583,31.166263059892863]]],[[[121.31378959215849,31.1665364799269],[121.32080474001475,31.1665364799269],[121.32080474001475,31.16680989996094],[121.31378959215849,31.16680989996094],[121.31378959215849,31.1665364799269]]],[[[121.31378959215849,31.16680989996094],[121.32080474001475,31.16680989996094],[121.32080474001475,31.167083319994976],[121.31378959215849,31.167083319994976],[121.31378959215849,31.16680989996094]]],[[[121.31349729433114,31.167083319994976],[121.32051244218741,31.167083319994976],[121.32051244218741,31.167356740029014],[121.31349729433114,31.167356740029014],[121.31349729433114,31.167083319994976]]],[[[121.3132049965038,31.167356740029014],[121.32051244218741,31.167356740029014],[121.32051244218741,31.16763016006305],[121.3132049965038,31.16763016006305],[121.3132049965038,31.167356740029014]]],[[[121.3132049965038,31.16763016006305],[121.32022014436006,31.16763016006305],[121.32022014436006,31.16790358009709],[121.3132049965038,31.16790358009709],[121.3132049965038,31.16763016006305]]],[[[121.31291269867646,31.16790358009709],[121.31992784653272,31.16790358009709],[121.31992784653272,31.168177000131127],[121.31291269867646,31.168177000131127],[121.31291269867646,31.16790358009709]]],[[[121.31291269867646,31.16817700013113],[121.31992784653272,31.16817700013113],[121.31992784653272,31.16845042016517],[121.31291269867646,31.16845042016517],[121.31291269867646,31.16817700013113]]],[[[121.31262040084911,31.16845042016517],[121.31963554870538,31.16845042016517],[121.31963554870538,31.168723840199206],[121.31262040084911,31.168723840199206],[121.31262040084911,31.16845042016517]]],[[[121.31232810302177,31.168723840199206],[121.31963554870538,31.168723840199206],[121.31963554870538,31.168997260233244],[121.31232810302177,31.168997260233244],[121.31232810302177,31.168723840199206]]],[[[121.31232810302177,31.168997260233244],[121.31934325087803,31.168997260233244],[121.31934325087803,31.16927068026728],[121.31232810302177,31.16927068026728],[121.31232810302177,31.168997260233244]]],[[[121.31203580519443,31.16927068026728],[121.31934325087803,31.16927068026728],[121.31934325087803,31.16954410030132],[121.31203580519443,31.16954410030132],[121.31203580519443,31.16927068026728]]],[[[121.31203580519443,31.16954410030132],[121.31905095305069,31.16954410030132],[121.31905095305069,31.169817520335357],[121.31203580519443,31.169817520335357],[121.31203580519443,31.16954410030132]]],[[[121.31174350736708,31.169817520335357],[121.31905095305069,31.169817520335357],[121.31905095305069,31.170090940369395],[121.31174350736708,31.170090940369395],[121.31174350736708,31.169817520335357]]],[[[121.31145120953973,31.170090940369395],[121.31875865522335,31.170090940369395],[121.31875865522335,31.170364360403433],[121.31145120953973,31.170364360403433],[121.31145120953973,31.170090940369395]]],[[[121.31145120953973,31.170364360403436],[121.31817405956865,31.170364360403436],[121.31817405956865,31.170637780437474],[121.31145120953973,31.170637780437474],[121.31145120953973,31.170364360403436]]],[[[121.31115891171238,31.170637780437474],[121.31437418781317,31.170637780437474],[121.31437418781317,31.17091120047151],[121.31115891171238,31.17091120047151],[121.31115891171238,31.170637780437474]]],[[[121.31086661388504,31.17091120047151],[121.31262040084911,31.17091120047151],[121.31262040084911,31.17118462050555],[121.31086661388504,31.17118462050555],[121.31086661388504,31.17091120047151]]]]}},{"type":"Feature","properties":{"parcel_id":"hongqiao_hub:parcel:0005","geometry_method":"road_barrier_raster_plus_buildings","functional_type":"mixed","dominant_type":"office","confidence":0.53,"building_count":2,"avg_building_area_m2":606,"centroid_lng":121.324339,"centroid_lat":31.176397,"parcel_area_m2":308743,"safety_clipped":false,"classification_source":"osm_tags+building_morphology+spatial_prior","synthetic_classification":true,"qc_flags":"low_confidence"},"geometry":{"type":"MultiPolygon","coordinates":[[[[121.32898907918039,31.168997260233244],[121.33045056831712,31.168997260233244],[121.33045056831712,31.16927068026728],[121.32898907918039,31.16927068026728],[121.32898907918039,31.168997260233244]]],[[[121.32869678135305,31.16927068026728],[121.33161975962649,31.16927068026728],[121.33161975962649,31.16954410030132],[121.32869678135305,31.16954410030132],[121.32869678135305,31.16927068026728]]],[[[121.3284044835257,31.16954410030132],[121.33191205745383,31.16954410030132],[121.33191205745383,31.169817520335357],[121.3284044835257,31.169817520335357],[121.3284044835257,31.16954410030132]]],[[[121.32811218569836,31.169817520335357],[121.33161975962649,31.169817520335357],[121.33161975962649,31.170090940369395],[121.32811218569836,31.170090940369395],[121.32811218569836,31.169817520335357]]],[[[121.32781988787102,31.170090940369395],[121.33161975962649,31.170090940369395],[121.33161975962649,31.170364360403433],[121.32781988787102,31.170364360403433],[121.32781988787102,31.170090940369395]]],[[[121.32752759004367,31.170364360403436],[121.33132746179915,31.170364360403436],[121.33132746179915,31.170637780437474],[121.32752759004367,31.170637780437474],[121.32752759004367,31.170364360403436]]],[[[121.32752759004367,31.170637780437474],[121.3310351639718,31.170637780437474],[121.3310351639718,31.17091120047151],[121.32752759004367,31.17091120047151],[121.32752759004367,31.170637780437474]]],[[[121.32723529221633,31.17091120047151],[121.3310351639718,31.17091120047151],[121.3310351639718,31.17118462050555],[121.32723529221633,31.17118462050555],[121.32723529221633,31.17091120047151]]],[[[121.32694299438899,31.17118462050555],[121.33074286614446,31.17118462050555],[121.33074286614446,31.171458040539587],[121.32694299438899,31.171458040539587],[121.32694299438899,31.17118462050555]]],[[[121.32694299438899,31.171458040539587],[121.33045056831712,31.171458040539587],[121.33045056831712,31.171731460573625],[121.32694299438899,31.171731460573625],[121.32694299438899,31.171458040539587]]],[[[121.32665069656164,31.171731460573625],[121.33045056831712,31.171731460573625],[121.33045056831712,31.172004880607663],[121.32665069656164,31.172004880607663],[121.32665069656164,31.171731460573625]]],[[[121.3263583987343,31.172004880607663],[121.33015827048978,31.172004880607663],[121.33015827048978,31.1722783006417],[121.3263583987343,31.1722783006417],[121.3263583987343,31.172004880607663]]],[[[121.32606610090696,31.1722783006417],[121.32986597266243,31.1722783006417],[121.32986597266243,31.172551720675738],[121.32606610090696,31.172551720675738],[121.32606610090696,31.1722783006417]]],[[[121.32577380307961,31.17255172067574],[121.32957367483509,31.17255172067574],[121.32957367483509,31.17282514070978],[121.32577380307961,31.17282514070978],[121.32577380307961,31.17255172067574]]],[[[121.32548150525226,31.17282514070978],[121.32957367483509,31.17282514070978],[121.32957367483509,31.173098560743817],[121.32548150525226,31.173098560743817],[121.32548150525226,31.17282514070978]]],[[[121.32489690959757,31.173098560743817],[121.32928137700773,31.173098560743817],[121.32928137700773,31.173371980777855],[121.32489690959757,31.173371980777855],[121.32489690959757,31.173098560743817]]],[[[121.32431231394288,31.173371980777855],[121.32898907918039,31.173371980777855],[121.32898907918039,31.173645400811893],[121.32431231394288,31.173645400811893],[121.32431231394288,31.173371980777855]]],[[[121.3237277182882,31.173645400811893],[121.32869678135305,31.173645400811893],[121.32869678135305,31.17391882084593],[121.3237277182882,31.17391882084593],[121.3237277182882,31.173645400811893]]],[[[121.32314312263351,31.17391882084593],[121.3284044835257,31.17391882084593],[121.3284044835257,31.174192240879968],[121.32314312263351,31.174192240879968],[121.32314312263351,31.17391882084593]]],[[[121.32285082480617,31.174192240879968],[121.3284044835257,31.174192240879968],[121.3284044835257,31.174465660914006],[121.32285082480617,31.174465660914006],[121.32285082480617,31.174192240879968]]],[[[121.32255852697882,31.17446566091401],[121.32811218569836,31.17446566091401],[121.32811218569836,31.174739080948047],[121.32255852697882,31.174739080948047],[121.32255852697882,31.17446566091401]]],[[[121.32226622915147,31.174739080948047],[121.32781988787102,31.174739080948047],[121.32781988787102,31.175012500982085],[121.32226622915147,31.175012500982085],[121.32226622915147,31.174739080948047]]],[[[121.32168163349678,31.175012500982085],[121.32752759004367,31.175012500982085],[121.32752759004367,31.175285921016123],[121.32168163349678,31.175285921016123],[121.32168163349678,31.175012500982085]]],[[[121.3210970378421,31.175285921016123],[121.32314312263351,31.175285921016123],[121.32314312263351,31.17555934105016],[121.3210970378421,31.17555934105016],[121.3210970378421,31.175285921016123]]],[[[121.32080474001475,31.17555934105016],[121.32197393132412,31.17555934105016],[121.32197393132412,31.175832761084198],[121.32080474001475,31.175832761084198],[121.32080474001475,31.17555934105016]]],[[[121.32080474001475,31.175832761084198],[121.32197393132412,31.175832761084198],[121.32197393132412,31.176106181118236],[121.32080474001475,31.176106181118236],[121.32080474001475,31.175832761084198]]],[[[121.32051244218741,31.176106181118236],[121.3210970378421,31.176106181118236],[121.3210970378421,31.176379601152274],[121.32051244218741,31.176379601152274],[121.32051244218741,31.176106181118236]]],[[[121.32022014436006,31.176379601152274],[121.32080474001475,31.176379601152274],[121.32080474001475,31.17665302118631],[121.32022014436006,31.17665302118631],[121.32022014436006,31.176379601152274]]],[[[121.31963554870538,31.176653021186315],[121.32051244218741,31.176653021186315],[121.32051244218741,31.176926441220353],[121.31963554870538,31.176926441220353],[121.31963554870538,31.176653021186315]]],[[[121.31934325087803,31.176926441220353],[121.32022014436006,31.176926441220353],[121.32022014436006,31.17719986125439],[121.31934325087803,31.17719986125439],[121.31934325087803,31.176926441220353]]],[[[121.31934325087803,31.17719986125439],[121.31992784653272,31.17719986125439],[121.31992784653272,31.177473281288428],[121.31934325087803,31.177473281288428],[121.31934325087803,31.17719986125439]]],[[[121.31905095305069,31.177473281288428],[121.31992784653272,31.177473281288428],[121.31992784653272,31.177746701322466],[121.31905095305069,31.177746701322466],[121.31905095305069,31.177473281288428]]],[[[121.31875865522335,31.177746701322466],[121.31963554870538,31.177746701322466],[121.31963554870538,31.178020121356504],[121.31875865522335,31.178020121356504],[121.31875865522335,31.177746701322466]]],[[[121.31846635739599,31.178020121356504],[121.31934325087803,31.178020121356504],[121.31934325087803,31.17829354139054],[121.31846635739599,31.17829354139054],[121.31846635739599,31.178020121356504]]],[[[121.31817405956865,31.17829354139054],[121.31905095305069,31.17829354139054],[121.31905095305069,31.17856696142458],[121.31817405956865,31.17856696142458],[121.31817405956865,31.17829354139054]]],[[[121.31817405956865,31.178566961424583],[121.31905095305069,31.178566961424583],[121.31905095305069,31.17884038145862],[121.31817405956865,31.17884038145862],[121.31817405956865,31.178566961424583]]],[[[121.31846635739599,31.17884038145862],[121.31875865522335,31.17884038145862],[121.31875865522335,31.179113801492658],[121.31846635739599,31.179113801492658],[121.31846635739599,31.17884038145862]]]]}},{"type":"Feature","properties":{"parcel_id":"hongqiao_hub:parcel:0011","geometry_method":"road_barrier_raster_plus_buildings","functional_type":"mixed","dominant_type":"residential","confidence":0.49,"building_count":3,"avg_building_area_m2":606,"centroid_lng":121.340767,"centroid_lat":31.175786,"parcel_area_m2":577106,"safety_clipped":false,"classification_source":"osm_tags+building_morphology+spatial_prior","synthetic_classification":true,"qc_flags":"low_confidence"},"geometry":{"type":"MultiPolygon","coordinates":[[[[121.33805031182807,31.17282514070978],[121.33834260965541,31.17282514070978],[121.33834260965541,31.173098560743817],[121.33805031182807,31.173098560743817],[121.33805031182807,31.17282514070978]]],[[[121.33775801400073,31.173098560743817],[121.33863490748276,31.173098560743817],[121.33863490748276,31.173371980777855],[121.33775801400073,31.173371980777855],[121.33775801400073,31.173098560743817]]],[[[121.33746571617338,31.173371980777855],[121.33921950313744,31.173371980777855],[121.33921950313744,31.173645400811893],[121.33746571617338,31.173645400811893],[121.33746571617338,31.173371980777855]]],[[[121.33717341834604,31.173645400811893],[121.33951180096479,31.173645400811893],[121.33951180096479,31.17391882084593],[121.33717341834604,31.17391882084593],[121.33717341834604,31.173645400811893]]],[[[121.33717341834604,31.17391882084593],[121.33980409879214,31.17391882084593],[121.33980409879214,31.174192240879968],[121.33717341834604,31.174192240879968],[121.33717341834604,31.17391882084593]]],[[[121.33717341834604,31.174192240879968],[121.34009639661949,31.174192240879968],[121.34009639661949,31.174465660914006],[121.33717341834604,31.174465660914006],[121.33717341834604,31.174192240879968]]],[[[121.3368811205187,31.17446566091401],[121.34068099227417,31.17446566091401],[121.34068099227417,31.174739080948047],[121.3368811205187,31.174739080948047],[121.3368811205187,31.17446566091401]]],[[[121.33658882269135,31.174739080948047],[121.34097329010152,31.174739080948047],[121.34097329010152,31.175012500982085],[121.33658882269135,31.175012500982085],[121.33658882269135,31.174739080948047]]],[[[121.336296524864,31.175012500982085],[121.3415578857562,31.175012500982085],[121.3415578857562,31.175285921016123],[121.336296524864,31.175285921016123],[121.336296524864,31.175012500982085]]],[[[121.33600422703665,31.175285921016123],[121.34185018358355,31.175285921016123],[121.34185018358355,31.17555934105016],[121.33600422703665,31.17555934105016],[121.33600422703665,31.175285921016123]]],[[[121.33571192920931,31.17555934105016],[121.34214248141089,31.17555934105016],[121.34214248141089,31.175832761084198],[121.33571192920931,31.175832761084198],[121.33571192920931,31.17555934105016]]],[[[121.33541963138197,31.175832761084198],[121.34243477923823,31.175832761084198],[121.34243477923823,31.176106181118236],[121.33541963138197,31.176106181118236],[121.33541963138197,31.175832761084198]]],[[[121.33512733355462,31.176106181118236],[121.34301937489292,31.176106181118236],[121.34301937489292,31.176379601152274],[121.33512733355462,31.176379601152274],[121.33512733355462,31.176106181118236]]],[[[121.33483503572728,31.176379601152274],[121.34331167272026,31.176379601152274],[121.34331167272026,31.17665302118631],[121.33483503572728,31.17665302118631],[121.33483503572728,31.176379601152274]]],[[[121.33483503572728,31.176653021186315],[121.34360397054762,31.176653021186315],[121.34360397054762,31.176926441220353],[121.33483503572728,31.176926441220353],[121.33483503572728,31.176653021186315]]],[[[121.33454273789994,31.176926441220353],[121.34389626837496,31.176926441220353],[121.34389626837496,31.17719986125439],[121.33454273789994,31.17719986125439],[121.33454273789994,31.176926441220353]]],[[[121.3342504400726,31.17719986125439],[121.34448086402965,31.17719986125439],[121.34448086402965,31.177473281288428],[121.3342504400726,31.177473281288428],[121.3342504400726,31.17719986125439]]],[[[121.33512733355462,31.177473281288428],[121.34477316185699,31.177473281288428],[121.34477316185699,31.177746701322466],[121.33512733355462,31.177746701322466],[121.33512733355462,31.177473281288428]]],[[[121.33834260965541,31.177746701322466],[121.34506545968433,31.177746701322466],[121.34506545968433,31.178020121356504],[121.33834260965541,31.178020121356504],[121.33834260965541,31.177746701322466]]],[[[121.33951180096479,31.178020121356504],[121.34535775751168,31.178020121356504],[121.34535775751168,31.17829354139054],[121.33951180096479,31.17829354139054],[121.33951180096479,31.178020121356504]]],[[[121.34009639661949,31.17829354139054],[121.34594235316636,31.17829354139054],[121.34594235316636,31.17856696142458],[121.34009639661949,31.17856696142458],[121.34009639661949,31.17829354139054]]],[[[121.34068099227417,31.178566961424583],[121.34623465099371,31.178566961424583],[121.34623465099371,31.17884038145862],[121.34068099227417,31.17884038145862],[121.34068099227417,31.178566961424583]]],[[[121.34097329010152,31.17884038145862],[121.34652694882105,31.17884038145862],[121.34652694882105,31.179113801492658],[121.34097329010152,31.179113801492658],[121.34097329010152,31.17884038145862]]],[[[121.3415578857562,31.179113801492658],[121.34681924664841,31.179113801492658],[121.34681924664841,31.179387221526696],[121.3415578857562,31.179387221526696],[121.3415578857562,31.179113801492658]]],[[[121.34185018358355,31.179387221526696],[121.34711154447575,31.179387221526696],[121.34711154447575,31.179660641560734],[121.34185018358355,31.179660641560734],[121.34185018358355,31.179387221526696]]],[[[121.34214248141089,31.179660641560734],[121.3474038423031,31.179660641560734],[121.3474038423031,31.17993406159477],[121.34214248141089,31.17993406159477],[121.34214248141089,31.179660641560734]]],[[[121.34243477923823,31.17993406159477],[121.34798843795778,31.17993406159477],[121.34798843795778,31.18020748162881],[121.34243477923823,31.18020748162881],[121.34243477923823,31.17993406159477]]],[[[121.34243477923823,31.18020748162881],[121.34828073578512,31.18020748162881],[121.34828073578512,31.180480901662847],[121.34243477923823,31.180480901662847],[121.34243477923823,31.18020748162881]]],[[[121.34272707706558,31.180480901662847],[121.34857303361247,31.180480901662847],[121.34857303361247,31.180754321696885],[121.34272707706558,31.180754321696885],[121.34272707706558,31.180480901662847]]],[[[121.34301937489292,31.180754321696888],[121.34857303361247,31.180754321696888],[121.34857303361247,31.181027741730926],[121.34301937489292,31.181027741730926],[121.34301937489292,31.180754321696888]]],[[[121.34331167272026,31.181027741730926],[121.34828073578512,31.181027741730926],[121.34828073578512,31.181301161764964],[121.34331167272026,31.181301161764964],[121.34331167272026,31.181027741730926]]],[[[121.34331167272026,31.181301161764964],[121.34828073578512,31.181301161764964],[121.34828073578512,31.181574581799],[121.34331167272026,31.181574581799],[121.34331167272026,31.181301161764964]]],[[[121.34360397054762,31.181574581799],[121.34798843795778,31.181574581799],[121.34798843795778,31.18184800183304],[121.34360397054762,31.18184800183304],[121.34360397054762,31.181574581799]]],[[[121.34389626837496,31.18184800183304],[121.34769614013044,31.18184800183304],[121.34769614013044,31.182121421867077],[121.34389626837496,31.182121421867077],[121.34389626837496,31.18184800183304]]],[[[121.3441885662023,31.182121421867077],[121.34769614013044,31.182121421867077],[121.34769614013044,31.182394841901115],[121.3441885662023,31.182394841901115],[121.3441885662023,31.182121421867077]]],[[[121.34448086402965,31.182394841901115],[121.34769614013044,31.182394841901115],[121.34769614013044,31.182668261935152],[121.34448086402965,31.182668261935152],[121.34448086402965,31.182394841901115]]],[[[121.34506545968433,31.182668261935152],[121.34769614013044,31.182668261935152],[121.34769614013044,31.18294168196919],[121.34506545968433,31.18294168196919],[121.34506545968433,31.182668261935152]]],[[[121.34535775751168,31.182941681969194],[121.34769614013044,31.182941681969194],[121.34769614013044,31.18321510200323],[121.34535775751168,31.18321510200323],[121.34535775751168,31.182941681969194]]],[[[121.34565005533902,31.18321510200323],[121.34769614013044,31.18321510200323],[121.34769614013044,31.18348852203727],[121.34565005533902,31.18348852203727],[121.34565005533902,31.18321510200323]]],[[[121.34623465099371,31.18348852203727],[121.34769614013044,31.18348852203727],[121.34769614013044,31.183761942071307],[121.34623465099371,31.183761942071307],[121.34623465099371,31.18348852203727]]],[[[121.34681924664841,31.183761942071307],[121.34769614013044,31.183761942071307],[121.34769614013044,31.184035362105345],[121.34681924664841,31.184035362105345],[121.34681924664841,31.183761942071307]]],[[[121.3474038423031,31.184035362105345],[121.34769614013044,31.184035362105345],[121.34769614013044,31.184308782139382],[121.3474038423031,31.184308782139382],[121.3474038423031,31.184035362105345]]]]}},{"type":"Feature","properties":{"parcel_id":"hongqiao_hub:parcel:0014","geometry_method":"road_barrier_raster_plus_buildings","functional_type":"residential","dominant_type":"residential","confidence":0.81,"building_count":1,"avg_building_area_m2":606,"centroid_lng":121.313166,"centroid_lat":31.185241,"parcel_area_m2":732740,"safety_clipped":false,"classification_source":"osm_tags+building_morphology+spatial_prior","synthetic_classification":true,"qc_flags":""},"geometry":{"type":"MultiPolygon","coordinates":[[[[121.30823593343894,31.17555934105016],[121.3085282312663,31.17555934105016],[121.3085282312663,31.175832761084198],[121.30823593343894,31.175832761084198],[121.30823593343894,31.17555934105016]]],[[[121.3152510812952,31.17555934105016],[121.31671257043193,31.17555934105016],[121.31671257043193,31.175832761084198],[121.3152510812952,31.175832761084198],[121.3152510812952,31.17555934105016]]],[[[121.3079436356116,31.175832761084198],[121.31115891171238,31.175832761084198],[121.31115891171238,31.176106181118236],[121.3079436356116,31.176106181118236],[121.3079436356116,31.175832761084198]]],[[[121.31262040084911,31.175832761084198],[121.31642027260459,31.175832761084198],[121.31642027260459,31.176106181118236],[121.31262040084911,31.176106181118236],[121.31262040084911,31.175832761084198]]],[[[121.30765133778425,31.176106181118236],[121.31115891171238,31.176106181118236],[121.31115891171238,31.176379601152274],[121.30765133778425,31.176379601152274],[121.30765133778425,31.176106181118236]]],[[[121.31232810302177,31.176106181118236],[121.31642027260459,31.176106181118236],[121.31642027260459,31.176379601152274],[121.31232810302177,31.176379601152274],[121.31232810302177,31.176106181118236]]],[[[121.30765133778425,31.176379601152274],[121.31115891171238,31.176379601152274],[121.31115891171238,31.17665302118631],[121.30765133778425,31.17665302118631],[121.30765133778425,31.176379601152274]]],[[[121.31232810302177,31.176379601152274],[121.31642027260459,31.176379601152274],[121.31642027260459,31.17665302118631],[121.31232810302177,31.17665302118631],[121.31232810302177,31.176379601152274]]],[[[121.3073590399569,31.176653021186315],[121.31086661388504,31.176653021186315],[121.31086661388504,31.176926441220353],[121.3073590399569,31.176926441220353],[121.3073590399569,31.176653021186315]]],[[[121.31203580519443,31.176653021186315],[121.31642027260459,31.176653021186315],[121.31642027260459,31.176926441220353],[121.31203580519443,31.176926441220353],[121.31203580519443,31.176653021186315]]],[[[121.30706674212956,31.176926441220353],[121.31086661388504,31.176926441220353],[121.31086661388504,31.17719986125439],[121.30706674212956,31.17719986125439],[121.30706674212956,31.176926441220353]]],[[[121.31203580519443,31.176926441220353],[121.31612797477725,31.176926441220353],[121.31612797477725,31.17719986125439],[121.31203580519443,31.17719986125439],[121.31203580519443,31.176926441220353]]],[[[121.30677444430222,31.17719986125439],[121.3105743160577,31.17719986125439],[121.3105743160577,31.177473281288428],[121.30677444430222,31.177473281288428],[121.30677444430222,31.17719986125439]]],[[[121.31174350736708,31.17719986125439],[121.31612797477725,31.17719986125439],[121.31612797477725,31.177473281288428],[121.31174350736708,31.177473281288428],[121.31174350736708,31.17719986125439]]],[[[121.30677444430222,31.177473281288428],[121.3105743160577,31.177473281288428],[121.3105743160577,31.177746701322466],[121.30677444430222,31.177746701322466],[121.30677444430222,31.177473281288428]]],[[[121.31174350736708,31.177473281288428],[121.31612797477725,31.177473281288428],[121.31612797477725,31.177746701322466],[121.31174350736708,31.177746701322466],[121.31174350736708,31.177473281288428]]],[[[121.30648214647488,31.177746701322466],[121.31028201823035,31.177746701322466],[121.31028201823035,31.178020121356504],[121.30648214647488,31.178020121356504],[121.30648214647488,31.177746701322466]]],[[[121.31145120953973,31.177746701322466],[121.31612797477725,31.177746701322466],[121.31612797477725,31.178020121356504],[121.31145120953973,31.178020121356504],[121.31145120953973,31.177746701322466]]],[[[121.30618984864753,31.178020121356504],[121.31028201823035,31.178020121356504],[121.31028201823035,31.17829354139054],[121.30618984864753,31.17829354139054],[121.30618984864753,31.178020121356504]]],[[[121.31145120953973,31.178020121356504],[121.3158356769499,31.178020121356504],[121.3158356769499,31.17829354139054],[121.31145120953973,31.17829354139054],[121.31145120953973,31.178020121356504]]],[[[121.30589755082019,31.17829354139054],[121.31028201823035,31.17829354139054],[121.31028201823035,31.17856696142458],[121.30589755082019,31.17856696142458],[121.30589755082019,31.17829354139054]]],[[[121.31145120953973,31.17829354139054],[121.31554337912256,31.17829354139054],[121.31554337912256,31.17856696142458],[121.31145120953973,31.17856696142458],[121.31145120953973,31.17829354139054]]],[[[121.30560525299285,31.178566961424583],[121.31028201823035,31.178566961424583],[121.31028201823035,31.17884038145862],[121.30560525299285,31.17884038145862],[121.30560525299285,31.178566961424583]]],[[[121.31115891171238,31.178566961424583],[121.31554337912256,31.178566961424583],[121.31554337912256,31.17884038145862],[121.31115891171238,31.17884038145862],[121.31115891171238,31.178566961424583]]],[[[121.3053129551655,31.17884038145862],[121.3152510812952,31.17884038145862],[121.3152510812952,31.179113801492658],[121.3053129551655,31.179113801492658],[121.3053129551655,31.17884038145862]]],[[[121.3053129551655,31.179113801492658],[121.3152510812952,31.179113801492658],[121.3152510812952,31.179387221526696],[121.3053129551655,31.179387221526696],[121.3053129551655,31.179113801492658]]],[[[121.30502065733816,31.179387221526696],[121.31495878346786,31.179387221526696],[121.31495878346786,31.179660641560734],[121.30502065733816,31.179660641560734],[121.30502065733816,31.179387221526696]]],[[[121.30502065733816,31.179660641560734],[121.31466648564052,31.179660641560734],[121.31466648564052,31.17993406159477],[121.30502065733816,31.17993406159477],[121.30502065733816,31.179660641560734]]],[[[121.30472835951082,31.17993406159477],[121.31466648564052,31.17993406159477],[121.31466648564052,31.18020748162881],[121.30472835951082,31.18020748162881],[121.30472835951082,31.17993406159477]]],[[[121.30443606168346,31.18020748162881],[121.31437418781317,31.18020748162881],[121.31437418781317,31.180480901662847],[121.30443606168346,31.180480901662847],[121.30443606168346,31.18020748162881]]],[[[121.30443606168346,31.180480901662847],[121.31437418781317,31.180480901662847],[121.31437418781317,31.180754321696885],[121.30443606168346,31.180754321696885],[121.30443606168346,31.180480901662847]]],[[[121.30414376385612,31.180754321696888],[121.31408188998583,31.180754321696888],[121.31408188998583,31.181027741730926],[121.30414376385612,31.181027741730926],[121.30414376385612,31.180754321696888]]],[[[121.30414376385612,31.181027741730926],[121.31378959215849,31.181027741730926],[121.31378959215849,31.181301161764964],[121.30414376385612,31.181301161764964],[121.30414376385612,31.181027741730926]]],[[[121.30443606168346,31.181301161764964],[121.31349729433114,31.181301161764964],[121.31349729433114,31.181574581799],[121.30443606168346,31.181574581799],[121.30443606168346,31.181301161764964]]],[[[121.30502065733816,31.181574581799],[121.31349729433114,31.181574581799],[121.31349729433114,31.18184800183304],[121.30502065733816,31.18184800183304],[121.30502065733816,31.181574581799]]],[[[121.3053129551655,31.18184800183304],[121.3132049965038,31.18184800183304],[121.3132049965038,31.182121421867077],[121.3053129551655,31.182121421867077],[121.3053129551655,31.18184800183304]]],[[[121.30589755082019,31.182121421867077],[121.3132049965038,31.182121421867077],[121.3132049965038,31.182394841901115],[121.30589755082019,31.182394841901115],[121.30589755082019,31.182121421867077]]],[[[121.30618984864753,31.182394841901115],[121.31291269867646,31.182394841901115],[121.31291269867646,31.182668261935152],[121.30618984864753,31.182668261935152],[121.30618984864753,31.182394841901115]]],[[[121.30648214647488,31.182668261935152],[121.31291269867646,31.182668261935152],[121.31291269867646,31.18294168196919],[121.30648214647488,31.18294168196919],[121.30648214647488,31.182668261935152]]],[[[121.30706674212956,31.182941681969194],[121.31262040084911,31.182941681969194],[121.31262040084911,31.18321510200323],[121.30706674212956,31.18321510200323],[121.30706674212956,31.182941681969194]]],[[[121.3073590399569,31.18321510200323],[121.31232810302177,31.18321510200323],[121.31232810302177,31.18348852203727],[121.3073590399569,31.18348852203727],[121.3073590399569,31.18321510200323]]],[[[121.30765133778425,31.18348852203727],[121.31203580519443,31.18348852203727],[121.31203580519443,31.183761942071307],[121.30765133778425,31.183761942071307],[121.30765133778425,31.18348852203727]]],[[[121.30823593343894,31.183761942071307],[121.31203580519443,31.183761942071307],[121.31203580519443,31.184035362105345],[121.30823593343894,31.184035362105345],[121.30823593343894,31.183761942071307]]],[[[121.3085282312663,31.184035362105345],[121.31174350736708,31.184035362105345],[121.31174350736708,31.184308782139382],[121.3085282312663,31.184308782139382],[121.3085282312663,31.184035362105345]]],[[[121.30911282692098,31.184308782139382],[121.31174350736708,31.184308782139382],[121.31174350736708,31.18458220217342],[121.30911282692098,31.18458220217342],[121.30911282692098,31.184308782139382]]],[[[121.30969742257567,31.18458220217342],[121.31145120953973,31.18458220217342],[121.31145120953973,31.184855622207458],[121.30969742257567,31.184855622207458],[121.30969742257567,31.18458220217342]]],[[[121.30969742257567,31.18485562220746],[121.31086661388504,31.18485562220746],[121.31086661388504,31.1851290422415],[121.30969742257567,31.1851290422415],[121.30969742257567,31.18485562220746]]],[[[121.30969742257567,31.1851290422415],[121.31086661388504,31.1851290422415],[121.31086661388504,31.185402462275537],[121.30969742257567,31.185402462275537],[121.30969742257567,31.1851290422415]]],[[[121.30998972040301,31.185402462275537],[121.3105743160577,31.185402462275537],[121.3105743160577,31.185675882309575],[121.30998972040301,31.185675882309575],[121.30998972040301,31.185402462275537]]]]}},{"type":"Feature","properties":{"parcel_id":"hongqiao_hub:parcel:0015","geometry_method":"road_barrier_raster_plus_buildings","functional_type":"mixed","dominant_type":"office","confidence":0.48,"building_count":3,"avg_building_area_m2":606,"centroid_lng":121.327847,"centroid_lat":31.200806,"parcel_area_m2":7571,"safety_clipped":true,"classification_source":"osm_tags+building_morphology+spatial_prior","synthetic_classification":true,"qc_flags":"low_confidence|safety_clipped"},"geometry":{"type":"MultiPolygon","coordinates":[[[[121.32811218569836,31.193605063296683],[121.3284044835257,31.193605063296683],[121.3284044835257,31.19387848333072],[121.32811218569836,31.19387848333072],[121.32811218569836,31.193605063296683]]],[[[121.32869678135305,31.210283685373014],[121.32957367483509,31.210283685373014],[121.32957367483509,31.21055710540705],[121.32869678135305,31.21055710540705],[121.32869678135305,31.210283685373014]]],[[[121.3284044835257,31.21055710540705],[121.32986597266243,31.21055710540705],[121.32986597266243,31.21083052544109],[121.3284044835257,31.21083052544109],[121.3284044835257,31.21055710540705]]]]}},{"type":"Feature","properties":{"parcel_id":"hongqiao_hub:parcel:0021","geometry_method":"road_barrier_raster_plus_buildings","functional_type":"residential","dominant_type":"residential","confidence":0.94,"building_count":2,"avg_building_area_m2":606,"centroid_lng":121.357525,"centroid_lat":31.192194,"parcel_area_m2":874913,"safety_clipped":false,"classification_source":"osm_tags+building_morphology+spatial_prior","synthetic_classification":true,"qc_flags":""},"geometry":{"type":"MultiPolygon","coordinates":[[[[121.35880345756952,31.18786324258188],[121.35968035105155,31.18786324258188],[121.35968035105155,31.188136662615918],[121.35880345756952,31.188136662615918],[121.35880345756952,31.18786324258188]]],[[[121.35851115974218,31.188136662615918],[121.36026494670624,31.188136662615918],[121.36026494670624,31.188410082649956],[121.35851115974218,31.188410082649956],[121.35851115974218,31.188136662615918]]],[[[121.35851115974218,31.188410082649956],[121.36114184018828,31.188410082649956],[121.36114184018828,31.188683502683993],[121.35851115974218,31.188683502683993],[121.35851115974218,31.188410082649956]]],[[[121.35851115974218,31.188683502683993],[121.36201873367031,31.188683502683993],[121.36201873367031,31.18895692271803],[121.35851115974218,31.18895692271803],[121.35851115974218,31.188683502683993]]],[[[121.35851115974218,31.188956922718035],[121.36231103149765,31.188956922718035],[121.36231103149765,31.189230342752072],[121.35851115974218,31.189230342752072],[121.35851115974218,31.188956922718035]]],[[[121.35851115974218,31.189230342752072],[121.362603329325,31.189230342752072],[121.362603329325,31.18950376278611],[121.35851115974218,31.18950376278611],[121.35851115974218,31.189230342752072]]],[[[121.35851115974218,31.18950376278611],[121.36289562715234,31.18950376278611],[121.36289562715234,31.189777182820148],[121.35851115974218,31.189777182820148],[121.35851115974218,31.18950376278611]]],[[[121.35851115974218,31.189777182820148],[121.36318792497968,31.189777182820148],[121.36318792497968,31.190050602854186],[121.35851115974218,31.190050602854186],[121.35851115974218,31.189777182820148]]],[[[121.35851115974218,31.190050602854186],[121.36377252063437,31.190050602854186],[121.36377252063437,31.190324022888223],[121.35851115974218,31.190324022888223],[121.35851115974218,31.190050602854186]]],[[[121.35821886191484,31.190324022888223],[121.36435711628906,31.190324022888223],[121.36435711628906,31.19059744292226],[121.35821886191484,31.19059744292226],[121.35821886191484,31.190324022888223]]],[[[121.35821886191484,31.19059744292226],[121.3652340097711,31.19059744292226],[121.3652340097711,31.1908708629563],[121.35821886191484,31.1908708629563],[121.35821886191484,31.19059744292226]]],[[[121.35821886191484,31.1908708629563],[121.36874158369923,31.1908708629563],[121.36874158369923,31.191144282990336],[121.35821886191484,31.191144282990336],[121.35821886191484,31.1908708629563]]],[[[121.35821886191484,31.19114428299034],[121.36874158369923,31.19114428299034],[121.36874158369923,31.191417703024378],[121.35821886191484,31.191417703024378],[121.35821886191484,31.19114428299034]]],[[[121.35821886191484,31.191417703024378],[121.36874158369923,31.191417703024378],[121.36874158369923,31.191691123058416],[121.35821886191484,31.191691123058416],[121.35821886191484,31.191417703024378]]],[[[121.35792656408749,31.191691123058416],[121.36874158369923,31.191691123058416],[121.36874158369923,31.191964543092453],[121.35792656408749,31.191964543092453],[121.35792656408749,31.191691123058416]]],[[[121.35792656408749,31.191964543092453],[121.36874158369923,31.191964543092453],[121.36874158369923,31.19223796312649],[121.35792656408749,31.19223796312649],[121.35792656408749,31.191964543092453]]],[[[121.35792656408749,31.19223796312649],[121.36874158369923,31.19223796312649],[121.36874158369923,31.19251138316053],[121.35792656408749,31.19251138316053],[121.35792656408749,31.19223796312649]]],[[[121.35792656408749,31.19251138316053],[121.36874158369923,31.19251138316053],[121.36874158369923,31.192784803194566],[121.35792656408749,31.192784803194566],[121.35792656408749,31.19251138316053]]],[[[121.35792656408749,31.192784803194566],[121.36874158369923,31.192784803194566],[121.36874158369923,31.193058223228604],[121.35792656408749,31.193058223228604],[121.35792656408749,31.192784803194566]]],[[[121.35792656408749,31.193058223228604],[121.36874158369923,31.193058223228604],[121.36874158369923,31.193331643262642],[121.35792656408749,31.193331643262642],[121.35792656408749,31.193058223228604]]],[[[121.35763426626015,31.193331643262646],[121.36874158369923,31.193331643262646],[121.36874158369923,31.193605063296683],[121.35763426626015,31.193605063296683],[121.35763426626015,31.193331643262646]]],[[[121.35763426626015,31.193605063296683],[121.36874158369923,31.193605063296683],[121.36874158369923,31.19387848333072],[121.35763426626015,31.19387848333072],[121.35763426626015,31.193605063296683]]],[[[121.35763426626015,31.19387848333072],[121.36874158369923,31.19387848333072],[121.36874158369923,31.19415190336476],[121.35763426626015,31.19415190336476],[121.35763426626015,31.19387848333072]]],[[[121.35763426626015,31.19415190336476],[121.36844928587189,31.19415190336476],[121.36844928587189,31.194425323398796],[121.35763426626015,31.194425323398796],[121.35763426626015,31.19415190336476]]],[[[121.35763426626015,31.194425323398796],[121.36815698804455,31.194425323398796],[121.36815698804455,31.194698743432834],[121.35763426626015,31.194698743432834],[121.35763426626015,31.194425323398796]]],[[[121.35763426626015,31.194698743432834],[121.3678646902172,31.194698743432834],[121.3678646902172,31.194972163466872],[121.35763426626015,31.194972163466872],[121.35763426626015,31.194698743432834]]],[[[121.35763426626015,31.194972163466872],[121.36757239238985,31.194972163466872],[121.36757239238985,31.19524558350091],[121.35763426626015,31.19524558350091],[121.35763426626015,31.194972163466872]]],[[[121.35763426626015,31.195245583500913],[121.3672800945625,31.195245583500913],[121.3672800945625,31.19551900353495],[121.35763426626015,31.19551900353495],[121.35763426626015,31.195245583500913]]],[[[121.35763426626015,31.19551900353495],[121.3672800945625,31.19551900353495],[121.3672800945625,31.19579242356899],[121.35763426626015,31.19579242356899],[121.35763426626015,31.19551900353495]]],[[[121.35763426626015,31.19579242356899],[121.36669549890782,31.19579242356899],[121.36669549890782,31.196065843603026],[121.35763426626015,31.196065843603026],[121.35763426626015,31.19579242356899]]],[[[121.35763426626015,31.196065843603026],[121.36669549890782,31.196065843603026],[121.36669549890782,31.196339263637064],[121.35763426626015,31.196339263637064],[121.35763426626015,31.196065843603026]]],[[[121.35763426626015,31.196339263637064],[121.36640320108047,31.196339263637064],[121.36640320108047,31.196612683671102],[121.35763426626015,31.196612683671102],[121.35763426626015,31.196339263637064]]],[[[121.35763426626015,31.196612683671102],[121.36640320108047,31.196612683671102],[121.36640320108047,31.19688610370514],[121.35763426626015,31.19688610370514],[121.35763426626015,31.196612683671102]]],[[[121.35763426626015,31.19688610370514],[121.36611090325313,31.19688610370514],[121.36611090325313,31.197159523739177],[121.35763426626015,31.197159523739177],[121.35763426626015,31.19688610370514]]],[[[121.35763426626015,31.197159523739177],[121.36581860542579,31.197159523739177],[121.36581860542579,31.197432943773215],[121.35763426626015,31.197432943773215],[121.35763426626015,31.197159523739177]]],[[[121.35763426626015,31.19743294377322],[121.36552630759844,31.19743294377322],[121.36552630759844,31.197706363807256],[121.35763426626015,31.197706363807256],[121.35763426626015,31.19743294377322]]],[[[121.35763426626015,31.197706363807256],[121.36552630759844,31.197706363807256],[121.36552630759844,31.197979783841294],[121.35763426626015,31.197979783841294],[121.35763426626015,31.197706363807256]]],[[[121.36406481846171,31.197979783841294],[121.3652340097711,31.197979783841294],[121.3652340097711,31.198253203875332],[121.36406481846171,31.198253203875332],[121.36406481846171,31.197979783841294]]]]}},{"type":"Feature","properties":{"parcel_id":"hongqiao_hub:parcel:0027","geometry_method":"road_barrier_raster_plus_buildings","functional_type":"mixed","dominant_type":"residential","confidence":0.54,"building_count":2,"avg_building_area_m2":606,"centroid_lng":121.3096,"centroid_lat":31.191686,"parcel_area_m2":16825,"safety_clipped":false,"classification_source":"osm_tags+building_morphology+spatial_prior","synthetic_classification":true,"qc_flags":"low_confidence"},"geometry":{"type":"MultiPolygon","coordinates":[[[[121.31028201823035,31.1908708629563],[121.31115891171238,31.1908708629563],[121.31115891171238,31.191144282990336],[121.31028201823035,31.191144282990336],[121.31028201823035,31.1908708629563]]],[[[121.31028201823035,31.19114428299034],[121.31115891171238,31.19114428299034],[121.31115891171238,31.191417703024378],[121.31028201823035,31.191417703024378],[121.31028201823035,31.19114428299034]]],[[[121.30998972040301,31.191417703024378],[121.31086661388504,31.191417703024378],[121.31086661388504,31.191691123058416],[121.30998972040301,31.191691123058416],[121.30998972040301,31.191417703024378]]],[[[121.30998972040301,31.191691123058416],[121.3105743160577,31.191691123058416],[121.3105743160577,31.191964543092453],[121.30998972040301,31.191964543092453],[121.30998972040301,31.191691123058416]]],[[[121.30969742257567,31.191964543092453],[121.3105743160577,31.191964543092453],[121.3105743160577,31.19223796312649],[121.30969742257567,31.19223796312649],[121.30969742257567,31.191964543092453]]],[[[121.30969742257567,31.19223796312649],[121.31028201823035,31.19223796312649],[121.31028201823035,31.19251138316053],[121.30969742257567,31.19251138316053],[121.30969742257567,31.19223796312649]]],[[[121.30940512474832,31.19251138316053],[121.30998972040301,31.19251138316053],[121.30998972040301,31.192784803194566],[121.30940512474832,31.192784803194566],[121.30940512474832,31.19251138316053]]],[[[121.30940512474832,31.192784803194566],[121.30998972040301,31.192784803194566],[121.30998972040301,31.193058223228604],[121.30940512474832,31.193058223228604],[121.30940512474832,31.192784803194566]]]]}},{"type":"Feature","properties":{"parcel_id":"hongqiao_hub:parcel:0048","geometry_method":"road_barrier_raster_plus_buildings","functional_type":"mixed","dominant_type":"residential","confidence":0.49,"building_count":3,"avg_building_area_m2":606,"centroid_lng":121.349995,"centroid_lat":31.217002,"parcel_area_m2":334822,"safety_clipped":false,"classification_source":"osm_tags+building_morphology+spatial_prior","synthetic_classification":true,"qc_flags":"low_confidence"},"geometry":{"type":"MultiPolygon","coordinates":[[[[121.35061911840388,31.210010265338976],[121.35266520319529,31.210010265338976],[121.35266520319529,31.210283685373014],[121.35061911840388,31.210283685373014],[121.35061911840388,31.210010265338976]]],[[[121.34915762926715,31.210283685373014],[121.35237290536794,31.210283685373014],[121.35237290536794,31.21055710540705],[121.34915762926715,31.21055710540705],[121.34915762926715,31.210283685373014]]],[[[121.34828073578512,31.21055710540705],[121.35237290536794,31.21055710540705],[121.35237290536794,31.21083052544109],[121.34828073578512,31.21083052544109],[121.34828073578512,31.21055710540705]]],[[[121.34828073578512,31.21083052544109],[121.35237290536794,31.21083052544109],[121.35237290536794,31.211103945475127],[121.34828073578512,31.211103945475127],[121.34828073578512,31.21083052544109]]],[[[121.34828073578512,31.211103945475127],[121.35237290536794,31.211103945475127],[121.35237290536794,31.211377365509165],[121.34828073578512,31.211377365509165],[121.34828073578512,31.211103945475127]]],[[[121.34828073578512,31.211377365509165],[121.35237290536794,31.211377365509165],[121.35237290536794,31.211650785543203],[121.34828073578512,31.211650785543203],[121.34828073578512,31.211377365509165]]],[[[121.34828073578512,31.211650785543203],[121.3520806075406,31.211650785543203],[121.3520806075406,31.21192420557724],[121.34828073578512,31.21192420557724],[121.34828073578512,31.211650785543203]]],[[[121.34828073578512,31.211924205577244],[121.3520806075406,31.211924205577244],[121.3520806075406,31.21219762561128],[121.34828073578512,31.21219762561128],[121.34828073578512,31.211924205577244]]],[[[121.34828073578512,31.21219762561128],[121.3520806075406,31.21219762561128],[121.3520806075406,31.21247104564532],[121.34828073578512,31.21247104564532],[121.34828073578512,31.21219762561128]]],[[[121.34828073578512,31.21247104564532],[121.35178830971326,31.21247104564532],[121.35178830971326,31.212744465679357],[121.34828073578512,31.212744465679357],[121.34828073578512,31.21247104564532]]],[[[121.34828073578512,31.212744465679357],[121.35178830971326,31.212744465679357],[121.35178830971326,31.213017885713395],[121.34828073578512,31.213017885713395],[121.34828073578512,31.212744465679357]]],[[[121.34798843795778,31.213017885713395],[121.35149601188591,31.213017885713395],[121.35149601188591,31.213291305747433],[121.34798843795778,31.213291305747433],[121.34798843795778,31.213017885713395]]],[[[121.34798843795778,31.213291305747433],[121.35149601188591,31.213291305747433],[121.35149601188591,31.21356472578147],[121.34798843795778,31.21356472578147],[121.34798843795778,31.213291305747433]]],[[[121.34798843795778,31.21356472578147],[121.35149601188591,31.21356472578147],[121.35149601188591,31.213838145815508],[121.34798843795778,31.213838145815508],[121.34798843795778,31.21356472578147]]],[[[121.34798843795778,31.21383814581551],[121.35149601188591,31.21383814581551],[121.35149601188591,31.21411156584955],[121.34798843795778,31.21411156584955],[121.34798843795778,31.21383814581551]]],[[[121.35061911840388,31.21411156584955],[121.35149601188591,31.21411156584955],[121.35149601188591,31.214384985883587],[121.35061911840388,31.214384985883587],[121.35061911840388,31.21411156584955]]],[[[121.35061911840388,31.214384985883587],[121.35120371405857,31.214384985883587],[121.35120371405857,31.214658405917625],[121.35061911840388,31.214658405917625],[121.35061911840388,31.214384985883587]]],[[[121.35061911840388,31.214658405917625],[121.35091141623123,31.214658405917625],[121.35091141623123,31.214931825951663],[121.35061911840388,31.214931825951663],[121.35061911840388,31.214658405917625]]],[[[121.3474038423031,31.214931825951663],[121.35091141623123,31.214931825951663],[121.35091141623123,31.2152052459857],[121.3474038423031,31.2152052459857],[121.3474038423031,31.214931825951663]]],[[[121.34623465099371,31.2152052459857],[121.35061911840388,31.2152052459857],[121.35061911840388,31.215478666019738],[121.34623465099371,31.215478666019738],[121.34623465099371,31.2152052459857]]],[[[121.34535775751168,31.215478666019738],[121.35061911840388,31.215478666019738],[121.35061911840388,31.215752086053776],[121.34535775751168,31.215752086053776],[121.34535775751168,31.215478666019738]]],[[[121.34477316185699,31.215752086053776],[121.35032682057653,31.215752086053776],[121.35032682057653,31.216025506087814],[121.34477316185699,31.216025506087814],[121.34477316185699,31.215752086053776]]],[[[121.34477316185699,31.216025506087817],[121.35003452274918,31.216025506087817],[121.35003452274918,31.216298926121855],[121.34477316185699,31.216298926121855],[121.34477316185699,31.216025506087817]]],[[[121.34477316185699,31.216298926121855],[121.35003452274918,31.216298926121855],[121.35003452274918,31.216572346155893],[121.34477316185699,31.216572346155893],[121.34477316185699,31.216298926121855]]],[[[121.34477316185699,31.216572346155893],[121.34974222492184,31.216572346155893],[121.34974222492184,31.21684576618993],[121.34477316185699,31.21684576618993],[121.34477316185699,31.216572346155893]]],[[[121.34477316185699,31.21684576618993],[121.34974222492184,31.21684576618993],[121.34974222492184,31.217119186223968],[121.34477316185699,31.217119186223968],[121.34477316185699,31.21684576618993]]],[[[121.34477316185699,31.217119186223968],[121.3494499270945,31.217119186223968],[121.3494499270945,31.217392606258006],[121.34477316185699,31.217392606258006],[121.34477316185699,31.217119186223968]]],[[[121.34477316185699,31.217392606258006],[121.3494499270945,31.217392606258006],[121.3494499270945,31.217666026292044],[121.34477316185699,31.217666026292044],[121.34477316185699,31.217392606258006]]],[[[121.34448086402965,31.217666026292044],[121.34915762926715,31.217666026292044],[121.34915762926715,31.21793944632608],[121.34448086402965,31.21793944632608],[121.34448086402965,31.217666026292044]]],[[[121.34448086402965,31.21793944632608],[121.3474038423031,31.21793944632608],[121.3474038423031,31.21821286636012],[121.34448086402965,31.21821286636012],[121.34448086402965,31.21793944632608]]],[[[121.34448086402965,31.218212866360123],[121.34711154447575,31.218212866360123],[121.34711154447575,31.21848628639416],[121.34448086402965,31.21848628639416],[121.34448086402965,31.218212866360123]]],[[[121.34448086402965,31.21848628639416],[121.34594235316636,31.21848628639416],[121.34594235316636,31.218759706428198],[121.34448086402965,31.218759706428198],[121.34448086402965,31.21848628639416]]],[[[121.34448086402965,31.218759706428198],[121.34477316185699,31.218759706428198],[121.34477316185699,31.219033126462236],[121.34448086402965,31.219033126462236],[121.34448086402965,31.218759706428198]]]]}},{"type":"Feature","properties":{"parcel_id":"hongqiao_hub:parcel:0056","geometry_method":"road_barrier_raster_plus_buildings","functional_type":"mixed","dominant_type":"office","confidence":0.53,"building_count":2,"avg_building_area_m2":606,"centroid_lng":121.314204,"centroid_lat":31.222375,"parcel_area_m2":312950,"safety_clipped":false,"classification_source":"osm_tags+building_morphology+spatial_prior","synthetic_classification":true,"qc_flags":"low_confidence"},"geometry":{"type":"MultiPolygon","coordinates":[[[[121.31086661388504,31.219033126462236],[121.31145120953973,31.219033126462236],[121.31145120953973,31.219306546496274],[121.31086661388504,31.219306546496274],[121.31086661388504,31.219033126462236]]],[[[121.3105743160577,31.219306546496274],[121.31203580519443,31.219306546496274],[121.31203580519443,31.21957996653031],[121.3105743160577,31.21957996653031],[121.3105743160577,31.219306546496274]]],[[[121.31028201823035,31.21957996653031],[121.31262040084911,31.21957996653031],[121.31262040084911,31.21985338656435],[121.31028201823035,31.21985338656435],[121.31028201823035,31.21957996653031]]],[[[121.30998972040301,31.21985338656435],[121.3132049965038,31.21985338656435],[121.3132049965038,31.220126806598387],[121.30998972040301,31.220126806598387],[121.30998972040301,31.21985338656435]]],[[[121.30969742257567,31.22012680659839],[121.31408188998583,31.22012680659839],[121.31408188998583,31.220400226632428],[121.30969742257567,31.220400226632428],[121.30969742257567,31.22012680659839]]],[[[121.30940512474832,31.220400226632428],[121.31466648564052,31.220400226632428],[121.31466648564052,31.220673646666466],[121.30940512474832,31.220673646666466],[121.30940512474832,31.220400226632428]]],[[[121.30940512474832,31.220673646666466],[121.3152510812952,31.220673646666466],[121.3152510812952,31.220947066700504],[121.30940512474832,31.220947066700504],[121.30940512474832,31.220673646666466]]],[[[121.30940512474832,31.220947066700504],[121.3158356769499,31.220947066700504],[121.3158356769499,31.22122048673454],[121.30940512474832,31.22122048673454],[121.30940512474832,31.220947066700504]]],[[[121.30911282692098,31.22122048673454],[121.31671257043193,31.22122048673454],[121.31671257043193,31.22149390676858],[121.30911282692098,31.22149390676858],[121.30911282692098,31.22122048673454]]],[[[121.30911282692098,31.22149390676858],[121.31758946391396,31.22149390676858],[121.31758946391396,31.221767326802617],[121.30911282692098,31.221767326802617],[121.30911282692098,31.22149390676858]]],[[[121.30882052909364,31.221767326802617],[121.31817405956865,31.221767326802617],[121.31817405956865,31.222040746836655],[121.30882052909364,31.222040746836655],[121.30882052909364,31.221767326802617]]],[[[121.30911282692098,31.222040746836655],[121.31934325087803,31.222040746836655],[121.31934325087803,31.222314166870692],[121.30911282692098,31.222314166870692],[121.30911282692098,31.222040746836655]]],[[[121.30911282692098,31.222314166870696],[121.32197393132412,31.222314166870696],[121.32197393132412,31.222587586904734],[121.30911282692098,31.222587586904734],[121.30911282692098,31.222314166870696]]],[[[121.30940512474832,31.222587586904734],[121.32402001611554,31.222587586904734],[121.32402001611554,31.22286100693877],[121.30940512474832,31.22286100693877],[121.30940512474832,31.222587586904734]]],[[[121.30940512474832,31.22286100693877],[121.32548150525226,31.22286100693877],[121.32548150525226,31.22313442697281],[121.30940512474832,31.22313442697281],[121.30940512474832,31.22286100693877]]]]}}]}