{"type":"FeatureCollection","features":[{"type":"Feature","properties":{"building_id":"lingang:seed:0","source":"synthetic_seed_not_real_footprint","source_id":"0","building":"residential","name":"","levels":null,"footprint_m2":null,"centroid_lng":121.979305,"centroid_lat":30.728589,"geometry_source":"synthetic_seed"},"geometry":{"type":"Polygon","coordinates":[[[121.979185,30.728469],[121.97942499999999,30.728469],[121.97942499999999,30.728709],[121.979185,30.728709],[121.979185,30.728469]]]}},{"type":"Feature","properties":{"building_id":"lingang:seed:1","source":"synthetic_seed_not_real_footprint","source_id":"1","building":"yes","name":"","levels":null,"footprint_m2":null,"centroid_lng":121.880211,"centroid_lat":30.884382,"geometry_source":"synthetic_seed"},"geometry":{"type":"Polygon","coordinates":[[[121.88009100000001,30.884262],[121.880331,30.884262],[121.880331,30.884501999999998],[121.88009100000001,30.884501999999998],[121.88009100000001,30.884262]]]}},{"type":"Feature","properties":{"building_id":"lingang:seed:2","source":"synthetic_seed_not_real_footprint","source_id":"2","building":"apartments","name":"","levels":null,"footprint_m2":null,"centroid_lng":121.86765,"centroid_lat":30.894834,"geometry_source":"synthetic_seed"},"geometry":{"type":"Polygon","coordinates":[[[121.86753,30.894714],[121.86777,30.894714],[121.86777,30.894954],[121.86753,30.894954],[121.86753,30.894714]]]}},{"type":"Feature","properties":{"building_id":"lingang:seed:3","source":"synthetic_seed_not_real_footprint","source_id":"3","building":"commercial","name":"","levels":null,"footprint_m2":null,"centroid_lng":121.900674,"centroid_lat":30.862551,"geometry_source":"synthetic_seed"},"geometry":{"type":"Polygon","coordinates":[[[121.900554,30.862431],[121.90079399999999,30.862431],[121.90079399999999,30.862671],[121.900554,30.862671],[121.900554,30.862431]]]}},{"type":"Feature","properties":{"building_id":"lingang:seed:4","source":"synthetic_seed_not_real_footprint","source_id":"4","building":"office","name":"","levels":null,"footprint_m2":null,"centroid_lng":121.866243,"centroid_lat":30.937316,"geometry_source":"synthetic_seed"},"geometry":{"type":"Polygon","coordinates":[[[121.866123,30.937196],[121.86636299999999,30.937196],[121.86636299999999,30.937435999999998],[121.866123,30.937435999999998],[121.866123,30.937196]]]}},{"type":"Feature","properties":{"building_id":"lingang:seed:5","source":"synthetic_seed_not_real_footprint","source_id":"5","building":"residential","name":"","levels":null,"footprint_m2":null,"centroid_lng":121.886334,"centroid_lat":30.897671,"geometry_source":"synthetic_seed"},"geometry":{"type":"Polygon","coordinates":[[[121.88621400000001,30.897551],[121.886454,30.897551],[121.886454,30.897790999999998],[121.88621400000001,30.897790999999998],[121.88621400000001,30.897551]]]}},{"type":"Feature","properties":{"building_id":"lingang:seed:6","source":"synthetic_seed_not_real_footprint","source_id":"6","building":"yes","name":"","levels":null,"footprint_m2":null,"centroid_lng":121.865452,"centroid_lat":30.889994,"geometry_source":"synthetic_seed"},"geometry":{"type":"Polygon","coordinates":[[[121.86533200000001,30.889874000000002],[121.865572,30.889874000000002],[121.865572,30.890114],[121.86533200000001,30.890114],[121.86533200000001,30.889874000000002]]]}},{"type":"Feature","properties":{"building_id":"lingang:seed:7","source":"synthetic_seed_not_real_footprint","source_id":"7","building":"apartments","name":"","levels":null,"footprint_m2":null,"centroid_lng":121.866809,"centroid_lat":30.895959,"geometry_source":"synthetic_seed"},"geometry":{"type":"Polygon","coordinates":[[[121.86668900000001,30.895839000000002],[121.866929,30.895839000000002],[121.866929,30.896079],[121.86668900000001,30.896079],[121.86668900000001,30.895839000000002]]]}},{"type":"Feature","properties":{"building_id":"lingang:seed:8","source":"synthetic_seed_not_real_footprint","source_id":"8","building":"commercial","name":"","levels":null,"footprint_m2":null,"centroid_lng":121.885431,"centroid_lat":30.944057,"geometry_source":"synthetic_seed"},"geometry":{"type":"Polygon","coordinates":[[[121.885311,30.943937000000002],[121.88555099999999,30.943937000000002],[121.88555099999999,30.944177],[121.885311,30.944177],[121.885311,30.943937000000002]]]}},{"type":"Feature","properties":{"building_id":"lingang:seed:9","source":"synthetic_seed_not_real_footprint","source_id":"9","building":"office","name":"","levels":null,"footprint_m2":null,"centroid_lng":121.929614,"centroid_lat":30.887905,"geometry_source":"synthetic_seed"},"geometry":{"type":"Polygon","coordinates":[[[121.929494,30.887785],[121.929734,30.887785],[121.929734,30.888025],[121.929494,30.888025],[121.929494,30.887785]]]}},{"type":"Feature","properties":{"building_id":"lingang:seed:10","source":"synthetic_seed_not_real_footprint","source_id":"10","building":"residential","name":"","levels":null,"footprint_m2":null,"centroid_lng":121.925898,"centroid_lat":30.905185,"geometry_source":"synthetic_seed"},"geometry":{"type":"Polygon","coordinates":[[[121.92577800000001,30.905065],[121.926018,30.905065],[121.926018,30.905305],[121.92577800000001,30.905305],[121.92577800000001,30.905065]]]}},{"type":"Feature","properties":{"building_id":"lingang:seed:11","source":"synthetic_seed_not_real_footprint","source_id":"11","building":"yes","name":"","levels":null,"footprint_m2":null,"centroid_lng":121.908037,"centroid_lat":30.897688,"geometry_source":"synthetic_seed"},"geometry":{"type":"Polygon","coordinates":[[[121.907917,30.897568],[121.90815699999999,30.897568],[121.90815699999999,30.897807999999998],[121.907917,30.897807999999998],[121.907917,30.897568]]]}},{"type":"Feature","properties":{"building_id":"lingang:seed:12","source":"synthetic_seed_not_real_footprint","source_id":"12","building":"apartments","name":"","levels":null,"footprint_m2":null,"centroid_lng":121.919154,"centroid_lat":30.906393,"geometry_source":"synthetic_seed"},"geometry":{"type":"Polygon","coordinates":[[[121.91903400000001,30.906273000000002],[121.919274,30.906273000000002],[121.919274,30.906513],[121.91903400000001,30.906513],[121.91903400000001,30.906273000000002]]]}},{"type":"Feature","properties":{"building_id":"lingang:seed:13","source":"synthetic_seed_not_real_footprint","source_id":"13","building":"commercial","name":"","levels":null,"footprint_m2":null,"centroid_lng":121.926869,"centroid_lat":30.863606,"geometry_source":"synthetic_seed"},"geometry":{"type":"Polygon","coordinates":[[[121.926749,30.863486],[121.92698899999999,30.863486],[121.92698899999999,30.863726],[121.926749,30.863726],[121.926749,30.863486]]]}},{"type":"Feature","properties":{"building_id":"lingang:seed:14","source":"synthetic_seed_not_real_footprint","source_id":"14","building":"office","name":"","levels":null,"footprint_m2":null,"centroid_lng":121.935671,"centroid_lat":30.90879,"geometry_source":"synthetic_seed"},"geometry":{"type":"Polygon","coordinates":[[[121.935551,30.90867],[121.935791,30.90867],[121.935791,30.90891],[121.935551,30.90891],[121.935551,30.90867]]]}},{"type":"Feature","properties":{"building_id":"lingang:seed:15","source":"synthetic_seed_not_real_footprint","source_id":"15","building":"residential","name":"","levels":null,"footprint_m2":null,"centroid_lng":121.925103,"centroid_lat":30.905949,"geometry_source":"synthetic_seed"},"geometry":{"type":"Polygon","coordinates":[[[121.924983,30.905829],[121.92522299999999,30.905829],[121.92522299999999,30.906069],[121.924983,30.906069],[121.924983,30.905829]]]}},{"type":"Feature","properties":{"building_id":"lingang:seed:16","source":"synthetic_seed_not_real_footprint","source_id":"16","building":"yes","name":"","levels":null,"footprint_m2":null,"centroid_lng":121.883386,"centroid_lat":30.855997,"geometry_source":"synthetic_seed"},"geometry":{"type":"Polygon","coordinates":[[[121.883266,30.855877],[121.883506,30.855877],[121.883506,30.856116999999998],[121.883266,30.856116999999998],[121.883266,30.855877]]]}},{"type":"Feature","properties":{"building_id":"lingang:seed:17","source":"synthetic_seed_not_real_footprint","source_id":"17","building":"apartments","name":"","levels":null,"footprint_m2":null,"centroid_lng":121.882909,"centroid_lat":30.878388,"geometry_source":"synthetic_seed"},"geometry":{"type":"Polygon","coordinates":[[[121.882789,30.878268000000002],[121.883029,30.878268000000002],[121.883029,30.878508],[121.882789,30.878508],[121.882789,30.878268000000002]]]}},{"type":"Feature","properties":{"building_id":"lingang:seed:18","source":"synthetic_seed_not_real_footprint","source_id":"18","building":"commercial","name":"","levels":null,"footprint_m2":null,"centroid_lng":121.861917,"centroid_lat":30.893542,"geometry_source":"synthetic_seed"},"geometry":{"type":"Polygon","coordinates":[[[121.86179700000001,30.893422],[121.862037,30.893422],[121.862037,30.893662],[121.86179700000001,30.893662],[121.86179700000001,30.893422]]]}},{"type":"Feature","properties":{"building_id":"lingang:seed:19","source":"synthetic_seed_not_real_footprint","source_id":"19","building":"office","name":"","levels":null,"footprint_m2":null,"centroid_lng":121.859586,"centroid_lat":30.866102,"geometry_source":"synthetic_seed"},"geometry":{"type":"Polygon","coordinates":[[[121.859466,30.865982000000002],[121.85970599999999,30.865982000000002],[121.85970599999999,30.866222],[121.859466,30.866222],[121.859466,30.865982000000002]]]}},{"type":"Feature","properties":{"building_id":"lingang:seed:20","source":"synthetic_seed_not_real_footprint","source_id":"20","building":"residential","name":"","levels":null,"footprint_m2":null,"centroid_lng":121.926941,"centroid_lat":30.900336,"geometry_source":"synthetic_seed"},"geometry":{"type":"Polygon","coordinates":[[[121.926821,30.900216],[121.927061,30.900216],[121.927061,30.900456],[121.926821,30.900456],[121.926821,30.900216]]]}},{"type":"Feature","properties":{"building_id":"lingang:seed:21","source":"synthetic_seed_not_real_footprint","source_id":"21","building":"yes","name":"","levels":null,"footprint_m2":null,"centroid_lng":121.896537,"centroid_lat":30.935687,"geometry_source":"synthetic_seed"},"geometry":{"type":"Polygon","coordinates":[[[121.896417,30.935567000000002],[121.89665699999999,30.935567000000002],[121.89665699999999,30.935807],[121.896417,30.935807],[121.896417,30.935567000000002]]]}},{"type":"Feature","properties":{"building_id":"lingang:seed:22","source":"synthetic_seed_not_real_footprint","source_id":"22","building":"apartments","name":"","levels":null,"footprint_m2":null,"centroid_lng":121.913343,"centroid_lat":30.921065,"geometry_source":"synthetic_seed"},"geometry":{"type":"Polygon","coordinates":[[[121.913223,30.920945],[121.913463,30.920945],[121.913463,30.921184999999998],[121.913223,30.921184999999998],[121.913223,30.920945]]]}},{"type":"Feature","properties":{"building_id":"lingang:seed:23","source":"synthetic_seed_not_real_footprint","source_id":"23","building":"commercial","name":"","levels":null,"footprint_m2":null,"centroid_lng":121.906213,"centroid_lat":30.938236,"geometry_source":"synthetic_seed"},"geometry":{"type":"Polygon","coordinates":[[[121.906093,30.938116],[121.90633299999999,30.938116],[121.90633299999999,30.938356],[121.906093,30.938356],[121.906093,30.938116]]]}},{"type":"Feature","properties":{"building_id":"lingang:seed:24","source":"synthetic_seed_not_real_footprint","source_id":"24","building":"office","name":"","levels":null,"footprint_m2":null,"centroid_lng":121.930152,"centroid_lat":30.884252,"geometry_source":"synthetic_seed"},"geometry":{"type":"Polygon","coordinates":[[[121.93003200000001,30.884132],[121.930272,30.884132],[121.930272,30.884372],[121.93003200000001,30.884372],[121.93003200000001,30.884132]]]}},{"type":"Feature","properties":{"building_id":"lingang:seed:25","source":"synthetic_seed_not_real_footprint","source_id":"25","building":"residential","name":"","levels":null,"footprint_m2":null,"centroid_lng":121.940636,"centroid_lat":30.883584,"geometry_source":"synthetic_seed"},"geometry":{"type":"Polygon","coordinates":[[[121.940516,30.883464],[121.940756,30.883464],[121.940756,30.883703999999998],[121.940516,30.883703999999998],[121.940516,30.883464]]]}},{"type":"Feature","properties":{"building_id":"lingang:seed:26","source":"synthetic_seed_not_real_footprint","source_id":"26","building":"yes","name":"","levels":null,"footprint_m2":null,"centroid_lng":121.925275,"centroid_lat":30.897266,"geometry_source":"synthetic_seed"},"geometry":{"type":"Polygon","coordinates":[[[121.925155,30.897146],[121.925395,30.897146],[121.925395,30.897385999999997],[121.925155,30.897385999999997],[121.925155,30.897146]]]}},{"type":"Feature","properties":{"building_id":"lingang:seed:27","source":"synthetic_seed_not_real_footprint","source_id":"27","building":"apartments","name":"","levels":null,"footprint_m2":null,"centroid_lng":121.891053,"centroid_lat":30.874956,"geometry_source":"synthetic_seed"},"geometry":{"type":"Polygon","coordinates":[[[121.890933,30.874836000000002],[121.891173,30.874836000000002],[121.891173,30.875076],[121.890933,30.875076],[121.890933,30.874836000000002]]]}},{"type":"Feature","properties":{"building_id":"lingang:seed:28","source":"synthetic_seed_not_real_footprint","source_id":"28","building":"commercial","name":"","levels":null,"footprint_m2":null,"centroid_lng":121.905352,"centroid_lat":30.905319,"geometry_source":"synthetic_seed"},"geometry":{"type":"Polygon","coordinates":[[[121.905232,30.905199],[121.90547199999999,30.905199],[121.90547199999999,30.905438999999998],[121.905232,30.905438999999998],[121.905232,30.905199]]]}},{"type":"Feature","properties":{"building_id":"lingang:seed:29","source":"synthetic_seed_not_real_footprint","source_id":"29","building":"office","name":"","levels":null,"footprint_m2":null,"centroid_lng":121.928646,"centroid_lat":30.90388,"geometry_source":"synthetic_seed"},"geometry":{"type":"Polygon","coordinates":[[[121.928526,30.903760000000002],[121.928766,30.903760000000002],[121.928766,30.904],[121.928526,30.904],[121.928526,30.903760000000002]]]}},{"type":"Feature","properties":{"building_id":"lingang:seed:30","source":"synthetic_seed_not_real_footprint","source_id":"30","building":"residential","name":"","levels":null,"footprint_m2":null,"centroid_lng":121.92141,"centroid_lat":30.909657,"geometry_source":"synthetic_seed"},"geometry":{"type":"Polygon","coordinates":[[[121.92129,30.909537],[121.92152999999999,30.909537],[121.92152999999999,30.909777],[121.92129,30.909777],[121.92129,30.909537]]]}},{"type":"Feature","properties":{"building_id":"lingang:seed:31","source":"synthetic_seed_not_real_footprint","source_id":"31","building":"yes","name":"","levels":null,"footprint_m2":null,"centroid_lng":121.88549,"centroid_lat":30.879604,"geometry_source":"synthetic_seed"},"geometry":{"type":"Polygon","coordinates":[[[121.88537000000001,30.879484],[121.88561,30.879484],[121.88561,30.879724],[121.88537000000001,30.879724],[121.88537000000001,30.879484]]]}},{"type":"Feature","properties":{"building_id":"lingang:seed:32","source":"synthetic_seed_not_real_footprint","source_id":"32","building":"apartments","name":"","levels":null,"footprint_m2":null,"centroid_lng":121.918883,"centroid_lat":30.955292,"geometry_source":"synthetic_seed"},"geometry":{"type":"Polygon","coordinates":[[[121.918763,30.955172],[121.91900299999999,30.955172],[121.91900299999999,30.955412],[121.918763,30.955412],[121.918763,30.955172]]]}},{"type":"Feature","properties":{"building_id":"lingang:seed:33","source":"synthetic_seed_not_real_footprint","source_id":"33","building":"commercial","name":"","levels":null,"footprint_m2":null,"centroid_lng":121.866519,"centroid_lat":30.891976,"geometry_source":"synthetic_seed"},"geometry":{"type":"Polygon","coordinates":[[[121.866399,30.891856],[121.86663899999999,30.891856],[121.86663899999999,30.892096],[121.866399,30.892096],[121.866399,30.891856]]]}},{"type":"Feature","properties":{"building_id":"lingang:seed:34","source":"synthetic_seed_not_real_footprint","source_id":"34","building":"office","name":"","levels":null,"footprint_m2":null,"centroid_lng":121.929749,"centroid_lat":30.951169,"geometry_source":"synthetic_seed"},"geometry":{"type":"Polygon","coordinates":[[[121.929629,30.951049],[121.929869,30.951049],[121.929869,30.951289],[121.929629,30.951289],[121.929629,30.951049]]]}},{"type":"Feature","properties":{"building_id":"lingang:seed:35","source":"synthetic_seed_not_real_footprint","source_id":"35","building":"residential","name":"","levels":null,"footprint_m2":null,"centroid_lng":121.925243,"centroid_lat":30.888314,"geometry_source":"synthetic_seed"},"geometry":{"type":"Polygon","coordinates":[[[121.925123,30.888194000000002],[121.92536299999999,30.888194000000002],[121.92536299999999,30.888434],[121.925123,30.888434],[121.925123,30.888194000000002]]]}},{"type":"Feature","properties":{"building_id":"lingang:seed:36","source":"synthetic_seed_not_real_footprint","source_id":"36","building":"yes","name":"","levels":null,"footprint_m2":null,"centroid_lng":121.940831,"centroid_lat":30.876654,"geometry_source":"synthetic_seed"},"geometry":{"type":"Polygon","coordinates":[[[121.94071100000001,30.876534],[121.940951,30.876534],[121.940951,30.876773999999997],[121.94071100000001,30.876773999999997],[121.94071100000001,30.876534]]]}},{"type":"Feature","properties":{"building_id":"lingang:seed:37","source":"synthetic_seed_not_real_footprint","source_id":"37","building":"apartments","name":"","levels":null,"footprint_m2":null,"centroid_lng":121.895528,"centroid_lat":30.948177,"geometry_source":"synthetic_seed"},"geometry":{"type":"Polygon","coordinates":[[[121.895408,30.948057000000002],[121.895648,30.948057000000002],[121.895648,30.948297],[121.895408,30.948297],[121.895408,30.948057000000002]]]}},{"type":"Feature","properties":{"building_id":"lingang:seed:38","source":"synthetic_seed_not_real_footprint","source_id":"38","building":"commercial","name":"","levels":null,"footprint_m2":null,"centroid_lng":121.891653,"centroid_lat":30.874709,"geometry_source":"synthetic_seed"},"geometry":{"type":"Polygon","coordinates":[[[121.89153300000001,30.874589],[121.891773,30.874589],[121.891773,30.874829],[121.89153300000001,30.874829],[121.89153300000001,30.874589]]]}},{"type":"Feature","properties":{"building_id":"lingang:seed:39","source":"synthetic_seed_not_real_footprint","source_id":"39","building":"office","name":"","levels":null,"footprint_m2":null,"centroid_lng":121.929393,"centroid_lat":30.90875,"geometry_source":"synthetic_seed"},"geometry":{"type":"Polygon","coordinates":[[[121.92927300000001,30.908630000000002],[121.929513,30.908630000000002],[121.929513,30.90887],[121.92927300000001,30.90887],[121.92927300000001,30.908630000000002]]]}},{"type":"Feature","properties":{"building_id":"lingang:seed:40","source":"synthetic_seed_not_real_footprint","source_id":"40","building":"residential","name":"","levels":null,"footprint_m2":null,"centroid_lng":121.88649,"centroid_lat":30.914218,"geometry_source":"synthetic_seed"},"geometry":{"type":"Polygon","coordinates":[[[121.88637,30.914098000000003],[121.88660999999999,30.914098000000003],[121.88660999999999,30.914338],[121.88637,30.914338],[121.88637,30.914098000000003]]]}},{"type":"Feature","properties":{"building_id":"lingang:seed:41","source":"synthetic_seed_not_real_footprint","source_id":"41","building":"yes","name":"","levels":null,"footprint_m2":null,"centroid_lng":121.887792,"centroid_lat":30.921,"geometry_source":"synthetic_seed"},"geometry":{"type":"Polygon","coordinates":[[[121.88767200000001,30.92088],[121.887912,30.92088],[121.887912,30.92112],[121.88767200000001,30.92112],[121.88767200000001,30.92088]]]}},{"type":"Feature","properties":{"building_id":"lingang:seed:42","source":"synthetic_seed_not_real_footprint","source_id":"42","building":"apartments","name":"","levels":null,"footprint_m2":null,"centroid_lng":121.888766,"centroid_lat":30.936318,"geometry_source":"synthetic_seed"},"geometry":{"type":"Polygon","coordinates":[[[121.88864600000001,30.936198],[121.888886,30.936198],[121.888886,30.936438],[121.88864600000001,30.936438],[121.88864600000001,30.936198]]]}},{"type":"Feature","properties":{"building_id":"lingang:seed:43","source":"synthetic_seed_not_real_footprint","source_id":"43","building":"commercial","name":"","levels":null,"footprint_m2":null,"centroid_lng":121.889467,"centroid_lat":30.960301,"geometry_source":"synthetic_seed"},"geometry":{"type":"Polygon","coordinates":[[[121.889347,30.960181000000002],[121.88958699999999,30.960181000000002],[121.88958699999999,30.960421],[121.889347,30.960421],[121.889347,30.960181000000002]]]}},{"type":"Feature","properties":{"building_id":"lingang:seed:44","source":"synthetic_seed_not_real_footprint","source_id":"44","building":"office","name":"","levels":null,"footprint_m2":null,"centroid_lng":121.920473,"centroid_lat":30.897317,"geometry_source":"synthetic_seed"},"geometry":{"type":"Polygon","coordinates":[[[121.920353,30.897197000000002],[121.920593,30.897197000000002],[121.920593,30.897437],[121.920353,30.897437],[121.920353,30.897197000000002]]]}},{"type":"Feature","properties":{"building_id":"lingang:seed:45","source":"synthetic_seed_not_real_footprint","source_id":"45","building":"residential","name":"","levels":null,"footprint_m2":null,"centroid_lng":121.938633,"centroid_lat":30.885346,"geometry_source":"synthetic_seed"},"geometry":{"type":"Polygon","coordinates":[[[121.938513,30.885226],[121.93875299999999,30.885226],[121.93875299999999,30.885465999999997],[121.938513,30.885465999999997],[121.938513,30.885226]]]}},{"type":"Feature","properties":{"building_id":"lingang:seed:46","source":"synthetic_seed_not_real_footprint","source_id":"46","building":"yes","name":"","levels":null,"footprint_m2":null,"centroid_lng":121.891888,"centroid_lat":30.914158,"geometry_source":"synthetic_seed"},"geometry":{"type":"Polygon","coordinates":[[[121.891768,30.914038],[121.89200799999999,30.914038],[121.89200799999999,30.914278],[121.891768,30.914278],[121.891768,30.914038]]]}},{"type":"Feature","properties":{"building_id":"lingang:seed:47","source":"synthetic_seed_not_real_footprint","source_id":"47","building":"apartments","name":"","levels":null,"footprint_m2":null,"centroid_lng":121.926545,"centroid_lat":30.877136,"geometry_source":"synthetic_seed"},"geometry":{"type":"Polygon","coordinates":[[[121.92642500000001,30.877016],[121.926665,30.877016],[121.926665,30.877256],[121.92642500000001,30.877256],[121.92642500000001,30.877016]]]}},{"type":"Feature","properties":{"building_id":"lingang:seed:48","source":"synthetic_seed_not_real_footprint","source_id":"48","building":"commercial","name":"","levels":null,"footprint_m2":null,"centroid_lng":121.942974,"centroid_lat":30.915941,"geometry_source":"synthetic_seed"},"geometry":{"type":"Polygon","coordinates":[[[121.94285400000001,30.915821],[121.943094,30.915821],[121.943094,30.916061],[121.94285400000001,30.916061],[121.94285400000001,30.915821]]]}},{"type":"Feature","properties":{"building_id":"lingang:seed:49","source":"synthetic_seed_not_real_footprint","source_id":"49","building":"office","name":"","levels":null,"footprint_m2":null,"centroid_lng":121.923454,"centroid_lat":30.882712,"geometry_source":"synthetic_seed"},"geometry":{"type":"Polygon","coordinates":[[[121.92333400000001,30.882592000000002],[121.923574,30.882592000000002],[121.923574,30.882832],[121.92333400000001,30.882832],[121.92333400000001,30.882592000000002]]]}},{"type":"Feature","properties":{"building_id":"lingang:seed:50","source":"synthetic_seed_not_real_footprint","source_id":"50","building":"residential","name":"","levels":null,"footprint_m2":null,"centroid_lng":121.888873,"centroid_lat":30.938203,"geometry_source":"synthetic_seed"},"geometry":{"type":"Polygon","coordinates":[[[121.88875300000001,30.938083000000002],[121.888993,30.938083000000002],[121.888993,30.938323],[121.88875300000001,30.938323],[121.88875300000001,30.938083000000002]]]}},{"type":"Feature","properties":{"building_id":"lingang:seed:51","source":"synthetic_seed_not_real_footprint","source_id":"51","building":"yes","name":"","levels":null,"footprint_m2":null,"centroid_lng":121.905622,"centroid_lat":30.881403,"geometry_source":"synthetic_seed"},"geometry":{"type":"Polygon","coordinates":[[[121.905502,30.881283],[121.90574199999999,30.881283],[121.90574199999999,30.881522999999998],[121.905502,30.881522999999998],[121.905502,30.881283]]]}},{"type":"Feature","properties":{"building_id":"lingang:seed:52","source":"synthetic_seed_not_real_footprint","source_id":"52","building":"apartments","name":"","levels":null,"footprint_m2":null,"centroid_lng":121.889697,"centroid_lat":30.95488,"geometry_source":"synthetic_seed"},"geometry":{"type":"Polygon","coordinates":[[[121.889577,30.95476],[121.889817,30.95476],[121.889817,30.955],[121.889577,30.955],[121.889577,30.95476]]]}},{"type":"Feature","properties":{"building_id":"lingang:seed:53","source":"synthetic_seed_not_real_footprint","source_id":"53","building":"commercial","name":"","levels":null,"footprint_m2":null,"centroid_lng":121.897598,"centroid_lat":30.898781,"geometry_source":"synthetic_seed"},"geometry":{"type":"Polygon","coordinates":[[[121.897478,30.898661],[121.897718,30.898661],[121.897718,30.898901],[121.897478,30.898901],[121.897478,30.898661]]]}},{"type":"Feature","properties":{"building_id":"lingang:seed:54","source":"synthetic_seed_not_real_footprint","source_id":"54","building":"office","name":"","levels":null,"footprint_m2":null,"centroid_lng":121.907771,"centroid_lat":30.889911,"geometry_source":"synthetic_seed"},"geometry":{"type":"Polygon","coordinates":[[[121.907651,30.889791000000002],[121.90789099999999,30.889791000000002],[121.90789099999999,30.890031],[121.907651,30.890031],[121.907651,30.889791000000002]]]}},{"type":"Feature","properties":{"building_id":"lingang:seed:55","source":"synthetic_seed_not_real_footprint","source_id":"55","building":"residential","name":"","levels":null,"footprint_m2":null,"centroid_lng":121.915107,"centroid_lat":30.881446,"geometry_source":"synthetic_seed"},"geometry":{"type":"Polygon","coordinates":[[[121.91498700000001,30.881326],[121.915227,30.881326],[121.915227,30.881566],[121.91498700000001,30.881566],[121.91498700000001,30.881326]]]}},{"type":"Feature","properties":{"building_id":"lingang:seed:56","source":"synthetic_seed_not_real_footprint","source_id":"56","building":"yes","name":"","levels":null,"footprint_m2":null,"centroid_lng":121.910098,"centroid_lat":30.913223,"geometry_source":"synthetic_seed"},"geometry":{"type":"Polygon","coordinates":[[[121.90997800000001,30.913103],[121.910218,30.913103],[121.910218,30.913342999999998],[121.90997800000001,30.913342999999998],[121.90997800000001,30.913103]]]}},{"type":"Feature","properties":{"building_id":"lingang:seed:57","source":"synthetic_seed_not_real_footprint","source_id":"57","building":"apartments","name":"","levels":null,"footprint_m2":null,"centroid_lng":121.915207,"centroid_lat":30.897312,"geometry_source":"synthetic_seed"},"geometry":{"type":"Polygon","coordinates":[[[121.915087,30.897192],[121.91532699999999,30.897192],[121.91532699999999,30.897432],[121.915087,30.897432],[121.915087,30.897192]]]}},{"type":"Feature","properties":{"building_id":"lingang:seed:58","source":"synthetic_seed_not_real_footprint","source_id":"58","building":"commercial","name":"","levels":null,"footprint_m2":null,"centroid_lng":121.906599,"centroid_lat":30.897686,"geometry_source":"synthetic_seed"},"geometry":{"type":"Polygon","coordinates":[[[121.906479,30.897566],[121.906719,30.897566],[121.906719,30.897806],[121.906479,30.897806],[121.906479,30.897566]]]}},{"type":"Feature","properties":{"building_id":"lingang:seed:59","source":"synthetic_seed_not_real_footprint","source_id":"59","building":"office","name":"","levels":null,"footprint_m2":null,"centroid_lng":121.860407,"centroid_lat":30.869999,"geometry_source":"synthetic_seed"},"geometry":{"type":"Polygon","coordinates":[[[121.860287,30.869879],[121.86052699999999,30.869879],[121.86052699999999,30.870119],[121.860287,30.870119],[121.860287,30.869879]]]}},{"type":"Feature","properties":{"building_id":"lingang:seed:60","source":"synthetic_seed_not_real_footprint","source_id":"60","building":"residential","name":"","levels":null,"footprint_m2":null,"centroid_lng":121.888328,"centroid_lat":30.930358,"geometry_source":"synthetic_seed"},"geometry":{"type":"Polygon","coordinates":[[[121.888208,30.930238],[121.888448,30.930238],[121.888448,30.930477999999997],[121.888208,30.930477999999997],[121.888208,30.930238]]]}},{"type":"Feature","properties":{"building_id":"lingang:seed:61","source":"synthetic_seed_not_real_footprint","source_id":"61","building":"yes","name":"","levels":null,"footprint_m2":null,"centroid_lng":121.933301,"centroid_lat":30.875826,"geometry_source":"synthetic_seed"},"geometry":{"type":"Polygon","coordinates":[[[121.933181,30.875706],[121.933421,30.875706],[121.933421,30.875946],[121.933181,30.875946],[121.933181,30.875706]]]}},{"type":"Feature","properties":{"building_id":"lingang:seed:62","source":"synthetic_seed_not_real_footprint","source_id":"62","building":"apartments","name":"","levels":null,"footprint_m2":null,"centroid_lng":121.95036,"centroid_lat":30.911365,"geometry_source":"synthetic_seed"},"geometry":{"type":"Polygon","coordinates":[[[121.95024000000001,30.911245],[121.95048,30.911245],[121.95048,30.911485],[121.95024000000001,30.911485],[121.95024000000001,30.911245]]]}},{"type":"Feature","properties":{"building_id":"lingang:seed:63","source":"synthetic_seed_not_real_footprint","source_id":"63","building":"commercial","name":"","levels":null,"footprint_m2":null,"centroid_lng":121.932187,"centroid_lat":30.923358,"geometry_source":"synthetic_seed"},"geometry":{"type":"Polygon","coordinates":[[[121.932067,30.923238],[121.932307,30.923238],[121.932307,30.923478],[121.932067,30.923478],[121.932067,30.923238]]]}},{"type":"Feature","properties":{"building_id":"lingang:seed:64","source":"synthetic_seed_not_real_footprint","source_id":"64","building":"office","name":"","levels":null,"footprint_m2":null,"centroid_lng":121.858513,"centroid_lat":30.886798,"geometry_source":"synthetic_seed"},"geometry":{"type":"Polygon","coordinates":[[[121.858393,30.886678],[121.858633,30.886678],[121.858633,30.886917999999998],[121.858393,30.886917999999998],[121.858393,30.886678]]]}},{"type":"Feature","properties":{"building_id":"lingang:seed:65","source":"synthetic_seed_not_real_footprint","source_id":"65","building":"residential","name":"","levels":null,"footprint_m2":null,"centroid_lng":121.938776,"centroid_lat":30.921172,"geometry_source":"synthetic_seed"},"geometry":{"type":"Polygon","coordinates":[[[121.93865600000001,30.921052],[121.938896,30.921052],[121.938896,30.921291999999998],[121.93865600000001,30.921291999999998],[121.93865600000001,30.921052]]]}},{"type":"Feature","properties":{"building_id":"lingang:seed:66","source":"synthetic_seed_not_real_footprint","source_id":"66","building":"yes","name":"","levels":null,"footprint_m2":null,"centroid_lng":121.931038,"centroid_lat":30.909857,"geometry_source":"synthetic_seed"},"geometry":{"type":"Polygon","coordinates":[[[121.930918,30.909737],[121.931158,30.909737],[121.931158,30.909976999999998],[121.930918,30.909976999999998],[121.930918,30.909737]]]}},{"type":"Feature","properties":{"building_id":"lingang:seed:67","source":"synthetic_seed_not_real_footprint","source_id":"67","building":"apartments","name":"","levels":null,"footprint_m2":null,"centroid_lng":121.906671,"centroid_lat":30.905324,"geometry_source":"synthetic_seed"},"geometry":{"type":"Polygon","coordinates":[[[121.90655100000001,30.905204],[121.906791,30.905204],[121.906791,30.905444],[121.90655100000001,30.905444],[121.90655100000001,30.905204]]]}},{"type":"Feature","properties":{"building_id":"lingang:seed:68","source":"synthetic_seed_not_real_footprint","source_id":"68","building":"commercial","name":"","levels":null,"footprint_m2":null,"centroid_lng":121.889541,"centroid_lat":30.941964,"geometry_source":"synthetic_seed"},"geometry":{"type":"Polygon","coordinates":[[[121.889421,30.941844],[121.88966099999999,30.941844],[121.88966099999999,30.942083999999998],[121.889421,30.942083999999998],[121.889421,30.941844]]]}},{"type":"Feature","properties":{"building_id":"lingang:seed:69","source":"synthetic_seed_not_real_footprint","source_id":"69","building":"office","name":"","levels":null,"footprint_m2":null,"centroid_lng":121.95723,"centroid_lat":30.911586,"geometry_source":"synthetic_seed"},"geometry":{"type":"Polygon","coordinates":[[[121.95711,30.911466],[121.95734999999999,30.911466],[121.95734999999999,30.911706],[121.95711,30.911706],[121.95711,30.911466]]]}},{"type":"Feature","properties":{"building_id":"lingang:seed:70","source":"synthetic_seed_not_real_footprint","source_id":"70","building":"residential","name":"","levels":null,"footprint_m2":null,"centroid_lng":121.926331,"centroid_lat":30.920911,"geometry_source":"synthetic_seed"},"geometry":{"type":"Polygon","coordinates":[[[121.92621100000001,30.920791],[121.926451,30.920791],[121.926451,30.921031],[121.92621100000001,30.921031],[121.92621100000001,30.920791]]]}},{"type":"Feature","properties":{"building_id":"lingang:seed:71","source":"synthetic_seed_not_real_footprint","source_id":"71","building":"yes","name":"","levels":null,"footprint_m2":null,"centroid_lng":121.923337,"centroid_lat":30.949036,"geometry_source":"synthetic_seed"},"geometry":{"type":"Polygon","coordinates":[[[121.92321700000001,30.948916],[121.923457,30.948916],[121.923457,30.949156],[121.92321700000001,30.949156],[121.92321700000001,30.948916]]]}},{"type":"Feature","properties":{"building_id":"lingang:seed:72","source":"synthetic_seed_not_real_footprint","source_id":"72","building":"apartments","name":"","levels":null,"footprint_m2":null,"centroid_lng":121.930844,"centroid_lat":30.86443,"geometry_source":"synthetic_seed"},"geometry":{"type":"Polygon","coordinates":[[[121.930724,30.86431],[121.93096399999999,30.86431],[121.93096399999999,30.864549999999998],[121.930724,30.864549999999998],[121.930724,30.86431]]]}},{"type":"Feature","properties":{"building_id":"lingang:seed:73","source":"synthetic_seed_not_real_footprint","source_id":"73","building":"commercial","name":"","levels":null,"footprint_m2":null,"centroid_lng":121.932308,"centroid_lat":30.947192,"geometry_source":"synthetic_seed"},"geometry":{"type":"Polygon","coordinates":[[[121.93218800000001,30.947072000000002],[121.932428,30.947072000000002],[121.932428,30.947312],[121.93218800000001,30.947312],[121.93218800000001,30.947072000000002]]]}},{"type":"Feature","properties":{"building_id":"lingang:seed:74","source":"synthetic_seed_not_real_footprint","source_id":"74","building":"office","name":"","levels":null,"footprint_m2":null,"centroid_lng":121.93876,"centroid_lat":30.918039,"geometry_source":"synthetic_seed"},"geometry":{"type":"Polygon","coordinates":[[[121.93864,30.917919],[121.93888,30.917919],[121.93888,30.918159],[121.93864,30.918159],[121.93864,30.917919]]]}},{"type":"Feature","properties":{"building_id":"lingang:seed:75","source":"synthetic_seed_not_real_footprint","source_id":"75","building":"residential","name":"","levels":null,"footprint_m2":null,"centroid_lng":121.929364,"centroid_lat":30.906458,"geometry_source":"synthetic_seed"},"geometry":{"type":"Polygon","coordinates":[[[121.92924400000001,30.906338],[121.929484,30.906338],[121.929484,30.906578],[121.92924400000001,30.906578],[121.92924400000001,30.906338]]]}},{"type":"Feature","properties":{"building_id":"lingang:seed:76","source":"synthetic_seed_not_real_footprint","source_id":"76","building":"yes","name":"","levels":null,"footprint_m2":null,"centroid_lng":121.943021,"centroid_lat":30.931423,"geometry_source":"synthetic_seed"},"geometry":{"type":"Polygon","coordinates":[[[121.942901,30.931303],[121.943141,30.931303],[121.943141,30.931542999999998],[121.942901,30.931542999999998],[121.942901,30.931303]]]}},{"type":"Feature","properties":{"building_id":"lingang:seed:77","source":"synthetic_seed_not_real_footprint","source_id":"77","building":"apartments","name":"","levels":null,"footprint_m2":null,"centroid_lng":121.917761,"centroid_lat":30.875014,"geometry_source":"synthetic_seed"},"geometry":{"type":"Polygon","coordinates":[[[121.917641,30.874894],[121.917881,30.874894],[121.917881,30.875134],[121.917641,30.875134],[121.917641,30.874894]]]}},{"type":"Feature","properties":{"building_id":"lingang:seed:78","source":"synthetic_seed_not_real_footprint","source_id":"78","building":"commercial","name":"","levels":null,"footprint_m2":null,"centroid_lng":121.949935,"centroid_lat":30.929429,"geometry_source":"synthetic_seed"},"geometry":{"type":"Polygon","coordinates":[[[121.949815,30.929309],[121.95005499999999,30.929309],[121.95005499999999,30.929548999999998],[121.949815,30.929548999999998],[121.949815,30.929309]]]}},{"type":"Feature","properties":{"building_id":"lingang:seed:79","source":"synthetic_seed_not_real_footprint","source_id":"79","building":"office","name":"","levels":null,"footprint_m2":null,"centroid_lng":121.93202,"centroid_lat":30.939817,"geometry_source":"synthetic_seed"},"geometry":{"type":"Polygon","coordinates":[[[121.9319,30.939697000000002],[121.93213999999999,30.939697000000002],[121.93213999999999,30.939937],[121.9319,30.939937],[121.9319,30.939697000000002]]]}},{"type":"Feature","properties":{"building_id":"lingang:seed:80","source":"synthetic_seed_not_real_footprint","source_id":"80","building":"residential","name":"","levels":null,"footprint_m2":null,"centroid_lng":121.9485,"centroid_lat":30.948936,"geometry_source":"synthetic_seed"},"geometry":{"type":"Polygon","coordinates":[[[121.94838,30.948816],[121.94861999999999,30.948816],[121.94861999999999,30.949056],[121.94838,30.949056],[121.94838,30.948816]]]}}]}