{"type":"FeatureCollection","features":[{"type":"Feature","properties":{"building_id":"lingang:seed:0","source":"synthetic_seed_not_real_footprint","source_id":"0","building":"residential","name":"","levels":null,"footprint_m2":null,"centroid_lng":121.979305,"centroid_lat":30.728589,"geometry_source":"synthetic_seed"},"geometry":{"type":"Polygon","coordinates":[[[121.97500491401168,30.730821521811315],[121.97524421259955,30.730820835340285],[121.97524419297461,30.731060713415008],[121.97500489438853,30.731061399886066],[121.97500491401168,30.730821521811315]]]}},{"type":"Feature","properties":{"building_id":"lingang:seed:1","source":"synthetic_seed_not_real_footprint","source_id":"1","building":"yes","name":"","levels":null,"footprint_m2":null,"centroid_lng":121.880211,"centroid_lat":30.884382,"geometry_source":"synthetic_seed"},"geometry":{"type":"Polygon","coordinates":[[[121.87599229514646,30.886643319008932],[121.87623263172524,30.886643528275336],[121.87623261225129,30.886883387959525],[121.87599227567172,30.886883178693182],[121.87599229514646,30.886643319008932]]]}},{"type":"Feature","properties":{"building_id":"lingang:seed:2","source":"synthetic_seed_not_real_footprint","source_id":"2","building":"apartments","name":"","levels":null,"footprint_m2":null,"centroid_lng":121.86765,"centroid_lat":30.894834,"geometry_source":"synthetic_seed"},"geometry":{"type":"Polygon","coordinates":[[[121.86340966979186,30.897075505163663],[121.86365012084278,30.897075813635638],[121.86365010131308,30.897315672742142],[121.8634096502611,30.89731536427023],[121.86340966979186,30.897075505163663]]]}},{"type":"Feature","properties":{"building_id":"lingang:seed:3","source":"synthetic_seed_not_real_footprint","source_id":"3","building":"commercial","name":"","levels":null,"footprint_m2":null,"centroid_lng":121.900674,"centroid_lat":30.862551,"geometry_source":"synthetic_seed"},"geometry":{"type":"Polygon","coordinates":[[[121.89647639518472,30.864834756457242],[121.89671650238381,30.864834767339094],[121.89671648296766,30.865074628517007],[121.89647637576837,30.86507461763521],[121.89647639518472,30.864834756457242]]]}},{"type":"Feature","properties":{"building_id":"lingang:seed:4","source":"synthetic_seed_not_real_footprint","source_id":"4","building":"office","name":"","levels":null,"footprint_m2":null,"centroid_lng":121.866243,"centroid_lat":30.937316,"geometry_source":"synthetic_seed"},"geometry":{"type":"Polygon","coordinates":[[[121.86199652600435,30.939530576037864],[121.86223698845721,30.93953089423038],[121.86223696889111,30.93977075190984],[121.86199650643715,30.93977043371739],[121.86199652600435,30.939530576037864]]]}},{"type":"Feature","properties":{"building_id":"lingang:seed:5","source":"synthetic_seed_not_real_footprint","source_id":"5","building":"residential","name":"","levels":null,"footprint_m2":null,"centroid_lng":121.886334,"centroid_lat":30.897671,"geometry_source":"synthetic_seed"},"geometry":{"type":"Polygon","coordinates":[[[121.88212203028391,30.899929197750943],[121.88236230290373,30.899929351614738],[121.8823622834382,30.900169210574305],[121.88212201081777,30.900169056710567],[121.88212203028391,30.899929197750943]]]}},{"type":"Feature","properties":{"building_id":"lingang:seed:6","source":"synthetic_seed_not_real_footprint","source_id":"6","building":"yes","name":"","levels":null,"footprint_m2":null,"centroid_lng":121.865452,"centroid_lat":30.889994,"geometry_source":"synthetic_seed"},"geometry":{"type":"Polygon","coordinates":[[[121.8612078441565,30.892235441616293],[121.8614483125405,30.892235765160326],[121.8614482930043,30.892475624525307],[121.86120782461919,30.89247530098134],[121.8612078441565,30.892235441616293]]]}},{"type":"Feature","properties":{"building_id":"lingang:seed:7","source":"synthetic_seed_not_real_footprint","source_id":"7","building":"apartments","name":"","levels":null,"footprint_m2":null,"centroid_lng":121.866809,"centroid_lat":30.895959,"geometry_source":"synthetic_seed"},"geometry":{"type":"Polygon","coordinates":[[[121.86256698244915,30.898198750473917],[121.86280744024656,30.898199064798515],[121.86280742071231,30.898438923848055],[121.86256696291383,30.89843860952352],[121.86256698244915,30.898198750473917]]]}},{"type":"Feature","properties":{"building_id":"lingang:seed:8","source":"synthetic_seed_not_real_footprint","source_id":"8","building":"commercial","name":"","levels":null,"footprint_m2":null,"centroid_lng":121.885431,"centroid_lat":30.944057,"geometry_source":"synthetic_seed"},"geometry":{"type":"Polygon","coordinates":[[[121.88121421542722,30.94628717820565],[121.8814544979032,30.946287340478865],[121.88145447840262,30.946527198066956],[121.88121419592598,30.9465270357938],[121.88121421542722,30.94628717820565]]]}},{"type":"Feature","properties":{"building_id":"lingang:seed:9","source":"synthetic_seed_not_real_footprint","source_id":"9","building":"office","name":"","levels":null,"footprint_m2":null,"centroid_lng":121.929614,"centroid_lat":30.887905,"geometry_source":"synthetic_seed"},"geometry":{"type":"Polygon","coordinates":[[[121.92540581563816,30.89015678389422],[121.92564556397504,30.890156485037597],[121.92564554451168,30.890396344505607],[121.92540579617548,30.890396643362273],[121.92540581563816,30.89015678389422]]]}},{"type":"Feature","properties":{"building_id":"lingang:seed:10","source":"synthetic_seed_not_real_footprint","source_id":"10","building":"residential","name":"","levels":null,"footprint_m2":null,"centroid_lng":121.925898,"centroid_lat":30.905185,"geometry_source":"synthetic_seed"},"geometry":{"type":"Polygon","coordinates":[[[121.92169193809778,30.907430939214823],[121.92193173177489,30.90743067948261],[121.9219317123092,30.90767053808937],[121.92169191863267,30.907670797821623],[121.92169193809778,30.907430939214823]]]}},{"type":"Feature","properties":{"building_id":"lingang:seed:11","source":"synthetic_seed_not_real_footprint","source_id":"11","building":"yes","name":"","levels":null,"footprint_m2":null,"centroid_lng":121.908037,"centroid_lat":30.897688,"geometry_source":"synthetic_seed"},"geometry":{"type":"Polygon","coordinates":[[[121.90383850372842,30.899950437530936],[121.90407852045283,30.899950370236535],[121.90407850101481,30.90019022919042],[121.90383848429043,30.900190296484872],[121.90383850372842,30.899950437530936]]]}},{"type":"Feature","properties":{"building_id":"lingang:seed:12","source":"synthetic_seed_not_real_footprint","source_id":"12","building":"apartments","name":"","levels":null,"footprint_m2":null,"centroid_lng":121.919154,"centroid_lat":30.906393,"geometry_source":"synthetic_seed"},"geometry":{"type":"Polygon","coordinates":[[[121.91495242155945,30.90864447707712],[121.91519229905639,30.908644289631624],[121.91519227960319,30.908884148188584],[121.91495240210662,30.908884335634124],[121.91495242155945,30.90864447707712]]]}},{"type":"Feature","properties":{"building_id":"lingang:seed:13","source":"synthetic_seed_not_real_footprint","source_id":"13","building":"commercial","name":"","levels":null,"footprint_m2":null,"centroid_lng":121.926869,"centroid_lat":30.863606,"geometry_source":"synthetic_seed"},"geometry":{"type":"Polygon","coordinates":[[[121.9226654552807,30.865875172300107],[121.92290523713302,30.86587490229047],[121.92290521769417,30.866114763382075],[121.92266543584243,30.866115033391754],[121.9226654552807,30.865875172300107]]]}},{"type":"Feature","properties":{"building_id":"lingang:seed:14","source":"synthetic_seed_not_real_footprint","source_id":"14","building":"office","name":"","levels":null,"footprint_m2":null,"centroid_lng":121.935671,"centroid_lat":30.90879,"geometry_source":"synthetic_seed"},"geometry":{"type":"Polygon","coordinates":[[[121.93145388913705,30.911021208370975],[121.93169356531719,30.911020847388944],[121.93169354581939,30.911260705845383],[121.93145386964011,30.911261066827453],[121.93145388913705,30.911021208370975]]]}},{"type":"Feature","properties":{"building_id":"lingang:seed:15","source":"synthetic_seed_not_real_footprint","source_id":"15","building":"residential","name":"","levels":null,"footprint_m2":null,"centroid_lng":121.925103,"centroid_lat":30.905949,"geometry_source":"synthetic_seed"},"geometry":{"type":"Polygon","coordinates":[[[121.92089753846135,30.908195331229734],[121.92113734193579,30.90819507994604],[121.92113732247144,30.90843493852053],[121.92089751899755,30.908435189804266],[121.92089753846135,30.908195331229734]]]}},{"type":"Feature","properties":{"building_id":"lingang:seed:16","source":"synthetic_seed_not_real_footprint","source_id":"16","building":"yes","name":"","levels":null,"footprint_m2":null,"centroid_lng":121.883386,"centroid_lat":30.855997,"geometry_source":"synthetic_seed"},"geometry":{"type":"Polygon","coordinates":[[[121.8791738509235,30.85827739721147],[121.87941415482925,30.8582775782652],[121.87941413538498,30.858517439971042],[121.87917383147852,30.85851725891737],[121.8791738509235,30.85827739721147]]]}},{"type":"Feature","properties":{"building_id":"lingang:seed:17","source":"synthetic_seed_not_real_footprint","source_id":"17","building":"apartments","name":"","levels":null,"footprint_m2":null,"centroid_lng":121.882909,"centroid_lat":30.878388,"geometry_source":"synthetic_seed"},"geometry":{"type":"Polygon","coordinates":[[[121.87869442447871,30.880655049465545],[121.87893473342943,30.88065523482531],[121.87893471396802,30.88089509488211],[121.8786944050166,30.880894909522407],[121.87869442447871,30.880655049465545]]]}},{"type":"Feature","properties":{"building_id":"lingang:seed:18","source":"synthetic_seed_not_real_footprint","source_id":"18","building":"commercial","name":"","levels":null,"footprint_m2":null,"centroid_lng":121.861917,"centroid_lat":30.893542,"geometry_source":"synthetic_seed"},"geometry":{"type":"Polygon","coordinates":[[[121.8576654482458,30.895776415042505],[121.85790594272657,30.89577676125207],[121.85790592317109,30.896016620427066],[121.85766542868915,30.896016274217565],[121.8576654482458,30.895776415042505]]]}},{"type":"Feature","properties":{"building_id":"lingang:seed:19","source":"synthetic_seed_not_real_footprint","source_id":"19","building":"office","name":"","levels":null,"footprint_m2":null,"centroid_lng":121.859586,"centroid_lat":30.866102,"geometry_source":"synthetic_seed"},"geometry":{"type":"Polygon","coordinates":[[[121.85533179568972,30.868348983803987],[121.85557230595101,30.868349343870275],[121.8555722864034,30.86858920478866],[121.8553317761409,30.868588844722435],[121.85533179568972,30.868348983803987]]]}},{"type":"Feature","properties":{"building_id":"lingang:seed:20","source":"synthetic_seed_not_real_footprint","source_id":"20","building":"residential","name":"","levels":null,"footprint_m2":null,"centroid_lng":121.926941,"centroid_lat":30.900336,"geometry_source":"synthetic_seed"},"geometry":{"type":"Polygon","coordinates":[[[121.92273441329311,30.902583646435254],[121.92297419417027,30.90258337565817],[121.92297417470542,30.90282323448175],[121.92273439382886,30.902823505258873],[121.92273441329311,30.902583646435254]]]}},{"type":"Feature","properties":{"building_id":"lingang:seed:21","source":"synthetic_seed_not_real_footprint","source_id":"21","building":"yes","name":"","levels":null,"footprint_m2":null,"centroid_lng":121.896537,"centroid_lat":30.935687,"geometry_source":"synthetic_seed"},"geometry":{"type":"Polygon","coordinates":[[[121.89233116828696,30.937927233330267],[121.8925713250802,30.93792728698011],[121.89257130560809,30.93816714467881],[121.8923311488145,30.938167091029026],[121.89233116828696,30.937927233330267]]]}},{"type":"Feature","properties":{"building_id":"lingang:seed:22","source":"synthetic_seed_not_real_footprint","source_id":"22","building":"apartments","name":"","levels":null,"footprint_m2":null,"centroid_lng":121.913343,"centroid_lat":30.921065,"geometry_source":"synthetic_seed"},"geometry":{"type":"Polygon","coordinates":[[[121.90914228001888,30.923311559720947],[121.90938223039085,30.92331143515867],[121.90938221093408,30.923551293194276],[121.9091422605623,30.923551417756602],[121.90914228001888,30.923311559720947]]]}},{"type":"Feature","properties":{"building_id":"lingang:seed:23","source":"synthetic_seed_not_real_footprint","source_id":"23","building":"commercial","name":"","levels":null,"footprint_m2":null,"centroid_lng":121.906213,"centroid_lat":30.938236,"geometry_source":"synthetic_seed"},"geometry":{"type":"Polygon","coordinates":[[[121.90201099274911,30.94047490671795],[121.9022510321179,30.940474858962858],[121.90225101265133,30.940714716618672],[121.9020109732825,30.940714764373812],[121.90201099274911,30.94047490671795]]]}},{"type":"Feature","properties":{"building_id":"lingang:seed:24","source":"synthetic_seed_not_real_footprint","source_id":"24","building":"office","name":"","levels":null,"footprint_m2":null,"centroid_lng":121.930152,"centroid_lat":30.884252,"geometry_source":"synthetic_seed"},"geometry":{"type":"Polygon","coordinates":[[[121.92594354369253,30.886505247769424],[121.92618328553424,30.8865049433051],[121.92618326607187,30.886744802986588],[121.92594352423087,30.886745107450952],[121.92594354369253,30.886505247769424]]]}},{"type":"Feature","properties":{"building_id":"lingang:seed:25","source":"synthetic_seed_not_real_footprint","source_id":"25","building":"residential","name":"","levels":null,"footprint_m2":null,"centroid_lng":121.940636,"centroid_lat":30.883584,"geometry_source":"synthetic_seed"},"geometry":{"type":"Polygon","coordinates":[[[121.93641367564278,30.885822058696952],[121.93665329512132,30.885821648795403],[121.93665327562178,30.886061508515432],[121.93641365614425,30.886061918417017],[121.93641367564278,30.885822058696952]]]}},{"type":"Feature","properties":{"building_id":"lingang:seed:26","source":"synthetic_seed_not_real_footprint","source_id":"26","building":"yes","name":"","levels":null,"footprint_m2":null,"centroid_lng":121.925275,"centroid_lat":30.897266,"geometry_source":"synthetic_seed"},"geometry":{"type":"Polygon","coordinates":[[[121.92107010200331,30.899517260869665],[121.92130990337547,30.89951700775758],[121.92130988391683,30.899756866728897],[121.92107008254523,30.899757119841023],[121.92107010200331,30.899517260869665]]]}},{"type":"Feature","properties":{"building_id":"lingang:seed:27","source":"synthetic_seed_not_real_footprint","source_id":"27","building":"apartments","name":"","levels":null,"footprint_m2":null,"centroid_lng":121.891053,"centroid_lat":30.874956,"geometry_source":"synthetic_seed"},"geometry":{"type":"Polygon","coordinates":[[[121.886847746832,30.877230093053385],[121.8870879670724,30.877230201654214],[121.88708794763369,30.87747006193587],[121.8868477273928,30.877469953335098],[121.886847746832,30.877230093053385]]]}},{"type":"Feature","properties":{"building_id":"lingang:seed:28","source":"synthetic_seed_not_real_footprint","source_id":"28","building":"commercial","name":"","levels":null,"footprint_m2":null,"centroid_lng":121.905352,"centroid_lat":30.905319,"geometry_source":"synthetic_seed"},"geometry":{"type":"Polygon","coordinates":[[[121.90115249543493,30.907577524886655],[121.90139254544306,30.907577486330236],[121.90139252599947,30.907817344935246],[121.90115247599128,30.907817383491714],[121.90115249543493,30.907577524886655]]]}},{"type":"Feature","properties":{"building_id":"lingang:seed:29","source":"synthetic_seed_not_real_footprint","source_id":"29","building":"office","name":"","levels":null,"footprint_m2":null,"centroid_lng":121.928646,"centroid_lat":30.90388,"geometry_source":"synthetic_seed"},"geometry":{"type":"Polygon","coordinates":[[[121.92443750545401,30.906123582092004],[121.92467726549663,30.90612329336183],[121.92467724602476,30.906363152024596],[121.92443748598279,30.90636344075481],[121.92443750545401,30.906123582092004]]]}},{"type":"Feature","properties":{"building_id":"lingang:seed:30","source":"synthetic_seed_not_real_footprint","source_id":"30","building":"residential","name":"","levels":null,"footprint_m2":null,"centroid_lng":121.92141,"centroid_lat":30.909657,"geometry_source":"synthetic_seed"},"geometry":{"type":"Polygon","coordinates":[[[121.91720688692543,30.911904688421668],[121.91744673622678,30.91190447666118],[121.91744671676749,30.91214433508593],[121.91720686746656,30.91214454684646],[121.91720688692543,30.911904688421668]]]}},{"type":"Feature","properties":{"building_id":"lingang:seed:31","source":"synthetic_seed_not_real_footprint","source_id":"31","building":"yes","name":"","levels":null,"footprint_m2":null,"centroid_lng":121.88549,"centroid_lat":30.879604,"geometry_source":"synthetic_seed"},"geometry":{"type":"Polygon","coordinates":[[[121.88127851607882,30.88187221908456],[121.88151879774895,30.881872380825673],[121.88151877829392,30.88211224080377],[121.88127849662317,30.882112079062715],[121.88127851607882,30.88187221908456]]]}},{"type":"Feature","properties":{"building_id":"lingang:seed:32","source":"synthetic_seed_not_real_footprint","source_id":"32","building":"apartments","name":"","levels":null,"footprint_m2":null,"centroid_lng":121.918883,"centroid_lat":30.955292,"geometry_source":"synthetic_seed"},"geometry":{"type":"Polygon","coordinates":[[[121.91467758943477,30.95751472800515],[121.91491747025177,30.95751454347728],[121.91491745076456,30.9577544010003],[121.91467756994793,30.957754585528214],[121.91467758943477,30.95751472800515]]]}},{"type":"Feature","properties":{"building_id":"lingang:seed:33","source":"synthetic_seed_not_real_footprint","source_id":"33","building":"commercial","name":"","levels":null,"footprint_m2":null,"centroid_lng":121.866519,"centroid_lat":30.891976,"geometry_source":"synthetic_seed"},"geometry":{"type":"Polygon","coordinates":[[[121.86227675094395,30.894217705846934],[121.86251721101912,30.894218022166097],[121.86251719148638,30.89445788142286],[121.86227673141012,30.894457565103764],[121.86227675094395,30.894217705846934]]]}},{"type":"Feature","properties":{"building_id":"lingang:seed:34","source":"synthetic_seed_not_real_footprint","source_id":"34","building":"office","name":"","levels":null,"footprint_m2":null,"centroid_lng":121.929749,"centroid_lat":30.951169,"geometry_source":"synthetic_seed"},"geometry":{"type":"Polygon","coordinates":[[[121.9255355381234,30.953383243535743],[121.92577528464346,30.9533829432596],[121.92577526513513,30.95362280078936],[121.92553551861576,30.953623101065542],[121.9255355381234,30.953383243535743]]]}},{"type":"Feature","properties":{"building_id":"lingang:seed:35","source":"synthetic_seed_not_real_footprint","source_id":"35","building":"residential","name":"","levels":null,"footprint_m2":null,"centroid_lng":121.925243,"centroid_lat":30.888314,"geometry_source":"synthetic_seed"},"geometry":{"type":"Polygon","coordinates":[[[121.92103885392642,30.890570545916127],[121.92127865571399,30.890570293146],[121.92127863626173,30.890810152591538],[121.9210388344747,30.890810405361705],[121.92103885392642,30.890570545916127]]]}},{"type":"Feature","properties":{"building_id":"lingang:seed:36","source":"synthetic_seed_not_real_footprint","source_id":"36","building":"yes","name":"","levels":null,"footprint_m2":null,"centroid_lng":121.940831,"centroid_lat":30.876654,"geometry_source":"synthetic_seed"},"geometry":{"type":"Polygon","coordinates":[[[121.9366089296443,30.878895769952855],[121.93684854697112,30.878895358174045],[121.93684852747565,30.87913521833271],[121.93660891014983,30.879135630111556],[121.9366089296443,30.878895769952855]]]}},{"type":"Feature","properties":{"building_id":"lingang:seed:37","source":"synthetic_seed_not_real_footprint","source_id":"37","building":"apartments","name":"","levels":null,"footprint_m2":null,"centroid_lng":121.895528,"centroid_lat":30.948177,"geometry_source":"synthetic_seed"},"geometry":{"type":"Polygon","coordinates":[[[121.89132046445577,30.95040957111372],[121.8915606331581,30.95040963503381],[121.89156061367574,30.95064949258577],[121.89132044497305,30.950649428665734],[121.89132046445577,30.95040957111372]]]}},{"type":"Feature","properties":{"building_id":"lingang:seed:38","source":"synthetic_seed_not_real_footprint","source_id":"38","building":"commercial","name":"","levels":null,"footprint_m2":null,"centroid_lng":121.891653,"centroid_lat":30.874709,"geometry_source":"synthetic_seed"},"geometry":{"type":"Polygon","coordinates":[[[121.88744831233056,30.876983503914506],[121.88768852575268,30.876983606618314],[121.88768850631533,30.87722346691652],[121.88744829289274,30.877223364212767],[121.88744831233056,30.876983503914506]]]}},{"type":"Feature","properties":{"building_id":"lingang:seed:39","source":"synthetic_seed_not_real_footprint","source_id":"39","building":"office","name":"","levels":null,"footprint_m2":null,"centroid_lng":121.929393,"centroid_lat":30.90875,"geometry_source":"synthetic_seed"},"geometry":{"type":"Polygon","coordinates":[[[121.92518335381676,30.910989805185253],[121.9254231047721,30.910989508633353],[121.9254230852947,30.91122936709242],[121.92518333434005,30.91122966364436],[121.92518335381676,30.910989805185253]]]}},{"type":"Feature","properties":{"building_id":"lingang:seed:40","source":"synthetic_seed_not_real_footprint","source_id":"40","building":"residential","name":"","levels":null,"footprint_m2":null,"centroid_lng":121.88649,"centroid_lat":30.914218,"geometry_source":"synthetic_seed"},"geometry":{"type":"Polygon","coordinates":[[[121.8822768653048,30.91646654889521],[121.88251713627622,30.91646670129205],[121.88251711679945,30.91670655955494],[121.8822768458274,30.916706407158156],[121.8822768653048,30.91646654889521]]]}},{"type":"Feature","properties":{"building_id":"lingang:seed:41","source":"synthetic_seed_not_real_footprint","source_id":"41","building":"yes","name":"","levels":null,"footprint_m2":null,"centroid_lng":121.887792,"centroid_lat":30.921,"geometry_source":"synthetic_seed"},"geometry":{"type":"Polygon","coordinates":[[[121.88357975356905,30.923245340155763],[121.88382001033412,30.923245480248184],[121.88381999085578,30.923485338291275],[121.88357973409015,30.92348519819891],[121.88357975356905,30.923245340155763]]]}},{"type":"Feature","properties":{"building_id":"lingang:seed:42","source":"synthetic_seed_not_real_footprint","source_id":"42","building":"apartments","name":"","levels":null,"footprint_m2":null,"centroid_lng":121.888766,"centroid_lat":30.936318,"geometry_source":"synthetic_seed"},"geometry":{"type":"Polygon","coordinates":[[[121.8845535357481,30.938554821936542],[121.88479378178485,30.93855495271659],[121.88479376229802,30.938794810406474],[121.88455351626071,30.938794679626483],[121.8845535357481,30.938554821936542]]]}},{"type":"Feature","properties":{"building_id":"lingang:seed:43","source":"synthetic_seed_not_real_footprint","source_id":"43","building":"commercial","name":"","levels":null,"footprint_m2":null,"centroid_lng":121.889467,"centroid_lat":30.960301,"geometry_source":"synthetic_seed"},"geometry":{"type":"Polygon","coordinates":[[[121.8852532988547,30.962523964919107],[121.88549353713384,30.962524088939972],[121.88549351763167,30.96276394647831],[121.88525327935201,30.9627638224575],[121.8852532988547,30.962523964919107]]]}},{"type":"Feature","properties":{"building_id":"lingang:seed:44","source":"synthetic_seed_not_real_footprint","source_id":"44","building":"office","name":"","levels":null,"footprint_m2":null,"centroid_lng":121.920473,"centroid_lat":30.897317,"geometry_source":"synthetic_seed"},"geometry":{"type":"Polygon","coordinates":[[[121.91627144680578,30.899572756022973],[121.91651130782316,30.89957255435127],[121.9165112883742,30.899812413320944],[121.91627142735722,30.899812614992687],[121.91627144680578,30.899572756022973]]]}},{"type":"Feature","properties":{"building_id":"lingang:seed:45","source":"synthetic_seed_not_real_footprint","source_id":"45","building":"residential","name":"","levels":null,"footprint_m2":null,"centroid_lng":121.938633,"centroid_lat":30.885346,"geometry_source":"synthetic_seed"},"geometry":{"type":"Polygon","coordinates":[[[121.93441360285442,30.887586358612438],[121.93465324495388,30.887585968200394],[121.93465322546132,30.887825827815405],[121.93441358336281,30.887826218227485],[121.93441360285442,30.887586358612438]]]}},{"type":"Feature","properties":{"building_id":"lingang:seed:46","source":"synthetic_seed_not_real_footprint","source_id":"46","building":"yes","name":"","levels":null,"footprint_m2":null,"centroid_lng":121.891888,"centroid_lat":30.914158,"geometry_source":"synthetic_seed"},"geometry":{"type":"Polygon","coordinates":[[[121.88768032413454,30.916409457904862],[121.88792053495335,30.916409558281718],[121.88792051548872,30.916649416545443],[121.88768030466943,30.916649316168645],[121.88768032413454,30.916409457904862]]]}},{"type":"Feature","properties":{"building_id":"lingang:seed:47","source":"synthetic_seed_not_real_footprint","source_id":"47","building":"apartments","name":"","levels":null,"footprint_m2":null,"centroid_lng":121.926545,"centroid_lat":30.877136,"geometry_source":"synthetic_seed"},"geometry":{"type":"Polygon","coordinates":[[[121.92234064906162,30.879397674496882],[121.92258043485435,30.879397407912275],[121.92258041540681,30.879637268041513],[121.92234062961467,30.879637534626163],[121.92234064906162,30.879397674496882]]]}},{"type":"Feature","properties":{"building_id":"lingang:seed:48","source":"synthetic_seed_not_real_footprint","source_id":"48","building":"commercial","name":"","levels":null,"footprint_m2":null,"centroid_lng":121.942974,"centroid_lat":30.915941,"geometry_source":"synthetic_seed"},"geometry":{"type":"Polygon","coordinates":[[[121.93874522343675,30.91815594314051],[121.93898481689094,30.9181555109486],[121.93898479735837,30.918395369141074],[121.93874520390526,30.918395801333016],[121.93874522343675,30.91815594314051]]]}},{"type":"Feature","properties":{"building_id":"lingang:seed:49","source":"synthetic_seed_not_real_footprint","source_id":"49","building":"office","name":"","levels":null,"footprint_m2":null,"centroid_lng":121.923454,"centroid_lat":30.882712,"geometry_source":"synthetic_seed"},"geometry":{"type":"Polygon","coordinates":[[[121.91925169185643,30.884973626292986],[121.91949151578687,30.884973392610256],[121.9194914963425,30.8852132523862],[121.91925167241256,30.885213486068974],[121.91925169185643,30.884973626292986]]]}},{"type":"Feature","properties":{"building_id":"lingang:seed:50","source":"synthetic_seed_not_real_footprint","source_id":"50","building":"residential","name":"","levels":null,"footprint_m2":null,"centroid_lng":121.888873,"centroid_lat":30.938203,"geometry_source":"synthetic_seed"},"geometry":{"type":"Polygon","coordinates":[[[121.88466049270893,30.940438762696523],[121.88490073756111,30.940438892448153],[121.8849007180732,30.940678750108322],[121.88466047322046,30.94067862035675],[121.88466049270893,30.940438762696523]]]}},{"type":"Feature","properties":{"building_id":"lingang:seed:51","source":"synthetic_seed_not_real_footprint","source_id":"51","building":"yes","name":"","levels":null,"footprint_m2":null,"centroid_lng":121.905622,"centroid_lat":30.881403,"geometry_source":"synthetic_seed"},"geometry":{"type":"Polygon","coordinates":[[[121.90142448819354,30.883675512069427],[121.90166453486125,30.883675470638273],[121.90166451543452,30.8839153304985],[121.90142446876675,30.883915371929703],[121.90142448819354,30.883675512069427]]]}},{"type":"Feature","properties":{"building_id":"lingang:seed:52","source":"synthetic_seed_not_real_footprint","source_id":"52","building":"apartments","name":"","levels":null,"footprint_m2":null,"centroid_lng":121.889697,"centroid_lat":30.95488,"geometry_source":"synthetic_seed"},"geometry":{"type":"Polygon","coordinates":[[[121.88548396771975,30.957106301823504],[121.88572420341218,30.95710642362019],[121.88572418391435,30.9573462811496],[121.88548394822138,30.957346159352976],[121.88548396771975,30.957106301823504]]]}},{"type":"Feature","properties":{"building_id":"lingang:seed:53","source":"synthetic_seed_not_real_footprint","source_id":"53","building":"commercial","name":"","levels":null,"footprint_m2":null,"centroid_lng":121.897598,"centroid_lat":30.898781,"geometry_source":"synthetic_seed"},"geometry":{"type":"Polygon","coordinates":[[[121.89339583209251,30.90104325575992],[121.89363597625167,30.90104329854318],[121.8936359568069,30.9012831574463],[121.89339581264743,30.901283114663094],[121.89339583209251,30.90104325575992]]]}},{"type":"Feature","properties":{"building_id":"lingang:seed:54","source":"synthetic_seed_not_real_footprint","source_id":"54","building":"office","name":"","levels":null,"footprint_m2":null,"centroid_lng":121.907771,"centroid_lat":30.889911,"geometry_source":"synthetic_seed"},"geometry":{"type":"Polygon","coordinates":[[[121.90357311148517,30.89217807294343],[121.90381313151818,30.89217800850712],[121.90381311208564,30.892417867866595],[121.90357309205265,30.892417932302955],[121.90357311148517,30.89217807294343]]]}},{"type":"Feature","properties":{"building_id":"lingang:seed:55","source":"synthetic_seed_not_real_footprint","source_id":"55","building":"residential","name":"","levels":null,"footprint_m2":null,"centroid_lng":121.915107,"centroid_lat":30.881446,"geometry_source":"synthetic_seed"},"geometry":{"type":"Polygon","coordinates":[[[121.91090905478549,30.883714885659533],[121.91114898305798,30.883714742003466],[121.91114896362747,30.8839546018591],[121.91090903535522,30.883954745515215],[121.91090905478549,30.883714885659533]]]}},{"type":"Feature","properties":{"building_id":"lingang:seed:56","source":"synthetic_seed_not_real_footprint","source_id":"56","building":"yes","name":"","levels":null,"footprint_m2":null,"centroid_lng":121.910098,"centroid_lat":30.913223,"geometry_source":"synthetic_seed"},"geometry":{"type":"Polygon","coordinates":[[[121.90589829135098,30.915475623584705],[121.9061382823706,30.915475534099276],[121.90613826292122,30.915715392392375],[121.90589827190166,30.915715481877854],[121.90589829135098,30.915475623584705]]]}},{"type":"Feature","properties":{"building_id":"lingang:seed:57","source":"synthetic_seed_not_real_footprint","source_id":"57","building":"apartments","name":"","levels":null,"footprint_m2":null,"centroid_lng":121.915207,"centroid_lat":30.897312,"geometry_source":"synthetic_seed"},"geometry":{"type":"Polygon","coordinates":[[[121.91100774039292,30.899571531476088],[121.91124766739459,30.899571386733943],[121.91124764795285,30.899811245704857],[121.9110077209514,30.899811390447052],[121.91100774039292,30.899571531476088]]]}},{"type":"Feature","properties":{"building_id":"lingang:seed:58","source":"synthetic_seed_not_real_footprint","source_id":"58","building":"commercial","name":"","levels":null,"footprint_m2":null,"centroid_lng":121.906599,"centroid_lat":30.897686,"geometry_source":"synthetic_seed"},"geometry":{"type":"Polygon","coordinates":[[[121.90240034122498,30.899948787981128],[121.90264037580631,30.89994873610587],[121.90264035636831,30.900188595060154],[121.90240032178694,30.90018864693546],[121.90240034122498,30.899948787981128]]]}},{"type":"Feature","properties":{"building_id":"lingang:seed:59","source":"synthetic_seed_not_real_footprint","source_id":"59","building":"office","name":"","levels":null,"footprint_m2":null,"centroid_lng":121.860407,"centroid_lat":30.869999,"geometry_source":"synthetic_seed"},"geometry":{"type":"Polygon","coordinates":[[[121.85615421722264,30.872244949254558],[121.8563947220163,30.872245304543384],[121.85639470247004,30.872485165177096],[121.85615419767518,30.872484809888338],[121.85615421722264,30.872244949254558]]]}},{"type":"Feature","properties":{"building_id":"lingang:seed:60","source":"synthetic_seed_not_real_footprint","source_id":"60","building":"residential","name":"","levels":null,"footprint_m2":null,"centroid_lng":121.888328,"centroid_lat":30.930358,"geometry_source":"synthetic_seed"},"geometry":{"type":"Polygon","coordinates":[[[121.88411556378075,30.932598109956636],[121.88435581465733,30.93259824493508],[121.88435579517368,30.932838102738796],[121.88411554429653,30.93283796776041],[121.88411556378075,30.932598109956636]]]}},{"type":"Feature","properties":{"building_id":"lingang:seed:61","source":"synthetic_seed_not_real_footprint","source_id":"61","building":"yes","name":"","levels":null,"footprint_m2":null,"centroid_lng":121.933301,"centroid_lat":30.875826,"geometry_source":"synthetic_seed"},"geometry":{"type":"Polygon","coordinates":[[[121.92908961076287,30.878079972289378],[121.92932931493979,30.87807963533767],[121.92932929547345,30.878319495552535],[121.92908959129734,30.878319832504282],[121.92908961076287,30.878079972289378]]]}},{"type":"Feature","properties":{"building_id":"lingang:seed:62","source":"synthetic_seed_not_real_footprint","source_id":"62","building":"apartments","name":"","levels":null,"footprint_m2":null,"centroid_lng":121.95036,"centroid_lat":30.911365,"geometry_source":"synthetic_seed"},"geometry":{"type":"Polygon","coordinates":[[[121.94611791369334,30.913568336704184],[121.94635742968312,30.913567837844717],[121.9463574101176,30.91380769619939],[121.94611789412909,30.913808195058895],[121.94611791369334,30.913568336704184]]]}},{"type":"Feature","properties":{"building_id":"lingang:seed:63","source":"synthetic_seed_not_real_footprint","source_id":"63","building":"commercial","name":"","levels":null,"footprint_m2":null,"centroid_lng":121.932187,"centroid_lat":30.923358,"geometry_source":"synthetic_seed"},"geometry":{"type":"Polygon","coordinates":[[[121.92797308879102,30.925585567413673],[121.92821280607023,30.925585241878057],[121.92821278657408,30.925825099844914],[121.92797306929563,30.92582542538057],[121.92797308879102,30.925585567413673]]]}},{"type":"Feature","properties":{"building_id":"lingang:seed:64","source":"synthetic_seed_not_real_footprint","source_id":"64","building":"office","name":"","levels":null,"footprint_m2":null,"centroid_lng":121.858513,"centroid_lat":30.886798,"geometry_source":"synthetic_seed"},"geometry":{"type":"Polygon","coordinates":[[[121.85425480838136,30.889031302977816],[121.85449532572379,30.88903166911255],[121.85449530615605,30.889271528660213],[121.8542547888124,30.88927116252554],[121.85425480838136,30.889031302977816]]]}},{"type":"Feature","properties":{"building_id":"lingang:seed:65","source":"synthetic_seed_not_real_footprint","source_id":"65","building":"residential","name":"","levels":null,"footprint_m2":null,"centroid_lng":121.938776,"centroid_lat":30.921172,"geometry_source":"synthetic_seed"},"geometry":{"type":"Polygon","coordinates":[[[121.9345534783669,30.923391039417663],[121.93479311869467,30.923390647597063],[121.93479309917626,30.923630505625045],[121.93455345884944,30.923630897445683],[121.9345534783669,30.923391039417663]]]}},{"type":"Feature","properties":{"building_id":"lingang:seed:66","source":"synthetic_seed_not_real_footprint","source_id":"66","building":"yes","name":"","levels":null,"footprint_m2":null,"centroid_lng":121.931038,"centroid_lat":30.909857,"geometry_source":"synthetic_seed"},"geometry":{"type":"Polygon","coordinates":[[[121.92682649872987,30.912094069443345],[121.92706622981983,30.912093755773718],[121.92706621033678,30.912333614188988],[121.92682647924755,30.912333927858654],[121.92682649872987,30.912094069443345]]]}},{"type":"Feature","properties":{"building_id":"lingang:seed:67","source":"synthetic_seed_not_real_footprint","source_id":"67","building":"apartments","name":"","levels":null,"footprint_m2":null,"centroid_lng":121.906671,"centroid_lat":30.905324,"geometry_source":"synthetic_seed"},"geometry":{"type":"Polygon","coordinates":[[[121.90247173321366,30.907582278391004],[121.90271176690335,30.90758222574354],[121.90271174745997,30.90782208434806],[121.90247171377027,30.907822136995573],[121.90247173321366,30.907582278391004]]]}},{"type":"Feature","properties":{"building_id":"lingang:seed:68","source":"synthetic_seed_not_real_footprint","source_id":"68","building":"commercial","name":"","levels":null,"footprint_m2":null,"centroid_lng":121.889541,"centroid_lat":30.941964,"geometry_source":"synthetic_seed"},"geometry":{"type":"Polygon","coordinates":[[[121.88532886218464,30.944197887134234],[121.88556909959523,30.944198010443916],[121.88556908010617,30.944437868053736],[121.88532884269503,30.944437744744107],[121.88532886218464,30.944197887134234]]]}},{"type":"Feature","properties":{"building_id":"lingang:seed:69","source":"synthetic_seed_not_real_footprint","source_id":"69","building":"office","name":"","levels":null,"footprint_m2":null,"centroid_lng":121.95723,"centroid_lat":30.911586,"geometry_source":"synthetic_seed"},"geometry":{"type":"Polygon","coordinates":[[[121.95297312245071,30.91377413684799],[121.9532125731805,30.913773581893963],[121.95321255357605,30.914013440239426],[121.95297310284771,30.914013995193486],[121.95297312245071,30.91377413684799]]]}},{"type":"Feature","properties":{"building_id":"lingang:seed:70","source":"synthetic_seed_not_real_footprint","source_id":"70","building":"residential","name":"","levels":null,"footprint_m2":null,"centroid_lng":121.926331,"centroid_lat":30.920911,"geometry_source":"synthetic_seed"},"geometry":{"type":"Polygon","coordinates":[[[121.92212328783822,30.923147184488784],[121.92236307615154,30.923146920162697],[121.92236305667373,30.923386778200435],[121.922123268361,30.923387042526564],[121.92212328783822,30.923147184488784]]]}},{"type":"Feature","properties":{"building_id":"lingang:seed:71","source":"synthetic_seed_not_real_footprint","source_id":"71","building":"yes","name":"","levels":null,"footprint_m2":null,"centroid_lng":121.923337,"centroid_lat":30.949036,"geometry_source":"synthetic_seed"},"geometry":{"type":"Polygon","coordinates":[[[121.91912939694016,30.9512585958626],[121.9193692221849,30.95125836341983],[121.9193692026941,30.95149822096092],[121.91912937744985,30.951498453403737],[121.91912939694016,30.9512585958626]]]}},{"type":"Feature","properties":{"building_id":"lingang:seed:72","source":"synthetic_seed_not_real_footprint","source_id":"72","building":"apartments","name":"","levels":null,"footprint_m2":null,"centroid_lng":121.930844,"centroid_lat":30.86443,"geometry_source":"synthetic_seed"},"geometry":{"type":"Polygon","coordinates":[[[121.92663639843249,30.86669389814924],[121.92687613199303,30.866693586498094],[121.92687611254253,30.86693344752623],[121.92663637898272,30.866933759177417],[121.92663639843249,30.86669389814924]]]}},{"type":"Feature","properties":{"building_id":"lingang:seed:73","source":"synthetic_seed_not_real_footprint","source_id":"73","building":"commercial","name":"","levels":null,"footprint_m2":null,"centroid_lng":121.932308,"centroid_lat":30.947192,"geometry_source":"synthetic_seed"},"geometry":{"type":"Polygon","coordinates":[[[121.928092009691,30.94940527411625],[121.92833172544903,30.949404947332017],[121.92833170593566,30.94964480488352],[121.9280919901784,30.949645131667793],[121.928092009691,30.94940527411625]]]}},{"type":"Feature","properties":{"building_id":"lingang:seed:74","source":"synthetic_seed_not_real_footprint","source_id":"74","building":"office","name":"","levels":null,"footprint_m2":null,"centroid_lng":121.93876,"centroid_lat":30.918039,"geometry_source":"synthetic_seed"},"geometry":{"type":"Polygon","coordinates":[[[121.93453775701549,30.92025991811449],[121.93477739753799,30.920259526451265],[121.93477737802186,30.920499384575393],[121.93453773750032,30.920499776238653],[121.93453775701549,30.92025991811449]]]}},{"type":"Feature","properties":{"building_id":"lingang:seed:75","source":"synthetic_seed_not_real_footprint","source_id":"75","building":"residential","name":"","levels":null,"footprint_m2":null,"centroid_lng":121.929364,"centroid_lat":30.906458,"geometry_source":"synthetic_seed"},"geometry":{"type":"Polygon","coordinates":[[[121.92515456970591,30.908699192075183],[121.9253943210194,30.90869889582676],[121.92539430154369,30.908938754379186],[121.92515455023089,30.908939050627648],[121.92515456970591,30.908699192075183]]]}},{"type":"Feature","properties":{"building_id":"lingang:seed:76","source":"synthetic_seed_not_real_footprint","source_id":"76","building":"yes","name":"","levels":null,"footprint_m2":null,"centroid_lng":121.943021,"centroid_lat":30.931423,"geometry_source":"synthetic_seed"},"geometry":{"type":"Polygon","coordinates":[[[121.93879088372368,30.933628696434017],[121.93903047659418,30.933628263797193],[121.93903045705046,30.933868121567812],[121.93879086418103,30.933868554204672],[121.93879088372368,30.933628696434017]]]}},{"type":"Feature","properties":{"building_id":"lingang:seed:77","source":"synthetic_seed_not_real_footprint","source_id":"77","building":"apartments","name":"","levels":null,"footprint_m2":null,"centroid_lng":121.917761,"centroid_lat":30.875014,"geometry_source":"synthetic_seed"},"geometry":{"type":"Polygon","coordinates":[[[121.91356261489386,30.877284902701355],[121.9138025098848,30.877284730316685],[121.91380249045565,30.877524590588774],[121.91356259546504,30.87752476297349],[121.91356261489386,30.877284902701355]]]}},{"type":"Feature","properties":{"building_id":"lingang:seed:78","source":"synthetic_seed_not_real_footprint","source_id":"78","building":"commercial","name":"","levels":null,"footprint_m2":null,"centroid_lng":121.949935,"centroid_lat":30.929429,"geometry_source":"synthetic_seed"},"geometry":{"type":"Polygon","coordinates":[[[121.94569229204494,30.93162253200437],[121.94593181220513,30.931622036810467],[121.94593179262904,30.931861894623065],[121.94569227247011,30.931862389817],[121.94569229204494,30.93162253200437]]]}},{"type":"Feature","properties":{"building_id":"lingang:seed:79","source":"synthetic_seed_not_real_footprint","source_id":"79","building":"office","name":"","levels":null,"footprint_m2":null,"centroid_lng":121.93202,"centroid_lat":30.939817,"geometry_source":"synthetic_seed"},"geometry":{"type":"Polygon","coordinates":[[[121.92780494649136,30.942035039216663],[121.92804466571398,30.942034715397646],[121.92804464620674,30.9422745730261],[121.92780492698489,30.942274896845156],[121.92780494649136,30.942035039216663]]]}},{"type":"Feature","properties":{"building_id":"lingang:seed:80","source":"synthetic_seed_not_real_footprint","source_id":"80","building":"residential","name":"","levels":null,"footprint_m2":null,"centroid_lng":121.9485,"centroid_lat":30.948936,"geometry_source":"synthetic_seed"},"geometry":{"type":"Polygon","coordinates":[[[121.94425851934147,30.9511208791006],[121.94449805398925,30.951120396448236],[121.94449803440678,30.951360253985865],[121.94425849976022,30.951360736638264],[121.94425851934147,30.9511208791006]]]}}]}