{"type":"FeatureCollection","features":[{"type":"Feature","properties":{"building_id":"zhangjiang:seed:0","source":"synthetic_seed_not_real_footprint","source_id":"0","building":"residential","name":"","levels":null,"footprint_m2":null,"centroid_lng":121.586491,"centroid_lat":31.235823,"geometry_source":"synthetic_seed"},"geometry":{"type":"Polygon","coordinates":[[[121.58216359865501,31.23790029700128],[121.58240378620997,31.237900416288053],[121.58240376635759,31.238140306535065],[121.58216357880222,31.238140187248344],[121.58216359865501,31.23790029700128]]]}},{"type":"Feature","properties":{"building_id":"zhangjiang:seed:1","source":"synthetic_seed_not_real_footprint","source_id":"1","building":"yes","name":"","levels":null,"footprint_m2":null,"centroid_lng":121.561572,"centroid_lat":31.213692,"geometry_source":"synthetic_seed"},"geometry":{"type":"Polygon","coordinates":[[[121.55721103849282,31.215753306675353],[121.55745152496331,31.215753687999463],[121.55745150504463,31.21599357350087],[121.55721101857297,31.21599319217683],[121.55721103849282,31.215753306675353]]]}},{"type":"Feature","properties":{"building_id":"zhangjiang:seed:2","source":"synthetic_seed_not_real_footprint","source_id":"2","building":"apartments","name":"","levels":null,"footprint_m2":null,"centroid_lng":121.572248,"centroid_lat":31.234902,"geometry_source":"synthetic_seed"},"geometry":{"type":"Polygon","coordinates":[[[121.5679042501046,31.23696800318234],[121.56814461231197,31.2369682754394],[121.56814459242277,31.237208165486003],[121.56790423021455,31.237207893229],[121.5679042501046,31.23696800318234]]]}},{"type":"Feature","properties":{"building_id":"zhangjiang:seed:3","source":"synthetic_seed_not_real_footprint","source_id":"3","building":"commercial","name":"","levels":null,"footprint_m2":null,"centroid_lng":121.5826,"centroid_lat":31.207253,"geometry_source":"synthetic_seed"},"geometry":{"type":"Polygon","coordinates":[[[121.5782715068007,31.209341435368028],[121.57851174240353,31.20934159678859],[121.57851172256426,31.209581480961642],[121.5782714869609,31.209581319541137],[121.5782715068007,31.209341435368028]]]}},{"type":"Feature","properties":{"building_id":"zhangjiang:seed:4","source":"synthetic_seed_not_real_footprint","source_id":"4","building":"office","name":"","levels":null,"footprint_m2":null,"centroid_lng":121.571006,"centroid_lat":31.223477,"geometry_source":"synthetic_seed"},"geometry":{"type":"Polygon","coordinates":[[[121.56666127655858,31.225546848903964],[121.56690165360605,31.225547134206646],[121.56690163372066,31.22578702176798],[121.56666125667229,31.225786736465363],[121.56666127655858,31.225546848903964]]]}},{"type":"Feature","properties":{"building_id":"zhangjiang:seed:5","source":"synthetic_seed_not_real_footprint","source_id":"5","building":"residential","name":"","levels":null,"footprint_m2":null,"centroid_lng":121.573926,"centroid_lat":31.207275,"geometry_source":"synthetic_seed"},"geometry":{"type":"Polygon","coordinates":[[[121.56958700974452,31.20935585601402],[121.56982735162059,31.20935611054423],[121.56982733175725,31.20959599472391],[121.56958698988038,31.209595740193762],[121.56958700974452,31.20935585601402]]]}},{"type":"Feature","properties":{"building_id":"zhangjiang:seed:6","source":"synthetic_seed_not_real_footprint","source_id":"6","building":"yes","name":"","levels":null,"footprint_m2":null,"centroid_lng":121.571398,"centroid_lat":31.22196,"geometry_source":"synthetic_seed"},"geometry":{"type":"Polygon","coordinates":[[[121.56705401660396,31.224031025490348],[121.56729438895873,31.224031306685067],[121.56729436907588,31.22427119392249],[121.56705399672023,31.224270912727835],[121.56705401660396,31.224031025490348]]]}},{"type":"Feature","properties":{"building_id":"zhangjiang:seed:7","source":"synthetic_seed_not_real_footprint","source_id":"7","building":"apartments","name":"","levels":null,"footprint_m2":null,"centroid_lng":121.64748,"centroid_lat":31.188946,"geometry_source":"synthetic_seed"},"geometry":{"type":"Polygon","coordinates":[[[121.64311924367206,31.19100154809418],[121.64335883672086,31.19100114460437],[121.64335881679168,31.191241025156955],[121.64311922374397,31.191241428646805],[121.64311924367206,31.19100154809418]]]}},{"type":"Feature","properties":{"building_id":"zhangjiang:seed:8","source":"synthetic_seed_not_real_footprint","source_id":"8","building":"commercial","name":"","levels":null,"footprint_m2":null,"centroid_lng":121.622224,"centroid_lat":31.185334,"geometry_source":"synthetic_seed"},"geometry":{"type":"Polygon","coordinates":[[[121.61789738084676,31.18742583730646],[121.618137161893,31.187425600157642],[121.61813714205866,31.18766548002995],[121.61789736101301,31.187665717178813],[121.61789738084676,31.18742583730646]]]}},{"type":"Feature","properties":{"building_id":"zhangjiang:seed:9","source":"synthetic_seed_not_real_footprint","source_id":"9","building":"office","name":"","levels":null,"footprint_m2":null,"centroid_lng":121.603139,"centroid_lat":31.192701,"geometry_source":"synthetic_seed"},"geometry":{"type":"Polygon","coordinates":[[[121.59882120833456,31.19480102320266],[121.59906119414316,31.194800965807758],[121.5990611743326,31.195040847089437],[121.5988211885241,31.19504090448439],[121.59882120833456,31.19480102320266]]]}},{"type":"Feature","properties":{"building_id":"zhangjiang:seed:10","source":"synthetic_seed_not_real_footprint","source_id":"10","building":"residential","name":"","levels":null,"footprint_m2":null,"centroid_lng":121.559074,"centroid_lat":31.191975,"geometry_source":"synthetic_seed"},"geometry":{"type":"Polygon","coordinates":[[[121.55470961969324,31.19404276068469],[121.55495013371781,31.19404316630981],[121.55495011380249,31.19428304746202],[121.55470959977669,31.194282641836963],[121.55470961969324,31.19404276068469]]]}},{"type":"Feature","properties":{"building_id":"zhangjiang:seed:11","source":"synthetic_seed_not_real_footprint","source_id":"11","building":"yes","name":"","levels":null,"footprint_m2":null,"centroid_lng":121.645999,"centroid_lat":31.189641,"geometry_source":"synthetic_seed"},"geometry":{"type":"Polygon","coordinates":[[[121.64164066972073,31.19169866758623],[121.64188027049588,31.19169827101205],[121.64188025057284,31.191938151697613],[121.64164064979876,31.191938548271832],[121.64164066972073,31.19169866758623]]]}},{"type":"Feature","properties":{"building_id":"zhangjiang:seed:12","source":"synthetic_seed_not_real_footprint","source_id":"12","building":"apartments","name":"","levels":null,"footprint_m2":null,"centroid_lng":121.604109,"centroid_lat":31.174528,"geometry_source":"synthetic_seed"},"geometry":{"type":"Polygon","coordinates":[[[121.59979263337557,31.17663689744743],[121.60003260790235,31.17663683015832],[121.60003258810448,31.17687670804177],[121.59979261357782,31.176876775330935],[121.59979263337557,31.17663689744743]]]}},{"type":"Feature","properties":{"building_id":"zhangjiang:seed:13","source":"synthetic_seed_not_real_footprint","source_id":"13","building":"commercial","name":"","levels":null,"footprint_m2":null,"centroid_lng":121.579637,"centroid_lat":31.21039,"geometry_source":"synthetic_seed"},"geometry":{"type":"Polygon","coordinates":[[[121.57530509473168,31.212474718745188],[121.5755453668744,31.21247491216605],[121.57554534702572,31.212714796980894],[121.57530507488237,31.21271460356009],[121.57530509473168,31.212474718745188]]]}},{"type":"Feature","properties":{"building_id":"zhangjiang:seed:14","source":"synthetic_seed_not_real_footprint","source_id":"14","building":"office","name":"","levels":null,"footprint_m2":null,"centroid_lng":121.562123,"centroid_lat":31.203668,"geometry_source":"synthetic_seed"},"geometry":{"type":"Polygon","coordinates":[[[121.55776398306188,31.20573500485983],[121.55800446329766,31.20573538075566],[121.55800444338894,31.20597526420945],[121.55776396315201,31.205974888313683],[121.55776398306188,31.20573500485983]]]}},{"type":"Feature","properties":{"building_id":"zhangjiang:seed:15","source":"synthetic_seed_not_real_footprint","source_id":"15","building":"residential","name":"","levels":null,"footprint_m2":null,"centroid_lng":121.627806,"centroid_lat":31.20143,"geometry_source":"synthetic_seed"},"geometry":{"type":"Polygon","coordinates":[[[121.62347237950941,31.20350785894005],[121.62371210946786,31.203507576845347],[121.62371208960599,31.203747459836666],[121.62347235964828,31.203747741931412],[121.62347237950941,31.20350785894005]]]}},{"type":"Feature","properties":{"building_id":"zhangjiang:seed:16","source":"synthetic_seed_not_real_footprint","source_id":"16","building":"yes","name":"","levels":null,"footprint_m2":null,"centroid_lng":121.580982,"centroid_lat":31.1856,"geometry_source":"synthetic_seed"},"geometry":{"type":"Polygon","coordinates":[[[121.57665363072483,31.187697925289154],[121.57689388624235,31.187698104205534],[121.57689386641502,31.187937984136614],[121.57665361089693,31.187937805220294],[121.57665363072483,31.187697925289154]]]}},{"type":"Feature","properties":{"building_id":"zhangjiang:seed:17","source":"synthetic_seed_not_real_footprint","source_id":"17","building":"apartments","name":"","levels":null,"footprint_m2":null,"centroid_lng":121.592804,"centroid_lat":31.181277,"geometry_source":"synthetic_seed"},"geometry":{"type":"Polygon","coordinates":[[[121.58848505228514,31.183382823695943],[121.58872516203436,31.183382874913434],[121.58872514222969,31.183622754033873],[121.58848503248025,31.18362270281644],[121.58848505228514,31.183382823695943]]]}},{"type":"Feature","properties":{"building_id":"zhangjiang:seed:18","source":"synthetic_seed_not_real_footprint","source_id":"18","building":"commercial","name":"","levels":null,"footprint_m2":null,"centroid_lng":121.599027,"centroid_lat":31.174141,"geometry_source":"synthetic_seed"},"geometry":{"type":"Polygon","coordinates":[[[121.59471054383557,31.176250939941397],[121.594950578248,31.17625092514888],[121.59495055845153,31.176490802963606],[121.59471052403909,31.17649081775617],[121.59471054383557,31.176250939941397]]]}},{"type":"Feature","properties":{"building_id":"zhangjiang:seed:19","source":"synthetic_seed_not_real_footprint","source_id":"19","building":"office","name":"","levels":null,"footprint_m2":null,"centroid_lng":121.62115,"centroid_lat":31.215362,"geometry_source":"synthetic_seed"},"geometry":{"type":"Polygon","coordinates":[[[121.61682184983741,31.217440207369307],[121.61706164116177,31.21743997932054],[121.61706162130834,31.217679865156],[121.61682182998456,31.21768009320481],[121.61682184983741,31.217440207369307]]]}},{"type":"Feature","properties":{"building_id":"zhangjiang:seed:20","source":"synthetic_seed_not_real_footprint","source_id":"20","building":"residential","name":"","levels":null,"footprint_m2":null,"centroid_lng":121.636712,"centroid_lat":31.224864,"geometry_source":"synthetic_seed"},"geometry":{"type":"Polygon","coordinates":[[[121.63236509366718,31.22691903081881],[121.63260475266442,31.226918686124915],[121.63260473275443,31.22715857396993],[121.63236507375811,31.227158918663868],[121.63236509366718,31.22691903081881]]]}},{"type":"Feature","properties":{"building_id":"zhangjiang:seed:21","source":"synthetic_seed_not_real_footprint","source_id":"21","building":"yes","name":"","levels":null,"footprint_m2":null,"centroid_lng":121.632827,"centroid_lat":31.236466,"geometry_source":"synthetic_seed"},"geometry":{"type":"Polygon","coordinates":[[[121.62848440414932,31.23852102950277],[121.62872409233549,31.23852071065376],[121.62872407243144,31.238760601034258],[121.62848438424611,31.238760919883312],[121.62848440414932,31.23852102950277]]]}},{"type":"Feature","properties":{"building_id":"zhangjiang:seed:22","source":"synthetic_seed_not_real_footprint","source_id":"22","building":"apartments","name":"","levels":null,"footprint_m2":null,"centroid_lng":121.637986,"centroid_lat":31.22019,"geometry_source":"synthetic_seed"},"geometry":{"type":"Polygon","coordinates":[[[121.63363765181353,31.222245378261825],[121.63387730184222,31.22224502560819],[121.63387728193068,31.2224849124559],[121.63363763190293,31.222485265109576],[121.63363765181353,31.222245378261825]]]}},{"type":"Feature","properties":{"building_id":"zhangjiang:seed:23","source":"synthetic_seed_not_real_footprint","source_id":"23","building":"commercial","name":"","levels":null,"footprint_m2":null,"centroid_lng":121.636831,"centroid_lat":31.197324,"geometry_source":"synthetic_seed"},"geometry":{"type":"Polygon","coordinates":[[[121.63248620825918,31.199392062728215],[121.63272586651026,31.199391717284275],[121.63272584661985,31.199631599461178],[121.6324861883697,31.199631944905157],[121.63248620825918,31.199392062728215]]]}},{"type":"Feature","properties":{"building_id":"zhangjiang:seed:24","source":"synthetic_seed_not_real_footprint","source_id":"24","building":"office","name":"","levels":null,"footprint_m2":null,"centroid_lng":121.631007,"centroid_lat":31.175088,"geometry_source":"synthetic_seed"},"geometry":{"type":"Polygon","coordinates":[[[121.62667178913293,31.177175072453533],[121.62691149213727,31.1771747665121],[121.62691147228414,31.177414644491733],[121.62667176928059,31.177414950433207],[121.62667178913293,31.177175072453533]]]}},{"type":"Feature","properties":{"building_id":"zhangjiang:seed:25","source":"synthetic_seed_not_real_footprint","source_id":"25","building":"residential","name":"","levels":null,"footprint_m2":null,"centroid_lng":121.580913,"centroid_lat":31.1852,"geometry_source":"synthetic_seed"},"geometry":{"type":"Polygon","coordinates":[[[121.5765845897625,31.187298073586184],[121.57682484612947,31.187298253247803],[121.57682482630227,31.18753813310359],[121.57658456993472,31.187537953442035],[121.5765845897625,31.187298073586184]]]}},{"type":"Feature","properties":{"building_id":"zhangjiang:seed:26","source":"synthetic_seed_not_real_footprint","source_id":"26","building":"yes","name":"","levels":null,"footprint_m2":null,"centroid_lng":121.590118,"centroid_lat":31.243612,"geometry_source":"synthetic_seed"},"geometry":{"type":"Polygon","coordinates":[[[121.58579247272093,31.2456872883036],[121.58603261551471,31.245687368388733],[121.586032595662,31.245927260380295],[121.58579245286793,31.245927180295215],[121.58579247272093,31.2456872883036]]]}},{"type":"Feature","properties":{"building_id":"zhangjiang:seed:27","source":"synthetic_seed_not_real_footprint","source_id":"27","building":"apartments","name":"","levels":null,"footprint_m2":null,"centroid_lng":121.63737,"centroid_lat":31.204052,"geometry_source":"synthetic_seed"},"geometry":{"type":"Polygon","coordinates":[[[121.63302388066396,31.20611599983857],[121.63326353506292,31.206115651004183],[121.63326351516554,31.206355534519012],[121.63302386076751,31.206355883353435],[121.63302388066396,31.20611599983857]]]}},{"type":"Feature","properties":{"building_id":"zhangjiang:seed:28","source":"synthetic_seed_not_real_footprint","source_id":"28","building":"commercial","name":"","levels":null,"footprint_m2":null,"centroid_lng":121.598743,"centroid_lat":31.253705,"geometry_source":"synthetic_seed"},"geometry":{"type":"Polygon","coordinates":[[[121.59441992700667,31.25577705813827],[121.5946599648268,31.255777046305123],[121.59465994497266,31.256016940610586],[121.59441990715248,31.256016952443787],[121.59441992700667,31.25577705813827]]]}},{"type":"Feature","properties":{"building_id":"zhangjiang:seed:29","source":"synthetic_seed_not_real_footprint","source_id":"29","building":"office","name":"","levels":null,"footprint_m2":null,"centroid_lng":121.626526,"centroid_lat":31.22146,"geometry_source":"synthetic_seed"},"geometry":{"type":"Polygon","coordinates":[[[121.62219212626684,31.223529735069103],[121.62243186744642,31.22352946291073],[121.6224318475739,31.223769350029897],[121.62219210639503,31.22376962218831],[121.62219212626684,31.223529735069103]]]}},{"type":"Feature","properties":{"building_id":"zhangjiang:seed:30","source":"synthetic_seed_not_real_footprint","source_id":"30","building":"residential","name":"","levels":null,"footprint_m2":null,"centroid_lng":121.576966,"centroid_lat":31.200523,"geometry_source":"synthetic_seed"},"geometry":{"type":"Polygon","coordinates":[[[121.57263168334897,31.20261016963975],[121.57287198822361,31.202610391764676],[121.5728719683747,31.202850274586094],[121.57263166349937,31.20285005246123],[121.57263168334897,31.20261016963975]]]}},{"type":"Feature","properties":{"building_id":"zhangjiang:seed:31","source":"synthetic_seed_not_real_footprint","source_id":"31","building":"yes","name":"","levels":null,"footprint_m2":null,"centroid_lng":121.60745,"centroid_lat":31.234793,"geometry_source":"synthetic_seed"},"geometry":{"type":"Polygon","coordinates":[[[121.60312805293279,31.236871544585373],[121.60336798911085,31.236871443701823],[121.60336796926687,31.23711133371625],[121.60312803308904,31.237111434599854],[121.60312805293279,31.236871544585373]]]}},{"type":"Feature","properties":{"building_id":"zhangjiang:seed:32","source":"synthetic_seed_not_real_footprint","source_id":"32","building":"apartments","name":"","levels":null,"footprint_m2":null,"centroid_lng":121.646241,"centroid_lat":31.192248,"geometry_source":"synthetic_seed"},"geometry":{"type":"Polygon","coordinates":[[[121.64188205074016,31.194303974115467],[121.64212165021017,31.194303576384556],[121.64212163028415,31.19454345757104],[121.64188203081522,31.194543855301987],[121.64188205074016,31.194303974115467]]]}},{"type":"Feature","properties":{"building_id":"zhangjiang:seed:33","source":"synthetic_seed_not_real_footprint","source_id":"33","building":"commercial","name":"","levels":null,"footprint_m2":null,"centroid_lng":121.65291,"centroid_lat":31.215003,"geometry_source":"synthetic_seed"},"geometry":{"type":"Polygon","coordinates":[[[121.64853759295958,31.217036478251842],[121.64877716142279,31.21703605274389],[121.64877714144919,31.217275938499284],[121.64853757298714,31.217276364007272],[121.64853759295958,31.217036478251842]]]}},{"type":"Feature","properties":{"building_id":"zhangjiang:seed:34","source":"synthetic_seed_not_real_footprint","source_id":"34","building":"office","name":"","levels":null,"footprint_m2":null,"centroid_lng":121.64632,"centroid_lat":31.242096,"geometry_source":"synthetic_seed"},"geometry":{"type":"Polygon","coordinates":[[[121.64195677679659,31.244128217949818],[121.64219637562391,31.24412781983594],[121.64219635566114,31.24436771147439],[121.6419567568349,31.244368109588304],[121.64195677679659,31.244128217949818]]]}},{"type":"Feature","properties":{"building_id":"zhangjiang:seed:35","source":"synthetic_seed_not_real_footprint","source_id":"35","building":"residential","name":"","levels":null,"footprint_m2":null,"centroid_lng":121.613675,"centroid_lat":31.178541,"geometry_source":"synthetic_seed"},"geometry":{"type":"Polygon","coordinates":[[[121.60935518226613,31.18064333319606],[121.60959504998766,31.180643172205663],[121.60959503017634,31.180883050817354],[121.6093551624552,31.180883211807796],[121.60935518226613,31.18064333319606]]]}},{"type":"Feature","properties":{"building_id":"zhangjiang:seed:36","source":"synthetic_seed_not_real_footprint","source_id":"36","building":"yes","name":"","levels":null,"footprint_m2":null,"centroid_lng":121.599039,"centroid_lat":31.241723,"geometry_source":"synthetic_seed"},"geometry":{"type":"Polygon","coordinates":[[[121.59471696423424,31.24380039016715],[121.59495699851063,31.24380037523449],[121.59495697866521,31.244040266797395],[121.59471694438881,31.244040281730108],[121.59471696423424,31.24380039016715]]]}},{"type":"Feature","properties":{"building_id":"zhangjiang:seed:37","source":"synthetic_seed_not_real_footprint","source_id":"37","building":"apartments","name":"","levels":null,"footprint_m2":null,"centroid_lng":121.598085,"centroid_lat":31.22746,"geometry_source":"synthetic_seed"},"geometry":{"type":"Polygon","coordinates":[[[121.59376397865616,31.22954396477187],[121.59400402436287,31.229543959855633],[121.59400400452766,31.229783848267704],[121.59376395882089,31.229783853183996],[121.59376397865616,31.22954396477187]]]}},{"type":"Feature","properties":{"building_id":"zhangjiang:seed:38","source":"synthetic_seed_not_real_footprint","source_id":"38","building":"commercial","name":"","levels":null,"footprint_m2":null,"centroid_lng":121.617175,"centroid_lat":31.241697,"geometry_source":"synthetic_seed"},"geometry":{"type":"Polygon","coordinates":[[[121.61284778178667,31.24376646028753],[121.6130876127617,31.243766267123167],[121.61308759289811,31.24400615867659],[121.61284776192358,31.244006351841],[121.61284778178667,31.24376646028753]]]}},{"type":"Feature","properties":{"building_id":"zhangjiang:seed:39","source":"synthetic_seed_not_real_footprint","source_id":"39","building":"office","name":"","levels":null,"footprint_m2":null,"centroid_lng":121.563026,"centroid_lat":31.234294,"geometry_source":"synthetic_seed"},"geometry":{"type":"Polygon","coordinates":[[[121.55866623435259,31.23634793708012],[121.55890670453212,31.236348304013497],[121.55890668460535,31.23658819392822],[121.55866621442468,31.236587826994906],[121.55866623435259,31.23634793708012]]]}},{"type":"Feature","properties":{"building_id":"zhangjiang:seed:40","source":"synthetic_seed_not_real_footprint","source_id":"40","building":"residential","name":"","levels":null,"footprint_m2":null,"centroid_lng":121.627133,"centroid_lat":31.222223,"geometry_source":"synthetic_seed"},"geometry":{"type":"Polygon","coordinates":[[[121.62279840435849,31.224291684410623],[121.62303814015259,31.224291407510474],[121.62303812027768,31.224531294791973],[121.6227983844843,31.22453157169216],[121.62279840435849,31.224291684410623]]]}},{"type":"Feature","properties":{"building_id":"zhangjiang:seed:41","source":"synthetic_seed_not_real_footprint","source_id":"41","building":"yes","name":"","levels":null,"footprint_m2":null,"centroid_lng":121.638001,"centroid_lat":31.187768,"geometry_source":"synthetic_seed"},"geometry":{"type":"Polygon","coordinates":[[[121.63365531814783,31.18983909369433],[121.63389496820005,31.189838740953757],[121.63389494831205,31.190078621283604],[121.63365529826076,31.190078974024217],[121.63365531814783,31.18983909369433]]]}},{"type":"Feature","properties":{"building_id":"zhangjiang:seed:42","source":"synthetic_seed_not_real_footprint","source_id":"42","building":"apartments","name":"","levels":null,"footprint_m2":null,"centroid_lng":121.648512,"centroid_lat":31.226585,"geometry_source":"synthetic_seed"},"geometry":{"type":"Polygon","coordinates":[[[121.64414635707382,31.228620657148163],[121.64438594482915,31.228620249062114],[121.64438592486778,31.22886013727593],[121.64414633711355,31.228860545362018],[121.64414635707382,31.228620657148163]]]}},{"type":"Feature","properties":{"building_id":"zhangjiang:seed:43","source":"synthetic_seed_not_real_footprint","source_id":"43","building":"commercial","name":"","levels":null,"footprint_m2":null,"centroid_lng":121.570691,"centroid_lat":31.249272,"geometry_source":"synthetic_seed"},"geometry":{"type":"Polygon","coordinates":[[[121.5663436388482,31.251329687025148],[121.5665840197525,31.25132997561678],[121.56658399984714,31.25156986890436],[121.56634361894196,31.25156958031279],[121.5663436388482,31.251329687025148]]]}},{"type":"Feature","properties":{"building_id":"zhangjiang:seed:44","source":"synthetic_seed_not_real_footprint","source_id":"44","building":"office","name":"","levels":null,"footprint_m2":null,"centroid_lng":121.624938,"centroid_lat":31.198762,"geometry_source":"synthetic_seed"},"geometry":{"type":"Polygon","coordinates":[[[121.62060766248928,31.200844388822],[121.62084741808862,31.200844129307207],[121.6208473982372,31.201084011769506],[121.62060764263853,31.201084271284337],[121.62060766248928,31.200844388822]]]}},{"type":"Feature","properties":{"building_id":"zhangjiang:seed:45","source":"synthetic_seed_not_real_footprint","source_id":"45","building":"residential","name":"","levels":null,"footprint_m2":null,"centroid_lng":121.618614,"centroid_lat":31.21108,"geometry_source":"synthetic_seed"},"geometry":{"type":"Polygon","coordinates":[[[121.61428826459623,31.21316253548412],[121.6145280810171,31.213162329485144],[121.61452806117268,31.21340221443352],[121.61428824475233,31.21340242043254],[121.61428826459623,31.21316253548412]]]}},{"type":"Feature","properties":{"building_id":"zhangjiang:seed:46","source":"synthetic_seed_not_real_footprint","source_id":"46","building":"yes","name":"","levels":null,"footprint_m2":null,"centroid_lng":121.55968,"centroid_lat":31.222742,"geometry_source":"synthetic_seed"},"geometry":{"type":"Polygon","coordinates":[[[121.55531435829215,31.22479593568791],[121.55555486582233,31.22479633546142],[121.55555484588766,31.225036222868738],[121.55531433835625,31.225035823095297],[121.55531435829215,31.22479593568791]]]}},{"type":"Feature","properties":{"building_id":"zhangjiang:seed:47","source":"synthetic_seed_not_real_footprint","source_id":"47","building":"apartments","name":"","levels":null,"footprint_m2":null,"centroid_lng":121.659424,"centroid_lat":31.203212,"geometry_source":"synthetic_seed"},"geometry":{"type":"Polygon","coordinates":[[[121.65504056658173,31.205239332900835],[121.65528011401153,31.205238888100066],[121.65528009401456,31.205478771442777],[121.65504054658595,31.205479216243578],[121.65504056658173,31.205239332900835]]]}},{"type":"Feature","properties":{"building_id":"zhangjiang:seed:48","source":"synthetic_seed_not_real_footprint","source_id":"48","building":"commercial","name":"","levels":null,"footprint_m2":null,"centroid_lng":121.645212,"centroid_lat":31.227082,"geometry_source":"synthetic_seed"},"geometry":{"type":"Polygon","coordinates":[[[121.64085186021762,31.229122925968248],[121.64109146511622,31.22912253321924],[121.64109144516935,31.229362421540955],[121.64085184027182,31.22936281429],[121.64085186021762,31.229122925968248]]]}},{"type":"Feature","properties":{"building_id":"zhangjiang:seed:49","source":"synthetic_seed_not_real_footprint","source_id":"49","building":"office","name":"","levels":null,"footprint_m2":null,"centroid_lng":121.632831,"centroid_lat":31.241464,"geometry_source":"synthetic_seed"},"geometry":{"type":"Polygon","coordinates":[[[121.62848798444715,31.243516752429816],[121.62872767258418,31.243516433552166],[121.62872765267646,31.24375632505036],[121.62848796454028,31.243756643928048],[121.62848798444715,31.243516752429816]]]}},{"type":"Feature","properties":{"building_id":"zhangjiang:seed:50","source":"synthetic_seed_not_real_footprint","source_id":"50","building":"residential","name":"","levels":null,"footprint_m2":null,"centroid_lng":121.565378,"centroid_lat":31.237825,"geometry_source":"synthetic_seed"},"geometry":{"type":"Polygon","coordinates":[[[121.56102243100241,31.2398808151681],[121.56126287427686,31.23988115848307],[121.56126285435819,31.24012104918049],[121.56102241108269,31.240120705865586],[121.56102243100241,31.2398808151681]]]}},{"type":"Feature","properties":{"building_id":"zhangjiang:seed:51","source":"synthetic_seed_not_real_footprint","source_id":"51","building":"yes","name":"","levels":null,"footprint_m2":null,"centroid_lng":121.58413,"centroid_lat":31.244302,"geometry_source":"synthetic_seed"},"geometry":{"type":"Polygon","coordinates":[[[121.57979989372113,31.246374140041176],[121.58004011049192,31.24637428489197],[121.58004009062898,31.246614177041323],[121.57979987385771,31.246614032190585],[121.57979989372113,31.246374140041176]]]}},{"type":"Feature","properties":{"building_id":"zhangjiang:seed:52","source":"synthetic_seed_not_real_footprint","source_id":"52","building":"apartments","name":"","levels":null,"footprint_m2":null,"centroid_lng":121.613131,"centroid_lat":31.208123,"geometry_source":"synthetic_seed"},"geometry":{"type":"Polygon","coordinates":[[[121.60880902952957,31.2102110718095],[121.60904890302625,31.210210915924787],[121.60904888319439,31.21045080026837],[121.60880900969809,31.210450956153128],[121.60880902952957,31.2102110718095]]]}},{"type":"Feature","properties":{"building_id":"zhangjiang:seed:53","source":"synthetic_seed_not_real_footprint","source_id":"53","building":"commercial","name":"","levels":null,"footprint_m2":null,"centroid_lng":121.610744,"centroid_lat":31.213675,"geometry_source":"synthetic_seed"},"geometry":{"type":"Polygon","coordinates":[[[121.60642268750904,31.215761835169985],[121.60666258694005,31.215761702046514],[121.60666256710766,31.216001587532816],[121.60642266767695,31.216001720656337],[121.60642268750904,31.215761835169985]]]}},{"type":"Feature","properties":{"building_id":"zhangjiang:seed:54","source":"synthetic_seed_not_real_footprint","source_id":"54","building":"office","name":"","levels":null,"footprint_m2":null,"centroid_lng":121.637127,"centroid_lat":31.190122,"geometry_source":"synthetic_seed"},"geometry":{"type":"Polygon","coordinates":[[[121.6327823833254,31.192193193899097],[121.6330220394966,31.192192846589275],[121.6330220196103,31.192432727368317],[121.63278236344003,31.192433074678174],[121.6327823833254,31.192193193899097]]]}},{"type":"Feature","properties":{"building_id":"zhangjiang:seed:55","source":"synthetic_seed_not_real_footprint","source_id":"55","building":"residential","name":"","levels":null,"footprint_m2":null,"centroid_lng":121.592387,"centroid_lat":31.187543,"geometry_source":"synthetic_seed"},"geometry":{"type":"Polygon","coordinates":[[[121.58806733746961,31.189645587318946],[121.58830745232947,31.189645643007285],[121.58830743251988,31.1898855233031],[121.5880673176598,31.189885467614815],[121.58806733746961,31.189645587318946]]]}},{"type":"Feature","properties":{"building_id":"zhangjiang:seed:56","source":"synthetic_seed_not_real_footprint","source_id":"56","building":"yes","name":"","levels":null,"footprint_m2":null,"centroid_lng":121.591344,"centroid_lat":31.187598,"geometry_source":"synthetic_seed"},"geometry":{"type":"Polygon","coordinates":[[[121.58702379958804,31.1897002879275],[121.5872639272394,31.189700354821692],[121.58726390742873,31.189940235128184],[121.5870237797771,31.189940168234042],[121.58702379958804,31.1897002879275]]]}},{"type":"Feature","properties":{"building_id":"zhangjiang:seed:57","source":"synthetic_seed_not_real_footprint","source_id":"57","building":"apartments","name":"","levels":null,"footprint_m2":null,"centroid_lng":121.612891,"centroid_lat":31.235763,"geometry_source":"synthetic_seed"},"geometry":{"type":"Polygon","coordinates":[[[121.60856686842689,31.237838236866512],[121.60880674446051,31.237838083240685],[121.60880672460898,31.238077973468773],[121.60856684857575,31.238078127094642],[121.60856686842689,31.237838236866512]]]}},{"type":"Feature","properties":{"building_id":"zhangjiang:seed:58","source":"synthetic_seed_not_real_footprint","source_id":"58","building":"commercial","name":"","levels":null,"footprint_m2":null,"centroid_lng":121.60839,"centroid_lat":31.239578,"geometry_source":"synthetic_seed"},"geometry":{"type":"Polygon","coordinates":[[[121.60406739179128,31.241653953101633],[121.60430731736241,31.241653842922894],[121.60430729751403,31.24189373400198],[121.60406737194313,31.24189384418077],[121.60406739179128,31.241653953101633]]]}},{"type":"Feature","properties":{"building_id":"zhangjiang:seed:59","source":"synthetic_seed_not_real_footprint","source_id":"59","building":"office","name":"","levels":null,"footprint_m2":null,"centroid_lng":121.601976,"centroid_lat":31.18084,"geometry_source":"synthetic_seed"},"geometry":{"type":"Polygon","coordinates":[[[121.59765921611553,31.18294619057409],[121.59789921555782,31.182946145129094],[121.59789919575624,31.18318602416662],[121.59765919631403,31.183186069611665],[121.59765921611553,31.18294619057409]]]}},{"type":"Feature","properties":{"building_id":"zhangjiang:seed:60","source":"synthetic_seed_not_real_footprint","source_id":"60","building":"residential","name":"","levels":null,"footprint_m2":null,"centroid_lng":121.572731,"centroid_lat":31.248452,"geometry_source":"synthetic_seed"},"geometry":{"type":"Polygon","coordinates":[[[121.56838685297058,31.25051242484988],[121.56862720941464,31.250512692011544],[121.56862718951727,31.250752585110344],[121.56838683307237,31.25075231794874],[121.56838685297058,31.25051242484988]]]}},{"type":"Feature","properties":{"building_id":"zhangjiang:seed:61","source":"synthetic_seed_not_real_footprint","source_id":"61","building":"yes","name":"","levels":null,"footprint_m2":null,"centroid_lng":121.621997,"centroid_lat":31.238894,"geometry_source":"synthetic_seed"},"geometry":{"type":"Polygon","coordinates":[[[121.61766615540836,31.24096044361978],[121.61790593849308,31.240960208374034],[121.61790591862045,31.24120009929747],[121.61766613553633,31.24120033454326],[121.61766615540836,31.24096044361978]]]}},{"type":"Feature","properties":{"building_id":"zhangjiang:seed:62","source":"synthetic_seed_not_real_footprint","source_id":"62","building":"apartments","name":"","levels":null,"footprint_m2":null,"centroid_lng":121.643973,"centroid_lat":31.225966,"geometry_source":"synthetic_seed"},"geometry":{"type":"Polygon","coordinates":[[[121.63961497118785,31.22800945437533],[121.63985458309769,31.228009067874964],[121.63985456315707,31.22824895595595],[121.63961495124828,31.22824934245635],[121.63961497118785,31.22800945437533]]]}},{"type":"Feature","properties":{"building_id":"zhangjiang:seed:63","source":"synthetic_seed_not_real_footprint","source_id":"63","building":"commercial","name":"","levels":null,"footprint_m2":null,"centroid_lng":121.646745,"centroid_lat":31.184311,"geometry_source":"synthetic_seed"},"geometry":{"type":"Polygon","coordinates":[[[121.64238586706995,31.18637009268234],[121.64262546391973,31.186369692577316],[121.64262544399725,31.18660957225338],[121.64238584714853,31.186609972358443],[121.64238586706995,31.18637009268234]]]}},{"type":"Feature","properties":{"building_id":"zhangjiang:seed:64","source":"synthetic_seed_not_real_footprint","source_id":"64","building":"office","name":"","levels":null,"footprint_m2":null,"centroid_lng":121.644282,"centroid_lat":31.206879,"geometry_source":"synthetic_seed"},"geometry":{"type":"Polygon","coordinates":[[[121.63992505658922,31.208931019822575],[121.6401646668061,31.208930631742106],[121.64016464687806,31.209170515827203],[121.63992503666223,31.209170903907708],[121.63992505658922,31.208931019822575]]]}},{"type":"Feature","properties":{"building_id":"zhangjiang:seed:65","source":"synthetic_seed_not_real_footprint","source_id":"65","building":"residential","name":"","levels":null,"footprint_m2":null,"centroid_lng":121.631676,"centroid_lat":31.23908,"geometry_source":"synthetic_seed"},"geometry":{"type":"Polygon","coordinates":[[[121.62733465631399,31.241135344195328],[121.62757435366507,31.241135033445218],[121.62757433376314,31.24137492440857],[121.62733463641288,31.24137523515872],[121.62733465631399,31.241135344195328]]]}},{"type":"Feature","properties":{"building_id":"zhangjiang:seed:66","source":"synthetic_seed_not_real_footprint","source_id":"66","building":"yes","name":"","levels":null,"footprint_m2":null,"centroid_lng":121.582056,"centroid_lat":31.249323,"geometry_source":"synthetic_seed"},"geometry":{"type":"Polygon","coordinates":[[[121.57772348116342,31.25139153514542],[121.57796372358041,31.251391702439772],[121.57796370370936,31.251631595736214],[121.57772346129182,31.251631428441918],[121.57772348116342,31.25139153514542]]]}},{"type":"Feature","properties":{"building_id":"zhangjiang:seed:67","source":"synthetic_seed_not_real_footprint","source_id":"67","building":"apartments","name":"","levels":null,"footprint_m2":null,"centroid_lng":121.644103,"centroid_lat":31.232188,"geometry_source":"synthetic_seed"},"geometry":{"type":"Polygon","coordinates":[[[121.63974424413982,31.2342283604866],[121.63998385527309,31.234227973317246],[121.63998383532736,31.23446786275145],[121.63974422419514,31.234468249920845],[121.63974424413982,31.2342283604866]]]}},{"type":"Feature","properties":{"building_id":"zhangjiang:seed:68","source":"synthetic_seed_not_real_footprint","source_id":"68","building":"commercial","name":"","levels":null,"footprint_m2":null,"centroid_lng":121.624498,"centroid_lat":31.196443,"geometry_source":"synthetic_seed"},"geometry":{"type":"Polygon","coordinates":[[[121.62016829661648,31.19852699769918],[121.62040805626752,31.198526741746058],[121.62040803641902,31.19876662375213],[121.62016827676865,31.198766879705296],[121.62016829661648,31.19852699769918]]]}},{"type":"Feature","properties":{"building_id":"zhangjiang:seed:69","source":"synthetic_seed_not_real_footprint","source_id":"69","building":"office","name":"","levels":null,"footprint_m2":null,"centroid_lng":121.643538,"centroid_lat":31.225485,"geometry_source":"synthetic_seed"},"geometry":{"type":"Polygon","coordinates":[[[121.63918071100181,31.227529376197424],[121.63942032544622,31.227528991953484],[121.63942030550785,31.22776887993094],[121.63918069106447,31.22776926417492],[121.63918071100181,31.227529376197424]]]}},{"type":"Feature","properties":{"building_id":"zhangjiang:seed:70","source":"synthetic_seed_not_real_footprint","source_id":"70","building":"residential","name":"","levels":null,"footprint_m2":null,"centroid_lng":121.61298,"centroid_lat":31.207896,"geometry_source":"synthetic_seed"},"geometry":{"type":"Polygon","coordinates":[[[121.60865812655628,31.209984278163525],[121.60889800167578,31.209984123702768],[121.60889798184434,31.210224008000115],[121.6086581067252,31.210224162460918],[121.60865812655628,31.209984278163525]]]}},{"type":"Feature","properties":{"building_id":"zhangjiang:seed:71","source":"synthetic_seed_not_real_footprint","source_id":"71","building":"yes","name":"","levels":null,"footprint_m2":null,"centroid_lng":121.596609,"centroid_lat":31.235709,"geometry_source":"synthetic_seed"},"geometry":{"type":"Polygon","coordinates":[[[121.5922869521672,31.237789134043812],[121.59252701566112,31.237789144701722],[121.59252699581947,31.238029034921176],[121.59228693232545,31.238029024263316],[121.5922869521672,31.237789134043812]]]}},{"type":"Feature","properties":{"building_id":"zhangjiang:seed:72","source":"synthetic_seed_not_real_footprint","source_id":"72","building":"apartments","name":"","levels":null,"footprint_m2":null,"centroid_lng":121.568978,"centroid_lat":31.248249,"geometry_source":"synthetic_seed"},"geometry":{"type":"Polygon","coordinates":[[[121.5646279221405,31.25030501004433],[121.56486832338355,31.2503053164651],[121.56486830347235,31.250545209518336],[121.56462790222835,31.25054490309763],[121.5646279221405,31.25030501004433]]]}},{"type":"Feature","properties":{"building_id":"zhangjiang:seed:73","source":"synthetic_seed_not_real_footprint","source_id":"73","building":"commercial","name":"","levels":null,"footprint_m2":null,"centroid_lng":121.584872,"centroid_lat":31.195027,"geometry_source":"synthetic_seed"},"geometry":{"type":"Polygon","coordinates":[[[121.58054662852142,31.197122823493984],[121.5807868360196,31.197122960321465],[121.58078681619386,31.197362842058887],[121.58054660869523,31.197362705231463],[121.58054662852142,31.197122823493984]]]}},{"type":"Feature","properties":{"building_id":"zhangjiang:seed:74","source":"synthetic_seed_not_real_footprint","source_id":"74","building":"office","name":"","levels":null,"footprint_m2":null,"centroid_lng":121.598531,"centroid_lat":31.222757,"geometry_source":"synthetic_seed"},"geometry":{"type":"Polygon","coordinates":[[[121.59421044994849,31.224843150717362],[121.59445049030353,31.224843141115297],[121.5944504704718,31.22508302851622],[121.59421043011673,31.225083038118335],[121.59421044994849,31.224843150717362]]]}},{"type":"Feature","properties":{"building_id":"zhangjiang:seed:75","source":"synthetic_seed_not_real_footprint","source_id":"75","building":"residential","name":"","levels":null,"footprint_m2":null,"centroid_lng":121.565129,"centroid_lat":31.245683,"geometry_source":"synthetic_seed"},"geometry":{"type":"Polygon","coordinates":[[[121.56077231584649,31.24773490566627],[121.56101276202854,31.24773525149874],[121.56101274210303,31.247975143966794],[121.56077229591992,31.247974798134393],[121.56077231584649,31.24773490566627]]]}},{"type":"Feature","properties":{"building_id":"zhangjiang:seed:76","source":"synthetic_seed_not_real_footprint","source_id":"76","building":"yes","name":"","levels":null,"footprint_m2":null,"centroid_lng":121.576531,"centroid_lat":31.242861,"geometry_source":"synthetic_seed"},"geometry":{"type":"Polygon","coordinates":[[[121.5721926187254,31.244927861924623],[121.57243292904137,31.24492808869516],[121.57243290916041,31.245167980520094],[121.57219259884371,31.245167753749616],[121.5721926187254,31.244927861924623]]]}},{"type":"Feature","properties":{"building_id":"zhangjiang:seed:77","source":"synthetic_seed_not_real_footprint","source_id":"77","building":"apartments","name":"","levels":null,"footprint_m2":null,"centroid_lng":121.600065,"centroid_lat":31.204205,"geometry_source":"synthetic_seed"},"geometry":{"type":"Polygon","coordinates":[[[121.59574619089504,31.20629990207074],[121.59598621293522,31.20629987642843],[121.59598619311703,31.206539759980952],[121.59574617107685,31.20653978562331],[121.59574619089504,31.20629990207074]]]}},{"type":"Feature","properties":{"building_id":"zhangjiang:seed:78","source":"synthetic_seed_not_real_footprint","source_id":"78","building":"commercial","name":"","levels":null,"footprint_m2":null,"centroid_lng":121.631003,"centroid_lat":31.253141,"geometry_source":"synthetic_seed"},"geometry":{"type":"Polygon","coordinates":[[[121.62666132848663,31.255190909952535],[121.62690103125999,31.255190604026808],[121.62690101135011,31.25543049819515],[121.62666130857757,31.255430804120916],[121.62666132848663,31.255190909952535]]]}},{"type":"Feature","properties":{"building_id":"zhangjiang:seed:79","source":"synthetic_seed_not_real_footprint","source_id":"79","building":"office","name":"","levels":null,"footprint_m2":null,"centroid_lng":121.621256,"centroid_lat":31.173634,"geometry_source":"synthetic_seed"},"geometry":{"type":"Polygon","coordinates":[[[121.6169312071067,31.17573268338316],[121.6171709975043,31.175732454436993],[121.61717097768086,31.175972332156064],[121.61693118728385,31.175972561102277],[121.6169312071067,31.17573268338316]]]}},{"type":"Feature","properties":{"building_id":"zhangjiang:seed:80","source":"synthetic_seed_not_real_footprint","source_id":"80","building":"residential","name":"","levels":null,"footprint_m2":null,"centroid_lng":121.643904,"centroid_lat":31.220679,"geometry_source":"synthetic_seed"},"geometry":{"type":"Polygon","coordinates":[[[121.63954652170773,31.222725043797293],[121.63978613403967,31.222724657653497],[121.63978611410322,31.22296454460393],[121.63954650177232,31.22296493074776],[121.63954652170773,31.222725043797293]]]}}]}