{"type":"FeatureCollection","features":[{"type":"Feature","properties":{"building_id":"zhangjiang:seed:0","source":"synthetic_seed_not_real_footprint","source_id":"0","building":"residential","name":"","levels":null,"footprint_m2":null,"centroid_lng":121.586491,"centroid_lat":31.235823,"geometry_source":"synthetic_seed"},"geometry":{"type":"Polygon","coordinates":[[[121.586371,31.235703],[121.58661099999999,31.235703],[121.58661099999999,31.235943],[121.586371,31.235943],[121.586371,31.235703]]]}},{"type":"Feature","properties":{"building_id":"zhangjiang:seed:1","source":"synthetic_seed_not_real_footprint","source_id":"1","building":"yes","name":"","levels":null,"footprint_m2":null,"centroid_lng":121.561572,"centroid_lat":31.213692,"geometry_source":"synthetic_seed"},"geometry":{"type":"Polygon","coordinates":[[[121.561452,31.213572000000003],[121.561692,31.213572000000003],[121.561692,31.213812],[121.561452,31.213812],[121.561452,31.213572000000003]]]}},{"type":"Feature","properties":{"building_id":"zhangjiang:seed:2","source":"synthetic_seed_not_real_footprint","source_id":"2","building":"apartments","name":"","levels":null,"footprint_m2":null,"centroid_lng":121.572248,"centroid_lat":31.234902,"geometry_source":"synthetic_seed"},"geometry":{"type":"Polygon","coordinates":[[[121.572128,31.234782000000003],[121.572368,31.234782000000003],[121.572368,31.235022],[121.572128,31.235022],[121.572128,31.234782000000003]]]}},{"type":"Feature","properties":{"building_id":"zhangjiang:seed:3","source":"synthetic_seed_not_real_footprint","source_id":"3","building":"commercial","name":"","levels":null,"footprint_m2":null,"centroid_lng":121.5826,"centroid_lat":31.207253,"geometry_source":"synthetic_seed"},"geometry":{"type":"Polygon","coordinates":[[[121.58248,31.207133000000002],[121.58272,31.207133000000002],[121.58272,31.207373],[121.58248,31.207373],[121.58248,31.207133000000002]]]}},{"type":"Feature","properties":{"building_id":"zhangjiang:seed:4","source":"synthetic_seed_not_real_footprint","source_id":"4","building":"office","name":"","levels":null,"footprint_m2":null,"centroid_lng":121.571006,"centroid_lat":31.223477,"geometry_source":"synthetic_seed"},"geometry":{"type":"Polygon","coordinates":[[[121.570886,31.223357],[121.57112599999999,31.223357],[121.57112599999999,31.223596999999998],[121.570886,31.223596999999998],[121.570886,31.223357]]]}},{"type":"Feature","properties":{"building_id":"zhangjiang:seed:5","source":"synthetic_seed_not_real_footprint","source_id":"5","building":"residential","name":"","levels":null,"footprint_m2":null,"centroid_lng":121.573926,"centroid_lat":31.207275,"geometry_source":"synthetic_seed"},"geometry":{"type":"Polygon","coordinates":[[[121.573806,31.207155],[121.574046,31.207155],[121.574046,31.207394999999998],[121.573806,31.207394999999998],[121.573806,31.207155]]]}},{"type":"Feature","properties":{"building_id":"zhangjiang:seed:6","source":"synthetic_seed_not_real_footprint","source_id":"6","building":"yes","name":"","levels":null,"footprint_m2":null,"centroid_lng":121.571398,"centroid_lat":31.22196,"geometry_source":"synthetic_seed"},"geometry":{"type":"Polygon","coordinates":[[[121.571278,31.22184],[121.571518,31.22184],[121.571518,31.22208],[121.571278,31.22208],[121.571278,31.22184]]]}},{"type":"Feature","properties":{"building_id":"zhangjiang:seed:7","source":"synthetic_seed_not_real_footprint","source_id":"7","building":"apartments","name":"","levels":null,"footprint_m2":null,"centroid_lng":121.64748,"centroid_lat":31.188946,"geometry_source":"synthetic_seed"},"geometry":{"type":"Polygon","coordinates":[[[121.64736,31.188826000000002],[121.6476,31.188826000000002],[121.6476,31.189066],[121.64736,31.189066],[121.64736,31.188826000000002]]]}},{"type":"Feature","properties":{"building_id":"zhangjiang:seed:8","source":"synthetic_seed_not_real_footprint","source_id":"8","building":"commercial","name":"","levels":null,"footprint_m2":null,"centroid_lng":121.622224,"centroid_lat":31.185334,"geometry_source":"synthetic_seed"},"geometry":{"type":"Polygon","coordinates":[[[121.62210400000001,31.185214000000002],[121.622344,31.185214000000002],[121.622344,31.185454],[121.62210400000001,31.185454],[121.62210400000001,31.185214000000002]]]}},{"type":"Feature","properties":{"building_id":"zhangjiang:seed:9","source":"synthetic_seed_not_real_footprint","source_id":"9","building":"office","name":"","levels":null,"footprint_m2":null,"centroid_lng":121.603139,"centroid_lat":31.192701,"geometry_source":"synthetic_seed"},"geometry":{"type":"Polygon","coordinates":[[[121.603019,31.192581],[121.603259,31.192581],[121.603259,31.192821],[121.603019,31.192821],[121.603019,31.192581]]]}},{"type":"Feature","properties":{"building_id":"zhangjiang:seed:10","source":"synthetic_seed_not_real_footprint","source_id":"10","building":"residential","name":"","levels":null,"footprint_m2":null,"centroid_lng":121.559074,"centroid_lat":31.191975,"geometry_source":"synthetic_seed"},"geometry":{"type":"Polygon","coordinates":[[[121.558954,31.191855],[121.55919399999999,31.191855],[121.55919399999999,31.192095],[121.558954,31.192095],[121.558954,31.191855]]]}},{"type":"Feature","properties":{"building_id":"zhangjiang:seed:11","source":"synthetic_seed_not_real_footprint","source_id":"11","building":"yes","name":"","levels":null,"footprint_m2":null,"centroid_lng":121.645999,"centroid_lat":31.189641,"geometry_source":"synthetic_seed"},"geometry":{"type":"Polygon","coordinates":[[[121.64587900000001,31.189521000000003],[121.646119,31.189521000000003],[121.646119,31.189761],[121.64587900000001,31.189761],[121.64587900000001,31.189521000000003]]]}},{"type":"Feature","properties":{"building_id":"zhangjiang:seed:12","source":"synthetic_seed_not_real_footprint","source_id":"12","building":"apartments","name":"","levels":null,"footprint_m2":null,"centroid_lng":121.604109,"centroid_lat":31.174528,"geometry_source":"synthetic_seed"},"geometry":{"type":"Polygon","coordinates":[[[121.603989,31.174408],[121.60422899999999,31.174408],[121.60422899999999,31.174647999999998],[121.603989,31.174647999999998],[121.603989,31.174408]]]}},{"type":"Feature","properties":{"building_id":"zhangjiang:seed:13","source":"synthetic_seed_not_real_footprint","source_id":"13","building":"commercial","name":"","levels":null,"footprint_m2":null,"centroid_lng":121.579637,"centroid_lat":31.21039,"geometry_source":"synthetic_seed"},"geometry":{"type":"Polygon","coordinates":[[[121.57951700000001,31.21027],[121.579757,31.21027],[121.579757,31.21051],[121.57951700000001,31.21051],[121.57951700000001,31.21027]]]}},{"type":"Feature","properties":{"building_id":"zhangjiang:seed:14","source":"synthetic_seed_not_real_footprint","source_id":"14","building":"office","name":"","levels":null,"footprint_m2":null,"centroid_lng":121.562123,"centroid_lat":31.203668,"geometry_source":"synthetic_seed"},"geometry":{"type":"Polygon","coordinates":[[[121.562003,31.203548],[121.562243,31.203548],[121.562243,31.203788],[121.562003,31.203788],[121.562003,31.203548]]]}},{"type":"Feature","properties":{"building_id":"zhangjiang:seed:15","source":"synthetic_seed_not_real_footprint","source_id":"15","building":"residential","name":"","levels":null,"footprint_m2":null,"centroid_lng":121.627806,"centroid_lat":31.20143,"geometry_source":"synthetic_seed"},"geometry":{"type":"Polygon","coordinates":[[[121.62768600000001,31.20131],[121.627926,31.20131],[121.627926,31.201549999999997],[121.62768600000001,31.201549999999997],[121.62768600000001,31.20131]]]}},{"type":"Feature","properties":{"building_id":"zhangjiang:seed:16","source":"synthetic_seed_not_real_footprint","source_id":"16","building":"yes","name":"","levels":null,"footprint_m2":null,"centroid_lng":121.580982,"centroid_lat":31.1856,"geometry_source":"synthetic_seed"},"geometry":{"type":"Polygon","coordinates":[[[121.58086200000001,31.185480000000002],[121.581102,31.185480000000002],[121.581102,31.18572],[121.58086200000001,31.18572],[121.58086200000001,31.185480000000002]]]}},{"type":"Feature","properties":{"building_id":"zhangjiang:seed:17","source":"synthetic_seed_not_real_footprint","source_id":"17","building":"apartments","name":"","levels":null,"footprint_m2":null,"centroid_lng":121.592804,"centroid_lat":31.181277,"geometry_source":"synthetic_seed"},"geometry":{"type":"Polygon","coordinates":[[[121.592684,31.181157000000002],[121.592924,31.181157000000002],[121.592924,31.181397],[121.592684,31.181397],[121.592684,31.181157000000002]]]}},{"type":"Feature","properties":{"building_id":"zhangjiang:seed:18","source":"synthetic_seed_not_real_footprint","source_id":"18","building":"commercial","name":"","levels":null,"footprint_m2":null,"centroid_lng":121.599027,"centroid_lat":31.174141,"geometry_source":"synthetic_seed"},"geometry":{"type":"Polygon","coordinates":[[[121.59890700000001,31.174021],[121.599147,31.174021],[121.599147,31.174260999999998],[121.59890700000001,31.174260999999998],[121.59890700000001,31.174021]]]}},{"type":"Feature","properties":{"building_id":"zhangjiang:seed:19","source":"synthetic_seed_not_real_footprint","source_id":"19","building":"office","name":"","levels":null,"footprint_m2":null,"centroid_lng":121.62115,"centroid_lat":31.215362,"geometry_source":"synthetic_seed"},"geometry":{"type":"Polygon","coordinates":[[[121.62103,31.215242],[121.62127,31.215242],[121.62127,31.215481999999998],[121.62103,31.215481999999998],[121.62103,31.215242]]]}},{"type":"Feature","properties":{"building_id":"zhangjiang:seed:20","source":"synthetic_seed_not_real_footprint","source_id":"20","building":"residential","name":"","levels":null,"footprint_m2":null,"centroid_lng":121.636712,"centroid_lat":31.224864,"geometry_source":"synthetic_seed"},"geometry":{"type":"Polygon","coordinates":[[[121.63659200000001,31.224744],[121.636832,31.224744],[121.636832,31.224984],[121.63659200000001,31.224984],[121.63659200000001,31.224744]]]}},{"type":"Feature","properties":{"building_id":"zhangjiang:seed:21","source":"synthetic_seed_not_real_footprint","source_id":"21","building":"yes","name":"","levels":null,"footprint_m2":null,"centroid_lng":121.632827,"centroid_lat":31.236466,"geometry_source":"synthetic_seed"},"geometry":{"type":"Polygon","coordinates":[[[121.63270700000001,31.236346],[121.632947,31.236346],[121.632947,31.236586],[121.63270700000001,31.236586],[121.63270700000001,31.236346]]]}},{"type":"Feature","properties":{"building_id":"zhangjiang:seed:22","source":"synthetic_seed_not_real_footprint","source_id":"22","building":"apartments","name":"","levels":null,"footprint_m2":null,"centroid_lng":121.637986,"centroid_lat":31.22019,"geometry_source":"synthetic_seed"},"geometry":{"type":"Polygon","coordinates":[[[121.637866,31.22007],[121.638106,31.22007],[121.638106,31.220309999999998],[121.637866,31.220309999999998],[121.637866,31.22007]]]}},{"type":"Feature","properties":{"building_id":"zhangjiang:seed:23","source":"synthetic_seed_not_real_footprint","source_id":"23","building":"commercial","name":"","levels":null,"footprint_m2":null,"centroid_lng":121.636831,"centroid_lat":31.197324,"geometry_source":"synthetic_seed"},"geometry":{"type":"Polygon","coordinates":[[[121.636711,31.197204],[121.636951,31.197204],[121.636951,31.197443999999997],[121.636711,31.197443999999997],[121.636711,31.197204]]]}},{"type":"Feature","properties":{"building_id":"zhangjiang:seed:24","source":"synthetic_seed_not_real_footprint","source_id":"24","building":"office","name":"","levels":null,"footprint_m2":null,"centroid_lng":121.631007,"centroid_lat":31.175088,"geometry_source":"synthetic_seed"},"geometry":{"type":"Polygon","coordinates":[[[121.630887,31.174968],[121.63112699999999,31.174968],[121.63112699999999,31.175207999999998],[121.630887,31.175207999999998],[121.630887,31.174968]]]}},{"type":"Feature","properties":{"building_id":"zhangjiang:seed:25","source":"synthetic_seed_not_real_footprint","source_id":"25","building":"residential","name":"","levels":null,"footprint_m2":null,"centroid_lng":121.580913,"centroid_lat":31.1852,"geometry_source":"synthetic_seed"},"geometry":{"type":"Polygon","coordinates":[[[121.580793,31.18508],[121.58103299999999,31.18508],[121.58103299999999,31.185319999999997],[121.580793,31.185319999999997],[121.580793,31.18508]]]}},{"type":"Feature","properties":{"building_id":"zhangjiang:seed:26","source":"synthetic_seed_not_real_footprint","source_id":"26","building":"yes","name":"","levels":null,"footprint_m2":null,"centroid_lng":121.590118,"centroid_lat":31.243612,"geometry_source":"synthetic_seed"},"geometry":{"type":"Polygon","coordinates":[[[121.58999800000001,31.243492],[121.590238,31.243492],[121.590238,31.243731999999998],[121.58999800000001,31.243731999999998],[121.58999800000001,31.243492]]]}},{"type":"Feature","properties":{"building_id":"zhangjiang:seed:27","source":"synthetic_seed_not_real_footprint","source_id":"27","building":"apartments","name":"","levels":null,"footprint_m2":null,"centroid_lng":121.63737,"centroid_lat":31.204052,"geometry_source":"synthetic_seed"},"geometry":{"type":"Polygon","coordinates":[[[121.63725000000001,31.203932000000002],[121.63749,31.203932000000002],[121.63749,31.204172],[121.63725000000001,31.204172],[121.63725000000001,31.203932000000002]]]}},{"type":"Feature","properties":{"building_id":"zhangjiang:seed:28","source":"synthetic_seed_not_real_footprint","source_id":"28","building":"commercial","name":"","levels":null,"footprint_m2":null,"centroid_lng":121.598743,"centroid_lat":31.253705,"geometry_source":"synthetic_seed"},"geometry":{"type":"Polygon","coordinates":[[[121.598623,31.253585],[121.598863,31.253585],[121.598863,31.253825],[121.598623,31.253825],[121.598623,31.253585]]]}},{"type":"Feature","properties":{"building_id":"zhangjiang:seed:29","source":"synthetic_seed_not_real_footprint","source_id":"29","building":"office","name":"","levels":null,"footprint_m2":null,"centroid_lng":121.626526,"centroid_lat":31.22146,"geometry_source":"synthetic_seed"},"geometry":{"type":"Polygon","coordinates":[[[121.626406,31.22134],[121.626646,31.22134],[121.626646,31.22158],[121.626406,31.22158],[121.626406,31.22134]]]}},{"type":"Feature","properties":{"building_id":"zhangjiang:seed:30","source":"synthetic_seed_not_real_footprint","source_id":"30","building":"residential","name":"","levels":null,"footprint_m2":null,"centroid_lng":121.576966,"centroid_lat":31.200523,"geometry_source":"synthetic_seed"},"geometry":{"type":"Polygon","coordinates":[[[121.576846,31.200403],[121.577086,31.200403],[121.577086,31.200643],[121.576846,31.200643],[121.576846,31.200403]]]}},{"type":"Feature","properties":{"building_id":"zhangjiang:seed:31","source":"synthetic_seed_not_real_footprint","source_id":"31","building":"yes","name":"","levels":null,"footprint_m2":null,"centroid_lng":121.60745,"centroid_lat":31.234793,"geometry_source":"synthetic_seed"},"geometry":{"type":"Polygon","coordinates":[[[121.60733,31.234673],[121.60757,31.234673],[121.60757,31.234913],[121.60733,31.234913],[121.60733,31.234673]]]}},{"type":"Feature","properties":{"building_id":"zhangjiang:seed:32","source":"synthetic_seed_not_real_footprint","source_id":"32","building":"apartments","name":"","levels":null,"footprint_m2":null,"centroid_lng":121.646241,"centroid_lat":31.192248,"geometry_source":"synthetic_seed"},"geometry":{"type":"Polygon","coordinates":[[[121.64612100000001,31.192128],[121.646361,31.192128],[121.646361,31.192368],[121.64612100000001,31.192368],[121.64612100000001,31.192128]]]}},{"type":"Feature","properties":{"building_id":"zhangjiang:seed:33","source":"synthetic_seed_not_real_footprint","source_id":"33","building":"commercial","name":"","levels":null,"footprint_m2":null,"centroid_lng":121.65291,"centroid_lat":31.215003,"geometry_source":"synthetic_seed"},"geometry":{"type":"Polygon","coordinates":[[[121.65279000000001,31.214883],[121.65303,31.214883],[121.65303,31.215123],[121.65279000000001,31.215123],[121.65279000000001,31.214883]]]}},{"type":"Feature","properties":{"building_id":"zhangjiang:seed:34","source":"synthetic_seed_not_real_footprint","source_id":"34","building":"office","name":"","levels":null,"footprint_m2":null,"centroid_lng":121.64632,"centroid_lat":31.242096,"geometry_source":"synthetic_seed"},"geometry":{"type":"Polygon","coordinates":[[[121.64620000000001,31.241976],[121.64644,31.241976],[121.64644,31.242216],[121.64620000000001,31.242216],[121.64620000000001,31.241976]]]}},{"type":"Feature","properties":{"building_id":"zhangjiang:seed:35","source":"synthetic_seed_not_real_footprint","source_id":"35","building":"residential","name":"","levels":null,"footprint_m2":null,"centroid_lng":121.613675,"centroid_lat":31.178541,"geometry_source":"synthetic_seed"},"geometry":{"type":"Polygon","coordinates":[[[121.613555,31.178421],[121.613795,31.178421],[121.613795,31.178660999999998],[121.613555,31.178660999999998],[121.613555,31.178421]]]}},{"type":"Feature","properties":{"building_id":"zhangjiang:seed:36","source":"synthetic_seed_not_real_footprint","source_id":"36","building":"yes","name":"","levels":null,"footprint_m2":null,"centroid_lng":121.599039,"centroid_lat":31.241723,"geometry_source":"synthetic_seed"},"geometry":{"type":"Polygon","coordinates":[[[121.59891900000001,31.241603],[121.599159,31.241603],[121.599159,31.241843],[121.59891900000001,31.241843],[121.59891900000001,31.241603]]]}},{"type":"Feature","properties":{"building_id":"zhangjiang:seed:37","source":"synthetic_seed_not_real_footprint","source_id":"37","building":"apartments","name":"","levels":null,"footprint_m2":null,"centroid_lng":121.598085,"centroid_lat":31.22746,"geometry_source":"synthetic_seed"},"geometry":{"type":"Polygon","coordinates":[[[121.597965,31.22734],[121.598205,31.22734],[121.598205,31.22758],[121.597965,31.22758],[121.597965,31.22734]]]}},{"type":"Feature","properties":{"building_id":"zhangjiang:seed:38","source":"synthetic_seed_not_real_footprint","source_id":"38","building":"commercial","name":"","levels":null,"footprint_m2":null,"centroid_lng":121.617175,"centroid_lat":31.241697,"geometry_source":"synthetic_seed"},"geometry":{"type":"Polygon","coordinates":[[[121.61705500000001,31.241577],[121.617295,31.241577],[121.617295,31.241816999999998],[121.61705500000001,31.241816999999998],[121.61705500000001,31.241577]]]}},{"type":"Feature","properties":{"building_id":"zhangjiang:seed:39","source":"synthetic_seed_not_real_footprint","source_id":"39","building":"office","name":"","levels":null,"footprint_m2":null,"centroid_lng":121.563026,"centroid_lat":31.234294,"geometry_source":"synthetic_seed"},"geometry":{"type":"Polygon","coordinates":[[[121.562906,31.234174],[121.56314599999999,31.234174],[121.56314599999999,31.234413999999997],[121.562906,31.234413999999997],[121.562906,31.234174]]]}},{"type":"Feature","properties":{"building_id":"zhangjiang:seed:40","source":"synthetic_seed_not_real_footprint","source_id":"40","building":"residential","name":"","levels":null,"footprint_m2":null,"centroid_lng":121.627133,"centroid_lat":31.222223,"geometry_source":"synthetic_seed"},"geometry":{"type":"Polygon","coordinates":[[[121.627013,31.222103],[121.627253,31.222103],[121.627253,31.222343],[121.627013,31.222343],[121.627013,31.222103]]]}},{"type":"Feature","properties":{"building_id":"zhangjiang:seed:41","source":"synthetic_seed_not_real_footprint","source_id":"41","building":"yes","name":"","levels":null,"footprint_m2":null,"centroid_lng":121.638001,"centroid_lat":31.187768,"geometry_source":"synthetic_seed"},"geometry":{"type":"Polygon","coordinates":[[[121.63788100000001,31.187648],[121.638121,31.187648],[121.638121,31.187887999999997],[121.63788100000001,31.187887999999997],[121.63788100000001,31.187648]]]}},{"type":"Feature","properties":{"building_id":"zhangjiang:seed:42","source":"synthetic_seed_not_real_footprint","source_id":"42","building":"apartments","name":"","levels":null,"footprint_m2":null,"centroid_lng":121.648512,"centroid_lat":31.226585,"geometry_source":"synthetic_seed"},"geometry":{"type":"Polygon","coordinates":[[[121.648392,31.226465],[121.64863199999999,31.226465],[121.64863199999999,31.226705],[121.648392,31.226705],[121.648392,31.226465]]]}},{"type":"Feature","properties":{"building_id":"zhangjiang:seed:43","source":"synthetic_seed_not_real_footprint","source_id":"43","building":"commercial","name":"","levels":null,"footprint_m2":null,"centroid_lng":121.570691,"centroid_lat":31.249272,"geometry_source":"synthetic_seed"},"geometry":{"type":"Polygon","coordinates":[[[121.570571,31.249152000000002],[121.57081099999999,31.249152000000002],[121.57081099999999,31.249392],[121.570571,31.249392],[121.570571,31.249152000000002]]]}},{"type":"Feature","properties":{"building_id":"zhangjiang:seed:44","source":"synthetic_seed_not_real_footprint","source_id":"44","building":"office","name":"","levels":null,"footprint_m2":null,"centroid_lng":121.624938,"centroid_lat":31.198762,"geometry_source":"synthetic_seed"},"geometry":{"type":"Polygon","coordinates":[[[121.624818,31.198642],[121.625058,31.198642],[121.625058,31.198881999999998],[121.624818,31.198881999999998],[121.624818,31.198642]]]}},{"type":"Feature","properties":{"building_id":"zhangjiang:seed:45","source":"synthetic_seed_not_real_footprint","source_id":"45","building":"residential","name":"","levels":null,"footprint_m2":null,"centroid_lng":121.618614,"centroid_lat":31.21108,"geometry_source":"synthetic_seed"},"geometry":{"type":"Polygon","coordinates":[[[121.618494,31.21096],[121.61873399999999,31.21096],[121.61873399999999,31.211199999999998],[121.618494,31.211199999999998],[121.618494,31.21096]]]}},{"type":"Feature","properties":{"building_id":"zhangjiang:seed:46","source":"synthetic_seed_not_real_footprint","source_id":"46","building":"yes","name":"","levels":null,"footprint_m2":null,"centroid_lng":121.55968,"centroid_lat":31.222742,"geometry_source":"synthetic_seed"},"geometry":{"type":"Polygon","coordinates":[[[121.55956,31.222622],[121.5598,31.222622],[121.5598,31.222862],[121.55956,31.222862],[121.55956,31.222622]]]}},{"type":"Feature","properties":{"building_id":"zhangjiang:seed:47","source":"synthetic_seed_not_real_footprint","source_id":"47","building":"apartments","name":"","levels":null,"footprint_m2":null,"centroid_lng":121.659424,"centroid_lat":31.203212,"geometry_source":"synthetic_seed"},"geometry":{"type":"Polygon","coordinates":[[[121.659304,31.203092],[121.659544,31.203092],[121.659544,31.203332],[121.659304,31.203332],[121.659304,31.203092]]]}},{"type":"Feature","properties":{"building_id":"zhangjiang:seed:48","source":"synthetic_seed_not_real_footprint","source_id":"48","building":"commercial","name":"","levels":null,"footprint_m2":null,"centroid_lng":121.645212,"centroid_lat":31.227082,"geometry_source":"synthetic_seed"},"geometry":{"type":"Polygon","coordinates":[[[121.645092,31.226962],[121.645332,31.226962],[121.645332,31.227202],[121.645092,31.227202],[121.645092,31.226962]]]}},{"type":"Feature","properties":{"building_id":"zhangjiang:seed:49","source":"synthetic_seed_not_real_footprint","source_id":"49","building":"office","name":"","levels":null,"footprint_m2":null,"centroid_lng":121.632831,"centroid_lat":31.241464,"geometry_source":"synthetic_seed"},"geometry":{"type":"Polygon","coordinates":[[[121.632711,31.241344],[121.63295099999999,31.241344],[121.63295099999999,31.241584],[121.632711,31.241584],[121.632711,31.241344]]]}},{"type":"Feature","properties":{"building_id":"zhangjiang:seed:50","source":"synthetic_seed_not_real_footprint","source_id":"50","building":"residential","name":"","levels":null,"footprint_m2":null,"centroid_lng":121.565378,"centroid_lat":31.237825,"geometry_source":"synthetic_seed"},"geometry":{"type":"Polygon","coordinates":[[[121.565258,31.237705000000002],[121.56549799999999,31.237705000000002],[121.56549799999999,31.237945],[121.565258,31.237945],[121.565258,31.237705000000002]]]}},{"type":"Feature","properties":{"building_id":"zhangjiang:seed:51","source":"synthetic_seed_not_real_footprint","source_id":"51","building":"yes","name":"","levels":null,"footprint_m2":null,"centroid_lng":121.58413,"centroid_lat":31.244302,"geometry_source":"synthetic_seed"},"geometry":{"type":"Polygon","coordinates":[[[121.58401,31.244182000000002],[121.58425,31.244182000000002],[121.58425,31.244422],[121.58401,31.244422],[121.58401,31.244182000000002]]]}},{"type":"Feature","properties":{"building_id":"zhangjiang:seed:52","source":"synthetic_seed_not_real_footprint","source_id":"52","building":"apartments","name":"","levels":null,"footprint_m2":null,"centroid_lng":121.613131,"centroid_lat":31.208123,"geometry_source":"synthetic_seed"},"geometry":{"type":"Polygon","coordinates":[[[121.613011,31.208003],[121.61325099999999,31.208003],[121.61325099999999,31.208243],[121.613011,31.208243],[121.613011,31.208003]]]}},{"type":"Feature","properties":{"building_id":"zhangjiang:seed:53","source":"synthetic_seed_not_real_footprint","source_id":"53","building":"commercial","name":"","levels":null,"footprint_m2":null,"centroid_lng":121.610744,"centroid_lat":31.213675,"geometry_source":"synthetic_seed"},"geometry":{"type":"Polygon","coordinates":[[[121.610624,31.213555],[121.61086399999999,31.213555],[121.61086399999999,31.213794999999998],[121.610624,31.213794999999998],[121.610624,31.213555]]]}},{"type":"Feature","properties":{"building_id":"zhangjiang:seed:54","source":"synthetic_seed_not_real_footprint","source_id":"54","building":"office","name":"","levels":null,"footprint_m2":null,"centroid_lng":121.637127,"centroid_lat":31.190122,"geometry_source":"synthetic_seed"},"geometry":{"type":"Polygon","coordinates":[[[121.63700700000001,31.190002],[121.637247,31.190002],[121.637247,31.190241999999998],[121.63700700000001,31.190241999999998],[121.63700700000001,31.190002]]]}},{"type":"Feature","properties":{"building_id":"zhangjiang:seed:55","source":"synthetic_seed_not_real_footprint","source_id":"55","building":"residential","name":"","levels":null,"footprint_m2":null,"centroid_lng":121.592387,"centroid_lat":31.187543,"geometry_source":"synthetic_seed"},"geometry":{"type":"Polygon","coordinates":[[[121.592267,31.187423000000003],[121.592507,31.187423000000003],[121.592507,31.187663],[121.592267,31.187663],[121.592267,31.187423000000003]]]}},{"type":"Feature","properties":{"building_id":"zhangjiang:seed:56","source":"synthetic_seed_not_real_footprint","source_id":"56","building":"yes","name":"","levels":null,"footprint_m2":null,"centroid_lng":121.591344,"centroid_lat":31.187598,"geometry_source":"synthetic_seed"},"geometry":{"type":"Polygon","coordinates":[[[121.59122400000001,31.187478000000002],[121.591464,31.187478000000002],[121.591464,31.187718],[121.59122400000001,31.187718],[121.59122400000001,31.187478000000002]]]}},{"type":"Feature","properties":{"building_id":"zhangjiang:seed:57","source":"synthetic_seed_not_real_footprint","source_id":"57","building":"apartments","name":"","levels":null,"footprint_m2":null,"centroid_lng":121.612891,"centroid_lat":31.235763,"geometry_source":"synthetic_seed"},"geometry":{"type":"Polygon","coordinates":[[[121.61277100000001,31.235643],[121.613011,31.235643],[121.613011,31.235882999999998],[121.61277100000001,31.235882999999998],[121.61277100000001,31.235643]]]}},{"type":"Feature","properties":{"building_id":"zhangjiang:seed:58","source":"synthetic_seed_not_real_footprint","source_id":"58","building":"commercial","name":"","levels":null,"footprint_m2":null,"centroid_lng":121.60839,"centroid_lat":31.239578,"geometry_source":"synthetic_seed"},"geometry":{"type":"Polygon","coordinates":[[[121.60827,31.239458000000003],[121.60851,31.239458000000003],[121.60851,31.239698],[121.60827,31.239698],[121.60827,31.239458000000003]]]}},{"type":"Feature","properties":{"building_id":"zhangjiang:seed:59","source":"synthetic_seed_not_real_footprint","source_id":"59","building":"office","name":"","levels":null,"footprint_m2":null,"centroid_lng":121.601976,"centroid_lat":31.18084,"geometry_source":"synthetic_seed"},"geometry":{"type":"Polygon","coordinates":[[[121.601856,31.18072],[121.60209599999999,31.18072],[121.60209599999999,31.18096],[121.601856,31.18096],[121.601856,31.18072]]]}},{"type":"Feature","properties":{"building_id":"zhangjiang:seed:60","source":"synthetic_seed_not_real_footprint","source_id":"60","building":"residential","name":"","levels":null,"footprint_m2":null,"centroid_lng":121.572731,"centroid_lat":31.248452,"geometry_source":"synthetic_seed"},"geometry":{"type":"Polygon","coordinates":[[[121.57261100000001,31.248332],[121.572851,31.248332],[121.572851,31.248572],[121.57261100000001,31.248572],[121.57261100000001,31.248332]]]}},{"type":"Feature","properties":{"building_id":"zhangjiang:seed:61","source":"synthetic_seed_not_real_footprint","source_id":"61","building":"yes","name":"","levels":null,"footprint_m2":null,"centroid_lng":121.621997,"centroid_lat":31.238894,"geometry_source":"synthetic_seed"},"geometry":{"type":"Polygon","coordinates":[[[121.621877,31.238774],[121.62211699999999,31.238774],[121.62211699999999,31.239013999999997],[121.621877,31.239013999999997],[121.621877,31.238774]]]}},{"type":"Feature","properties":{"building_id":"zhangjiang:seed:62","source":"synthetic_seed_not_real_footprint","source_id":"62","building":"apartments","name":"","levels":null,"footprint_m2":null,"centroid_lng":121.643973,"centroid_lat":31.225966,"geometry_source":"synthetic_seed"},"geometry":{"type":"Polygon","coordinates":[[[121.64385300000001,31.225846],[121.644093,31.225846],[121.644093,31.226086],[121.64385300000001,31.226086],[121.64385300000001,31.225846]]]}},{"type":"Feature","properties":{"building_id":"zhangjiang:seed:63","source":"synthetic_seed_not_real_footprint","source_id":"63","building":"commercial","name":"","levels":null,"footprint_m2":null,"centroid_lng":121.646745,"centroid_lat":31.184311,"geometry_source":"synthetic_seed"},"geometry":{"type":"Polygon","coordinates":[[[121.646625,31.184191000000002],[121.64686499999999,31.184191000000002],[121.64686499999999,31.184431],[121.646625,31.184431],[121.646625,31.184191000000002]]]}},{"type":"Feature","properties":{"building_id":"zhangjiang:seed:64","source":"synthetic_seed_not_real_footprint","source_id":"64","building":"office","name":"","levels":null,"footprint_m2":null,"centroid_lng":121.644282,"centroid_lat":31.206879,"geometry_source":"synthetic_seed"},"geometry":{"type":"Polygon","coordinates":[[[121.64416200000001,31.206759],[121.644402,31.206759],[121.644402,31.206999],[121.64416200000001,31.206999],[121.64416200000001,31.206759]]]}},{"type":"Feature","properties":{"building_id":"zhangjiang:seed:65","source":"synthetic_seed_not_real_footprint","source_id":"65","building":"residential","name":"","levels":null,"footprint_m2":null,"centroid_lng":121.631676,"centroid_lat":31.23908,"geometry_source":"synthetic_seed"},"geometry":{"type":"Polygon","coordinates":[[[121.631556,31.238960000000002],[121.631796,31.238960000000002],[121.631796,31.2392],[121.631556,31.2392],[121.631556,31.238960000000002]]]}},{"type":"Feature","properties":{"building_id":"zhangjiang:seed:66","source":"synthetic_seed_not_real_footprint","source_id":"66","building":"yes","name":"","levels":null,"footprint_m2":null,"centroid_lng":121.582056,"centroid_lat":31.249323,"geometry_source":"synthetic_seed"},"geometry":{"type":"Polygon","coordinates":[[[121.581936,31.249203],[121.58217599999999,31.249203],[121.58217599999999,31.249443],[121.581936,31.249443],[121.581936,31.249203]]]}},{"type":"Feature","properties":{"building_id":"zhangjiang:seed:67","source":"synthetic_seed_not_real_footprint","source_id":"67","building":"apartments","name":"","levels":null,"footprint_m2":null,"centroid_lng":121.644103,"centroid_lat":31.232188,"geometry_source":"synthetic_seed"},"geometry":{"type":"Polygon","coordinates":[[[121.643983,31.232068],[121.644223,31.232068],[121.644223,31.232308],[121.643983,31.232308],[121.643983,31.232068]]]}},{"type":"Feature","properties":{"building_id":"zhangjiang:seed:68","source":"synthetic_seed_not_real_footprint","source_id":"68","building":"commercial","name":"","levels":null,"footprint_m2":null,"centroid_lng":121.624498,"centroid_lat":31.196443,"geometry_source":"synthetic_seed"},"geometry":{"type":"Polygon","coordinates":[[[121.62437800000001,31.196323],[121.624618,31.196323],[121.624618,31.196562999999998],[121.62437800000001,31.196562999999998],[121.62437800000001,31.196323]]]}},{"type":"Feature","properties":{"building_id":"zhangjiang:seed:69","source":"synthetic_seed_not_real_footprint","source_id":"69","building":"office","name":"","levels":null,"footprint_m2":null,"centroid_lng":121.643538,"centroid_lat":31.225485,"geometry_source":"synthetic_seed"},"geometry":{"type":"Polygon","coordinates":[[[121.64341800000001,31.225365],[121.643658,31.225365],[121.643658,31.225604999999998],[121.64341800000001,31.225604999999998],[121.64341800000001,31.225365]]]}},{"type":"Feature","properties":{"building_id":"zhangjiang:seed:70","source":"synthetic_seed_not_real_footprint","source_id":"70","building":"residential","name":"","levels":null,"footprint_m2":null,"centroid_lng":121.61298,"centroid_lat":31.207896,"geometry_source":"synthetic_seed"},"geometry":{"type":"Polygon","coordinates":[[[121.61286,31.207776000000003],[121.61309999999999,31.207776000000003],[121.61309999999999,31.208016],[121.61286,31.208016],[121.61286,31.207776000000003]]]}},{"type":"Feature","properties":{"building_id":"zhangjiang:seed:71","source":"synthetic_seed_not_real_footprint","source_id":"71","building":"yes","name":"","levels":null,"footprint_m2":null,"centroid_lng":121.596609,"centroid_lat":31.235709,"geometry_source":"synthetic_seed"},"geometry":{"type":"Polygon","coordinates":[[[121.596489,31.235589],[121.596729,31.235589],[121.596729,31.235829],[121.596489,31.235829],[121.596489,31.235589]]]}},{"type":"Feature","properties":{"building_id":"zhangjiang:seed:72","source":"synthetic_seed_not_real_footprint","source_id":"72","building":"apartments","name":"","levels":null,"footprint_m2":null,"centroid_lng":121.568978,"centroid_lat":31.248249,"geometry_source":"synthetic_seed"},"geometry":{"type":"Polygon","coordinates":[[[121.568858,31.248129000000002],[121.569098,31.248129000000002],[121.569098,31.248369],[121.568858,31.248369],[121.568858,31.248129000000002]]]}},{"type":"Feature","properties":{"building_id":"zhangjiang:seed:73","source":"synthetic_seed_not_real_footprint","source_id":"73","building":"commercial","name":"","levels":null,"footprint_m2":null,"centroid_lng":121.584872,"centroid_lat":31.195027,"geometry_source":"synthetic_seed"},"geometry":{"type":"Polygon","coordinates":[[[121.58475200000001,31.194907],[121.584992,31.194907],[121.584992,31.195147],[121.58475200000001,31.195147],[121.58475200000001,31.194907]]]}},{"type":"Feature","properties":{"building_id":"zhangjiang:seed:74","source":"synthetic_seed_not_real_footprint","source_id":"74","building":"office","name":"","levels":null,"footprint_m2":null,"centroid_lng":121.598531,"centroid_lat":31.222757,"geometry_source":"synthetic_seed"},"geometry":{"type":"Polygon","coordinates":[[[121.598411,31.222637000000002],[121.59865099999999,31.222637000000002],[121.59865099999999,31.222877],[121.598411,31.222877],[121.598411,31.222637000000002]]]}},{"type":"Feature","properties":{"building_id":"zhangjiang:seed:75","source":"synthetic_seed_not_real_footprint","source_id":"75","building":"residential","name":"","levels":null,"footprint_m2":null,"centroid_lng":121.565129,"centroid_lat":31.245683,"geometry_source":"synthetic_seed"},"geometry":{"type":"Polygon","coordinates":[[[121.565009,31.245563],[121.565249,31.245563],[121.565249,31.245803],[121.565009,31.245803],[121.565009,31.245563]]]}},{"type":"Feature","properties":{"building_id":"zhangjiang:seed:76","source":"synthetic_seed_not_real_footprint","source_id":"76","building":"yes","name":"","levels":null,"footprint_m2":null,"centroid_lng":121.576531,"centroid_lat":31.242861,"geometry_source":"synthetic_seed"},"geometry":{"type":"Polygon","coordinates":[[[121.57641100000001,31.242741000000002],[121.576651,31.242741000000002],[121.576651,31.242981],[121.57641100000001,31.242981],[121.57641100000001,31.242741000000002]]]}},{"type":"Feature","properties":{"building_id":"zhangjiang:seed:77","source":"synthetic_seed_not_real_footprint","source_id":"77","building":"apartments","name":"","levels":null,"footprint_m2":null,"centroid_lng":121.600065,"centroid_lat":31.204205,"geometry_source":"synthetic_seed"},"geometry":{"type":"Polygon","coordinates":[[[121.599945,31.204085000000003],[121.600185,31.204085000000003],[121.600185,31.204325],[121.599945,31.204325],[121.599945,31.204085000000003]]]}},{"type":"Feature","properties":{"building_id":"zhangjiang:seed:78","source":"synthetic_seed_not_real_footprint","source_id":"78","building":"commercial","name":"","levels":null,"footprint_m2":null,"centroid_lng":121.631003,"centroid_lat":31.253141,"geometry_source":"synthetic_seed"},"geometry":{"type":"Polygon","coordinates":[[[121.63088300000001,31.253021],[121.631123,31.253021],[121.631123,31.253261],[121.63088300000001,31.253261],[121.63088300000001,31.253021]]]}},{"type":"Feature","properties":{"building_id":"zhangjiang:seed:79","source":"synthetic_seed_not_real_footprint","source_id":"79","building":"office","name":"","levels":null,"footprint_m2":null,"centroid_lng":121.621256,"centroid_lat":31.173634,"geometry_source":"synthetic_seed"},"geometry":{"type":"Polygon","coordinates":[[[121.621136,31.173514],[121.621376,31.173514],[121.621376,31.173754],[121.621136,31.173754],[121.621136,31.173514]]]}},{"type":"Feature","properties":{"building_id":"zhangjiang:seed:80","source":"synthetic_seed_not_real_footprint","source_id":"80","building":"residential","name":"","levels":null,"footprint_m2":null,"centroid_lng":121.643904,"centroid_lat":31.220679,"geometry_source":"synthetic_seed"},"geometry":{"type":"Polygon","coordinates":[[[121.64378400000001,31.220559],[121.644024,31.220559],[121.644024,31.220799],[121.64378400000001,31.220799],[121.64378400000001,31.220559]]]}}]}