{"type":"FeatureCollection","features":[{"type":"Feature","properties":{"parcel_id":"xujiahui_caohejing:parcel:0008","geometry_method":"road_barrier_raster_plus_buildings","functional_type":"residential","dominant_type":"residential","confidence":0.69,"building_count":67,"avg_building_area_m2":914,"centroid_lng":121.447445,"centroid_lat":31.146466,"parcel_area_m2":851398,"safety_clipped":false,"classification_source":"osm_tags+building_morphology+spatial_prior","synthetic_classification":true,"qc_flags":""},"geometry":{"type":"MultiPolygon","coordinates":[[[[121.43872120852785,31.143702006957817],[121.44534774836339,31.143702006957817],[121.44534774836339,31.14399348313948],[121.43872120852785,31.14399348313948],[121.43872120852785,31.143702006957817]]],[[[121.43872120852785,31.14399348313948],[121.44534774836339,31.14399348313948],[121.44534774836339,31.14428495932114],[121.43872120852785,31.14428495932114],[121.43872120852785,31.14399348313948]]],[[[121.43843309810022,31.14428495932114],[121.44505963793576,31.14428495932114],[121.44505963793576,31.144576435502803],[121.43843309810022,31.144576435502803],[121.43843309810022,31.14428495932114]]],[[[121.44794074221207,31.14428495932114],[121.44880507349497,31.14428495932114],[121.44880507349497,31.144576435502803],[121.44794074221207,31.144576435502803],[121.44794074221207,31.14428495932114]]],[[[121.43843309810022,31.144576435502806],[121.44563585879102,31.144576435502806],[121.44563585879102,31.144867911684468],[121.43843309810022,31.144867911684468],[121.43843309810022,31.144576435502806]]],[[[121.44765263178444,31.144576435502806],[121.44966940477786,31.144576435502806],[121.44966940477786,31.144867911684468],[121.44765263178444,31.144867911684468],[121.44765263178444,31.144576435502806]]],[[[121.43843309810022,31.144867911684468],[121.44621207964629,31.144867911684468],[121.44621207964629,31.14515938786613],[121.43843309810022,31.14515938786613],[121.43843309810022,31.144867911684468]]],[[[121.44765263178444,31.144867911684468],[121.44794074221207,31.144867911684468],[121.44794074221207,31.14515938786613],[121.44765263178444,31.14515938786613],[121.44765263178444,31.144867911684468]]],[[[121.4482288526397,31.144867911684468],[121.4499575152055,31.144867911684468],[121.4499575152055,31.14515938786613],[121.4482288526397,31.14515938786613],[121.4482288526397,31.144867911684468]]],[[[121.43843309810022,31.145159387866133],[121.4473645213568,31.145159387866133],[121.4473645213568,31.145450864047795],[121.43843309810022,31.145450864047795],[121.43843309810022,31.145159387866133]]],[[[121.44765263178444,31.145159387866133],[121.44794074221207,31.145159387866133],[121.44794074221207,31.145450864047795],[121.44765263178444,31.145450864047795],[121.44765263178444,31.145159387866133]]],[[[121.4482288526397,31.145159387866133],[121.44966940477786,31.145159387866133],[121.44966940477786,31.145450864047795],[121.4482288526397,31.145450864047795],[121.4482288526397,31.145159387866133]]],[[[121.43872120852785,31.145450864047795],[121.44765263178444,31.145450864047795],[121.44765263178444,31.145742340229457],[121.43872120852785,31.145742340229457],[121.43872120852785,31.145450864047795]]],[[[121.4482288526397,31.145450864047795],[121.44966940477786,31.145450864047795],[121.44966940477786,31.145742340229457],[121.4482288526397,31.145742340229457],[121.4482288526397,31.145450864047795]]],[[[121.43872120852785,31.145742340229457],[121.44966940477786,31.145742340229457],[121.44966940477786,31.14603381641112],[121.43872120852785,31.14603381641112],[121.43872120852785,31.145742340229457]]],[[[121.43872120852785,31.146033816411123],[121.44966940477786,31.146033816411123],[121.44966940477786,31.146325292592785],[121.43872120852785,31.146325292592785],[121.43872120852785,31.146033816411123]]],[[[121.43872120852785,31.146325292592785],[121.44966940477786,31.146325292592785],[121.44966940477786,31.146616768774447],[121.43872120852785,31.146616768774447],[121.43872120852785,31.146325292592785]]],[[[121.43872120852785,31.146616768774447],[121.44938129435023,31.146616768774447],[121.44938129435023,31.14690824495611],[121.43872120852785,31.14690824495611],[121.43872120852785,31.146616768774447]]],[[[121.43872120852785,31.146908244956112],[121.44938129435023,31.146908244956112],[121.44938129435023,31.147199721137774],[121.43872120852785,31.147199721137774],[121.43872120852785,31.146908244956112]]],[[[121.43872120852785,31.147199721137774],[121.44938129435023,31.147199721137774],[121.44938129435023,31.147491197319436],[121.43872120852785,31.147491197319436],[121.43872120852785,31.147199721137774]]],[[[121.43872120852785,31.14749119731944],[121.44938129435023,31.14749119731944],[121.44938129435023,31.1477826735011],[121.43872120852785,31.1477826735011],[121.43872120852785,31.14749119731944]]],[[[121.43843309810022,31.1477826735011],[121.44938129435023,31.1477826735011],[121.44938129435023,31.148074149682763],[121.43843309810022,31.148074149682763],[121.43843309810022,31.1477826735011]]],[[[121.43843309810022,31.148074149682763],[121.44938129435023,31.148074149682763],[121.44938129435023,31.148365625864425],[121.43843309810022,31.148365625864425],[121.43843309810022,31.148074149682763]]],[[[121.43843309810022,31.14836562586443],[121.4490931839226,31.14836562586443],[121.4490931839226,31.14865710204609],[121.43843309810022,31.14865710204609],[121.43843309810022,31.14836562586443]]],[[[121.43814498767259,31.14865710204609],[121.4490931839226,31.14865710204609],[121.4490931839226,31.148948578227753],[121.43814498767259,31.148948578227753],[121.43814498767259,31.14865710204609]]],[[[121.43814498767259,31.148948578227753],[121.4490931839226,31.148948578227753],[121.4490931839226,31.149240054409415],[121.43814498767259,31.149240054409415],[121.43814498767259,31.148948578227753]]],[[[121.43814498767259,31.149240054409418],[121.4490931839226,31.149240054409418],[121.4490931839226,31.14953153059108],[121.43814498767259,31.14953153059108],[121.43814498767259,31.149240054409418]]],[[[121.43814498767259,31.14953153059108],[121.4490931839226,31.14953153059108],[121.4490931839226,31.149823006772742],[121.43814498767259,31.149823006772742],[121.43814498767259,31.14953153059108]]],[[[121.43814498767259,31.149823006772746],[121.4490931839226,31.149823006772746],[121.4490931839226,31.150114482954407],[121.43814498767259,31.150114482954407],[121.43814498767259,31.149823006772746]]],[[[121.43900931895548,31.150114482954407],[121.4490931839226,31.150114482954407],[121.4490931839226,31.15040595913607],[121.43900931895548,31.15040595913607],[121.43900931895548,31.150114482954407]]],[[[121.44016176066602,31.15040595913607],[121.4490931839226,31.15040595913607],[121.4490931839226,31.15069743531773],[121.44016176066602,31.15069743531773],[121.44016176066602,31.15040595913607]]],[[[121.44131420237655,31.150697435317735],[121.4490931839226,31.150697435317735],[121.4490931839226,31.150988911499397],[121.44131420237655,31.150988911499397],[121.44131420237655,31.150697435317735]]],[[[121.44189042323181,31.150988911499397],[121.4490931839226,31.150988911499397],[121.4490931839226,31.15128038768106],[121.44189042323181,31.15128038768106],[121.44189042323181,31.150988911499397]]],[[[121.4427547545147,31.15128038768106],[121.4490931839226,31.15128038768106],[121.4490931839226,31.15157186386272],[121.4427547545147,31.15157186386272],[121.4427547545147,31.15128038768106]]],[[[121.44390719622523,31.151571863862724],[121.44448341708049,31.151571863862724],[121.44448341708049,31.151863340044386],[121.44390719622523,31.151863340044386],[121.44390719622523,31.151571863862724]]],[[[121.44534774836339,31.151571863862724],[121.4490931839226,31.151571863862724],[121.4490931839226,31.151863340044386],[121.44534774836339,31.151863340044386],[121.44534774836339,31.151571863862724]]],[[[121.44534774836339,31.151863340044386],[121.4490931839226,31.151863340044386],[121.4490931839226,31.152154816226048],[121.44534774836339,31.152154816226048],[121.44534774836339,31.151863340044386]]],[[[121.44621207964629,31.152154816226048],[121.4490931839226,31.152154816226048],[121.4490931839226,31.15244629240771],[121.44621207964629,31.15244629240771],[121.44621207964629,31.152154816226048]]],[[[121.4473645213568,31.152446292407713],[121.4490931839226,31.152446292407713],[121.4490931839226,31.152737768589375],[121.4473645213568,31.152737768589375],[121.4473645213568,31.152446292407713]]],[[[121.44851696306733,31.152737768589375],[121.44938129435023,31.152737768589375],[121.44938129435023,31.153029244771037],[121.44851696306733,31.153029244771037],[121.44851696306733,31.152737768589375]]]]}},{"type":"Feature","properties":{"parcel_id":"xujiahui_caohejing:parcel:0013","geometry_method":"road_barrier_raster_plus_buildings","functional_type":"commercial","dominant_type":"commercial","confidence":0.8,"building_count":47,"avg_building_area_m2":863,"centroid_lng":121.464285,"centroid_lat":31.158372,"parcel_area_m2":1329701,"safety_clipped":false,"classification_source":"osm_tags+building_morphology+spatial_prior","synthetic_classification":true,"qc_flags":""},"geometry":{"type":"MultiPolygon","coordinates":[[[[121.45485539247524,31.14428495932114],[121.4562959446134,31.14428495932114],[121.4562959446134,31.144576435502803],[121.45485539247524,31.144576435502803],[121.45485539247524,31.14428495932114]]],[[[121.45514350290287,31.144576435502806],[121.46061760102788,31.144576435502806],[121.46061760102788,31.144867911684468],[121.45514350290287,31.144867911684468],[121.45514350290287,31.144576435502806]]],[[[121.45514350290287,31.144867911684468],[121.46061760102788,31.144867911684468],[121.46061760102788,31.14515938786613],[121.45514350290287,31.14515938786613],[121.45514350290287,31.144867911684468]]],[[[121.45514350290287,31.145159387866133],[121.46061760102788,31.145159387866133],[121.46061760102788,31.145450864047795],[121.45514350290287,31.145450864047795],[121.45514350290287,31.145159387866133]]],[[[121.45514350290287,31.145450864047795],[121.46061760102788,31.145450864047795],[121.46061760102788,31.145742340229457],[121.45514350290287,31.145742340229457],[121.45514350290287,31.145450864047795]]],[[[121.45514350290287,31.145742340229457],[121.46061760102788,31.145742340229457],[121.46061760102788,31.14603381641112],[121.45514350290287,31.14603381641112],[121.45514350290287,31.145742340229457]]],[[[121.4554316133305,31.146033816411123],[121.46061760102788,31.146033816411123],[121.46061760102788,31.146325292592785],[121.4554316133305,31.146325292592785],[121.4554316133305,31.146033816411123]]],[[[121.4554316133305,31.146325292592785],[121.46090571145551,31.146325292592785],[121.46090571145551,31.146616768774447],[121.4554316133305,31.146616768774447],[121.4554316133305,31.146325292592785]]],[[[121.45571972375814,31.146616768774447],[121.46119382188314,31.146616768774447],[121.46119382188314,31.14690824495611],[121.45571972375814,31.14690824495611],[121.45571972375814,31.146616768774447]]],[[[121.45571972375814,31.146908244956112],[121.46119382188314,31.146908244956112],[121.46119382188314,31.147199721137774],[121.45571972375814,31.147199721137774],[121.45571972375814,31.146908244956112]]],[[[121.45571972375814,31.147199721137774],[121.46148193231078,31.147199721137774],[121.46148193231078,31.147491197319436],[121.45571972375814,31.147491197319436],[121.45571972375814,31.147199721137774]]],[[[121.45571972375814,31.14749119731944],[121.46205815316603,31.14749119731944],[121.46205815316603,31.1477826735011],[121.45571972375814,31.1477826735011],[121.45571972375814,31.14749119731944]]],[[[121.45600783418577,31.1477826735011],[121.46234626359366,31.1477826735011],[121.46234626359366,31.148074149682763],[121.45600783418577,31.148074149682763],[121.45600783418577,31.1477826735011]]],[[[121.45600783418577,31.148074149682763],[121.46292248444892,31.148074149682763],[121.46292248444892,31.148365625864425],[121.45600783418577,31.148365625864425],[121.45600783418577,31.148074149682763]]],[[[121.4562959446134,31.14836562586443],[121.46321059487656,31.14836562586443],[121.46321059487656,31.14865710204609],[121.4562959446134,31.14865710204609],[121.4562959446134,31.14836562586443]]],[[[121.45658405504103,31.14865710204609],[121.46349870530419,31.14865710204609],[121.46349870530419,31.148948578227753],[121.45658405504103,31.148948578227753],[121.45658405504103,31.14865710204609]]],[[[121.45687216546867,31.148948578227753],[121.46407492615946,31.148948578227753],[121.46407492615946,31.149240054409415],[121.45687216546867,31.149240054409415],[121.45687216546867,31.148948578227753]]],[[[121.45716027589629,31.149240054409418],[121.46465114701472,31.149240054409418],[121.46465114701472,31.14953153059108],[121.45716027589629,31.14953153059108],[121.45716027589629,31.149240054409418]]],[[[121.45744838632392,31.14953153059108],[121.46522736786999,31.14953153059108],[121.46522736786999,31.149823006772742],[121.45744838632392,31.149823006772742],[121.45744838632392,31.14953153059108]]],[[[121.45744838632392,31.149823006772746],[121.46551547829762,31.149823006772746],[121.46551547829762,31.150114482954407],[121.45744838632392,31.150114482954407],[121.45744838632392,31.149823006772746]]],[[[121.45773649675155,31.150114482954407],[121.46637980958052,31.150114482954407],[121.46637980958052,31.15040595913607],[121.45773649675155,31.15040595913607],[121.45773649675155,31.150114482954407]]],[[[121.45802460717918,31.15040595913607],[121.46666792000815,31.15040595913607],[121.46666792000815,31.15069743531773],[121.45802460717918,31.15069743531773],[121.45802460717918,31.15040595913607]]],[[[121.45831271760682,31.150697435317735],[121.4672441408634,31.150697435317735],[121.4672441408634,31.150988911499397],[121.45831271760682,31.150988911499397],[121.45831271760682,31.150697435317735]]],[[[121.45860082803445,31.150988911499397],[121.46782036171867,31.150988911499397],[121.46782036171867,31.15128038768106],[121.45860082803445,31.15128038768106],[121.45860082803445,31.150988911499397]]],[[[121.45888893846208,31.15128038768106],[121.46839658257393,31.15128038768106],[121.46839658257393,31.15157186386272],[121.45888893846208,31.15157186386272],[121.45888893846208,31.15128038768106]]],[[[121.45917704888971,31.151571863862724],[121.46868469300156,31.151571863862724],[121.46868469300156,31.151863340044386],[121.45917704888971,31.151863340044386],[121.45917704888971,31.151571863862724]]],[[[121.45946515931735,31.151863340044386],[121.4689728034292,31.151863340044386],[121.4689728034292,31.152154816226048],[121.45946515931735,31.152154816226048],[121.45946515931735,31.151863340044386]]],[[[121.45975326974498,31.152154816226048],[121.4689728034292,31.152154816226048],[121.4689728034292,31.15244629240771],[121.45975326974498,31.15244629240771],[121.45975326974498,31.152154816226048]]],[[[121.46004138017261,31.152446292407713],[121.46954902428446,31.152446292407713],[121.46954902428446,31.152737768589375],[121.46004138017261,31.152737768589375],[121.46004138017261,31.152446292407713]]],[[[121.46032949060024,31.152737768589375],[121.46954902428446,31.152737768589375],[121.46954902428446,31.153029244771037],[121.46032949060024,31.153029244771037],[121.46032949060024,31.152737768589375]]],[[[121.46061760102788,31.15302924477104],[121.46954902428446,31.15302924477104],[121.46954902428446,31.153320720952703],[121.46061760102788,31.153320720952703],[121.46061760102788,31.15302924477104]]],[[[121.46090571145551,31.153320720952703],[121.46954902428446,31.153320720952703],[121.46954902428446,31.153612197134365],[121.46090571145551,31.153612197134365],[121.46090571145551,31.153320720952703]]],[[[121.46119382188314,31.153612197134365],[121.46954902428446,31.153612197134365],[121.46954902428446,31.153903673316027],[121.46119382188314,31.153903673316027],[121.46119382188314,31.153612197134365]]],[[[121.46148193231078,31.15390367331603],[121.46954902428446,31.15390367331603],[121.46954902428446,31.154195149497692],[121.46148193231078,31.154195149497692],[121.46148193231078,31.15390367331603]]],[[[121.46148193231078,31.154195149497692],[121.46954902428446,31.154195149497692],[121.46954902428446,31.154486625679354],[121.46148193231078,31.154486625679354],[121.46148193231078,31.154195149497692]]],[[[121.46177004273841,31.154486625679354],[121.46954902428446,31.154486625679354],[121.46954902428446,31.154778101861016],[121.46177004273841,31.154778101861016],[121.46177004273841,31.154486625679354]]],[[[121.46205815316603,31.15477810186102],[121.46954902428446,31.15477810186102],[121.46954902428446,31.15506957804268],[121.46205815316603,31.15506957804268],[121.46205815316603,31.15477810186102]]],[[[121.46234626359366,31.15506957804268],[121.46954902428446,31.15506957804268],[121.46954902428446,31.155361054224343],[121.46234626359366,31.155361054224343],[121.46234626359366,31.15506957804268]]],[[[121.46234626359366,31.155361054224347],[121.46954902428446,31.155361054224347],[121.46954902428446,31.15565253040601],[121.46234626359366,31.15565253040601],[121.46234626359366,31.155361054224347]]],[[[121.46263437402129,31.15565253040601],[121.46954902428446,31.15565253040601],[121.46954902428446,31.15594400658767],[121.46263437402129,31.15594400658767],[121.46263437402129,31.15565253040601]]],[[[121.46292248444892,31.15594400658767],[121.46954902428446,31.15594400658767],[121.46954902428446,31.156235482769333],[121.46292248444892,31.156235482769333],[121.46292248444892,31.15594400658767]]],[[[121.46321059487656,31.156235482769336],[121.46954902428446,31.156235482769336],[121.46954902428446,31.156526958950998],[121.46321059487656,31.156526958950998],[121.46321059487656,31.156235482769336]]],[[[121.46321059487656,31.156526958950998],[121.46954902428446,31.156526958950998],[121.46954902428446,31.15681843513266],[121.46321059487656,31.15681843513266],[121.46321059487656,31.156526958950998]]],[[[121.46349870530419,31.15681843513266],[121.46954902428446,31.15681843513266],[121.46954902428446,31.157109911314322],[121.46349870530419,31.157109911314322],[121.46349870530419,31.15681843513266]]],[[[121.46378681573182,31.157109911314326],[121.46954902428446,31.157109911314326],[121.46954902428446,31.157401387495987],[121.46378681573182,31.157401387495987],[121.46378681573182,31.157109911314326]]],[[[121.46407492615946,31.157401387495987],[121.46954902428446,31.157401387495987],[121.46954902428446,31.15769286367765],[121.46407492615946,31.15769286367765],[121.46407492615946,31.157401387495987]]],[[[121.46436303658709,31.157692863677653],[121.46954902428446,31.157692863677653],[121.46954902428446,31.157984339859315],[121.46436303658709,31.157984339859315],[121.46436303658709,31.157692863677653]]],[[[121.46465114701472,31.157984339859315],[121.46954902428446,31.157984339859315],[121.46954902428446,31.158275816040977],[121.46465114701472,31.158275816040977],[121.46465114701472,31.157984339859315]]],[[[121.46493925744235,31.158275816040977],[121.46954902428446,31.158275816040977],[121.46954902428446,31.15856729222264],[121.46493925744235,31.15856729222264],[121.46493925744235,31.158275816040977]]],[[[121.46493925744235,31.158567292222642],[121.46954902428446,31.158567292222642],[121.46954902428446,31.158858768404304],[121.46493925744235,31.158858768404304],[121.46493925744235,31.158567292222642]]],[[[121.46522736786999,31.158858768404304],[121.46954902428446,31.158858768404304],[121.46954902428446,31.159150244585966],[121.46522736786999,31.159150244585966],[121.46522736786999,31.158858768404304]]],[[[121.46551547829762,31.159150244585966],[121.46954902428446,31.159150244585966],[121.46954902428446,31.159441720767628],[121.46551547829762,31.159441720767628],[121.46551547829762,31.159150244585966]]],[[[121.46551547829762,31.15944172076763],[121.46954902428446,31.15944172076763],[121.46954902428446,31.159733196949293],[121.46551547829762,31.159733196949293],[121.46551547829762,31.15944172076763]]],[[[121.46551547829762,31.159733196949293],[121.46954902428446,31.159733196949293],[121.46954902428446,31.160024673130955],[121.46551547829762,31.160024673130955],[121.46551547829762,31.159733196949293]]],[[[121.46551547829762,31.16002467313096],[121.46954902428446,31.16002467313096],[121.46954902428446,31.16031614931262],[121.46551547829762,31.16031614931262],[121.46551547829762,31.16002467313096]]],[[[121.46551547829762,31.16031614931262],[121.46954902428446,31.16031614931262],[121.46954902428446,31.160607625494283],[121.46551547829762,31.160607625494283],[121.46551547829762,31.16031614931262]]],[[[121.46551547829762,31.160607625494283],[121.46954902428446,31.160607625494283],[121.46954902428446,31.160899101675945],[121.46551547829762,31.160899101675945],[121.46551547829762,31.160607625494283]]],[[[121.46551547829762,31.16089910167595],[121.46954902428446,31.16089910167595],[121.46954902428446,31.16119057785761],[121.46551547829762,31.16119057785761],[121.46551547829762,31.16089910167595]]],[[[121.46551547829762,31.16119057785761],[121.46954902428446,31.16119057785761],[121.46954902428446,31.161482054039272],[121.46551547829762,31.161482054039272],[121.46551547829762,31.16119057785761]]],[[[121.46522736786999,31.161482054039272],[121.46954902428446,31.161482054039272],[121.46954902428446,31.161773530220934],[121.46522736786999,31.161773530220934],[121.46522736786999,31.161482054039272]]],[[[121.46522736786999,31.161773530220938],[121.46954902428446,31.161773530220938],[121.46954902428446,31.1620650064026],[121.46522736786999,31.1620650064026],[121.46522736786999,31.161773530220938]]],[[[121.46522736786999,31.1620650064026],[121.46954902428446,31.1620650064026],[121.46954902428446,31.16235648258426],[121.46522736786999,31.16235648258426],[121.46522736786999,31.1620650064026]]],[[[121.46493925744235,31.16235648258426],[121.46954902428446,31.16235648258426],[121.46954902428446,31.162647958765923],[121.46493925744235,31.162647958765923],[121.46493925744235,31.16235648258426]]],[[[121.46465114701472,31.162647958765927],[121.46954902428446,31.162647958765927],[121.46954902428446,31.16293943494759],[121.46465114701472,31.16293943494759],[121.46465114701472,31.162647958765927]]],[[[121.46465114701472,31.16293943494759],[121.46954902428446,31.16293943494759],[121.46954902428446,31.16323091112925],[121.46465114701472,31.16323091112925],[121.46465114701472,31.16293943494759]]],[[[121.46436303658709,31.163230911129254],[121.46954902428446,31.163230911129254],[121.46954902428446,31.163522387310916],[121.46436303658709,31.163522387310916],[121.46436303658709,31.163230911129254]]],[[[121.46493925744235,31.163522387310916],[121.46954902428446,31.163522387310916],[121.46954902428446,31.163813863492578],[121.46493925744235,31.163813863492578],[121.46493925744235,31.163522387310916]]],[[[121.46580358872525,31.163813863492578],[121.46954902428446,31.163813863492578],[121.46954902428446,31.16410533967424],[121.46580358872525,31.16410533967424],[121.46580358872525,31.163813863492578]]],[[[121.46666792000815,31.164105339674244],[121.46954902428446,31.164105339674244],[121.46954902428446,31.164396815855905],[121.46666792000815,31.164396815855905],[121.46666792000815,31.164105339674244]]],[[[121.46695603043578,31.164396815855905],[121.46954902428446,31.164396815855905],[121.46954902428446,31.164688292037567],[121.46695603043578,31.164688292037567],[121.46695603043578,31.164396815855905]]],[[[121.46753225129103,31.164688292037567],[121.46954902428446,31.164688292037567],[121.46954902428446,31.16497976821923],[121.46753225129103,31.16497976821923],[121.46753225129103,31.164688292037567]]],[[[121.46839658257393,31.164979768219233],[121.46954902428446,31.164979768219233],[121.46954902428446,31.165271244400895],[121.46839658257393,31.165271244400895],[121.46839658257393,31.164979768219233]]],[[[121.4689728034292,31.165271244400895],[121.46954902428446,31.165271244400895],[121.46954902428446,31.165562720582557],[121.4689728034292,31.165562720582557],[121.4689728034292,31.165271244400895]]]]}},{"type":"Feature","properties":{"parcel_id":"xujiahui_caohejing:parcel:0069","geometry_method":"road_barrier_raster_plus_buildings","functional_type":"mixed","dominant_type":"residential","confidence":0.45,"building_count":9,"avg_building_area_m2":1999,"centroid_lng":121.432571,"centroid_lat":31.157832,"parcel_area_m2":79570,"safety_clipped":false,"classification_source":"osm_tags+building_morphology+spatial_prior","synthetic_classification":true,"qc_flags":"low_confidence"},"geometry":{"type":"MultiPolygon","coordinates":[[[[121.43209466869232,31.15565253040601],[121.43238277911995,31.15565253040601],[121.43238277911995,31.15594400658767],[121.43209466869232,31.15594400658767],[121.43209466869232,31.15565253040601]]],[[[121.43151844783706,31.15594400658767],[121.43267088954758,31.15594400658767],[121.43267088954758,31.156235482769333],[121.43151844783706,31.156235482769333],[121.43151844783706,31.15594400658767]]],[[[121.43123033740943,31.156235482769336],[121.43295899997521,31.156235482769336],[121.43295899997521,31.156526958950998],[121.43123033740943,31.156526958950998],[121.43123033740943,31.156235482769336]]],[[[121.4309422269818,31.156526958950998],[121.43353522083048,31.156526958950998],[121.43353522083048,31.15681843513266],[121.4309422269818,31.15681843513266],[121.4309422269818,31.156526958950998]]],[[[121.43065411655417,31.15681843513266],[121.43382333125811,31.15681843513266],[121.43382333125811,31.157109911314322],[121.43065411655417,31.157109911314322],[121.43065411655417,31.15681843513266]]],[[[121.4309422269818,31.157109911314326],[121.43411144168574,31.157109911314326],[121.43411144168574,31.157401387495987],[121.4309422269818,31.157401387495987],[121.4309422269818,31.157109911314326]]],[[[121.43123033740943,31.157401387495987],[121.43439955211338,31.157401387495987],[121.43439955211338,31.15769286367765],[121.43123033740943,31.15769286367765],[121.43123033740943,31.157401387495987]]],[[[121.43151844783706,31.157692863677653],[121.43497577296864,31.157692863677653],[121.43497577296864,31.157984339859315],[121.43151844783706,31.157984339859315],[121.43151844783706,31.157692863677653]]],[[[121.4318065582647,31.157984339859315],[121.43468766254101,31.157984339859315],[121.43468766254101,31.158275816040977],[121.4318065582647,31.158275816040977],[121.4318065582647,31.157984339859315]]],[[[121.43209466869232,31.158275816040977],[121.43411144168574,31.158275816040977],[121.43411144168574,31.15856729222264],[121.43209466869232,31.15856729222264],[121.43209466869232,31.158275816040977]]],[[[121.43238277911995,31.158567292222642],[121.43382333125811,31.158567292222642],[121.43382333125811,31.158858768404304],[121.43238277911995,31.158858768404304],[121.43238277911995,31.158567292222642]]],[[[121.43267088954758,31.158858768404304],[121.43353522083048,31.158858768404304],[121.43353522083048,31.159150244585966],[121.43267088954758,31.159150244585966],[121.43267088954758,31.158858768404304]]]]}},{"type":"Feature","properties":{"parcel_id":"xujiahui_caohejing:parcel:0086","geometry_method":"road_barrier_raster_plus_buildings","functional_type":"mixed","dominant_type":"residential","confidence":0.48,"building_count":15,"avg_building_area_m2":1256,"centroid_lng":121.444702,"centroid_lat":31.160005,"parcel_area_m2":47742,"safety_clipped":false,"classification_source":"osm_tags+building_morphology+spatial_prior","synthetic_classification":true,"qc_flags":"low_confidence"},"geometry":{"type":"MultiPolygon","coordinates":[[[[121.4436190857976,31.158567292222642],[121.44477152750812,31.158567292222642],[121.44477152750812,31.158858768404304],[121.4436190857976,31.158858768404304],[121.4436190857976,31.158567292222642]]],[[[121.4436190857976,31.158858768404304],[121.44505963793576,31.158858768404304],[121.44505963793576,31.159150244585966],[121.4436190857976,31.159150244585966],[121.4436190857976,31.158858768404304]]],[[[121.44333097536996,31.159150244585966],[121.44563585879102,31.159150244585966],[121.44563585879102,31.159441720767628],[121.44333097536996,31.159441720767628],[121.44333097536996,31.159150244585966]]],[[[121.44333097536996,31.15944172076763],[121.44592396921865,31.15944172076763],[121.44592396921865,31.159733196949293],[121.44333097536996,31.159733196949293],[121.44333097536996,31.15944172076763]]],[[[121.4436190857976,31.159733196949293],[121.44592396921865,31.159733196949293],[121.44592396921865,31.160024673130955],[121.4436190857976,31.160024673130955],[121.4436190857976,31.159733196949293]]],[[[121.44419530665286,31.16002467313096],[121.44621207964629,31.16002467313096],[121.44621207964629,31.16031614931262],[121.44419530665286,31.16031614931262],[121.44419530665286,31.16002467313096]]],[[[121.44448341708049,31.16031614931262],[121.44621207964629,31.16031614931262],[121.44621207964629,31.160607625494283],[121.44448341708049,31.160607625494283],[121.44448341708049,31.16031614931262]]],[[[121.44477152750812,31.160607625494283],[121.44621207964629,31.160607625494283],[121.44621207964629,31.160899101675945],[121.44477152750812,31.160899101675945],[121.44477152750812,31.160607625494283]]],[[[121.44505963793576,31.16089910167595],[121.44563585879102,31.16089910167595],[121.44563585879102,31.16119057785761],[121.44505963793576,31.16119057785761],[121.44505963793576,31.16089910167595]]]]}},{"type":"Feature","properties":{"parcel_id":"xujiahui_caohejing:parcel:0127","geometry_method":"road_barrier_raster_plus_buildings","functional_type":"residential","dominant_type":"residential","confidence":0.66,"building_count":38,"avg_building_area_m2":786,"centroid_lng":121.465583,"centroid_lat":31.172123,"parcel_area_m2":1138734,"safety_clipped":false,"classification_source":"osm_tags+building_morphology+spatial_prior","synthetic_classification":true,"qc_flags":""},"geometry":{"type":"MultiPolygon","coordinates":[[[[121.46349870530419,31.164396815855905],[121.46436303658709,31.164396815855905],[121.46436303658709,31.164688292037567],[121.46349870530419,31.164688292037567],[121.46349870530419,31.164396815855905]]],[[[121.46349870530419,31.164688292037567],[121.46493925744235,31.164688292037567],[121.46493925744235,31.16497976821923],[121.46349870530419,31.16497976821923],[121.46349870530419,31.164688292037567]]],[[[121.46321059487656,31.164979768219233],[121.46522736786999,31.164979768219233],[121.46522736786999,31.165271244400895],[121.46321059487656,31.165271244400895],[121.46321059487656,31.164979768219233]]],[[[121.46321059487656,31.165271244400895],[121.46580358872525,31.165271244400895],[121.46580358872525,31.165562720582557],[121.46321059487656,31.165562720582557],[121.46321059487656,31.165271244400895]]],[[[121.46321059487656,31.16556272058256],[121.46609169915288,31.16556272058256],[121.46609169915288,31.165854196764222],[121.46321059487656,31.165854196764222],[121.46321059487656,31.16556272058256]]],[[[121.46321059487656,31.165854196764222],[121.46666792000815,31.165854196764222],[121.46666792000815,31.166145672945884],[121.46321059487656,31.166145672945884],[121.46321059487656,31.165854196764222]]],[[[121.46349870530419,31.166145672945884],[121.46753225129103,31.166145672945884],[121.46753225129103,31.166437149127546],[121.46349870530419,31.166437149127546],[121.46349870530419,31.166145672945884]]],[[[121.46349870530419,31.16643714912755],[121.4681084721463,31.16643714912755],[121.4681084721463,31.16672862530921],[121.46349870530419,31.16672862530921],[121.46349870530419,31.16643714912755]]],[[[121.46407492615946,31.16672862530921],[121.4689728034292,31.16672862530921],[121.4689728034292,31.167020101490873],[121.46407492615946,31.167020101490873],[121.46407492615946,31.16672862530921]]],[[[121.46378681573182,31.167020101490873],[121.46407492615946,31.167020101490873],[121.46407492615946,31.167311577672535],[121.46378681573182,31.167311577672535],[121.46378681573182,31.167020101490873]]],[[[121.46465114701472,31.167020101490873],[121.4689728034292,31.167020101490873],[121.4689728034292,31.167311577672535],[121.46465114701472,31.167311577672535],[121.46465114701472,31.167020101490873]]],[[[121.46378681573182,31.16731157767254],[121.4689728034292,31.16731157767254],[121.4689728034292,31.1676030538542],[121.46378681573182,31.1676030538542],[121.46378681573182,31.16731157767254]]],[[[121.46378681573182,31.1676030538542],[121.46954902428446,31.1676030538542],[121.46954902428446,31.167894530035863],[121.46378681573182,31.167894530035863],[121.46378681573182,31.1676030538542]]],[[[121.46378681573182,31.167894530035866],[121.46954902428446,31.167894530035866],[121.46954902428446,31.168186006217528],[121.46378681573182,31.168186006217528],[121.46378681573182,31.167894530035866]]],[[[121.46407492615946,31.168186006217528],[121.46954902428446,31.168186006217528],[121.46954902428446,31.16847748239919],[121.46407492615946,31.16847748239919],[121.46407492615946,31.168186006217528]]],[[[121.46407492615946,31.16847748239919],[121.46954902428446,31.16847748239919],[121.46954902428446,31.168768958580852],[121.46407492615946,31.168768958580852],[121.46407492615946,31.16847748239919]]],[[[121.46407492615946,31.168768958580856],[121.46926091385683,31.168768958580856],[121.46926091385683,31.169060434762518],[121.46407492615946,31.169060434762518],[121.46407492615946,31.168768958580856]]],[[[121.46407492615946,31.169060434762518],[121.46926091385683,31.169060434762518],[121.46926091385683,31.16935191094418],[121.46407492615946,31.16935191094418],[121.46407492615946,31.169060434762518]]],[[[121.46378681573182,31.16935191094418],[121.46926091385683,31.16935191094418],[121.46926091385683,31.16964338712584],[121.46378681573182,31.16964338712584],[121.46378681573182,31.16935191094418]]],[[[121.46378681573182,31.169643387125845],[121.46926091385683,31.169643387125845],[121.46926091385683,31.169934863307507],[121.46378681573182,31.169934863307507],[121.46378681573182,31.169643387125845]]],[[[121.46378681573182,31.169934863307507],[121.46926091385683,31.169934863307507],[121.46926091385683,31.17022633948917],[121.46378681573182,31.17022633948917],[121.46378681573182,31.169934863307507]]],[[[121.46349870530419,31.17022633948917],[121.46926091385683,31.17022633948917],[121.46926091385683,31.17051781567083],[121.46349870530419,31.17051781567083],[121.46349870530419,31.17022633948917]]],[[[121.46349870530419,31.170517815670834],[121.46926091385683,31.170517815670834],[121.46926091385683,31.170809291852496],[121.46349870530419,31.170809291852496],[121.46349870530419,31.170517815670834]]],[[[121.46349870530419,31.170809291852496],[121.46926091385683,31.170809291852496],[121.46926091385683,31.171100768034158],[121.46349870530419,31.171100768034158],[121.46349870530419,31.170809291852496]]],[[[121.46321059487656,31.17110076803416],[121.46926091385683,31.17110076803416],[121.46926091385683,31.171392244215824],[121.46321059487656,31.171392244215824],[121.46321059487656,31.17110076803416]]],[[[121.46321059487656,31.171392244215824],[121.46926091385683,31.171392244215824],[121.46926091385683,31.171683720397485],[121.46321059487656,31.171683720397485],[121.46321059487656,31.171392244215824]]],[[[121.46321059487656,31.171683720397485],[121.46926091385683,31.171683720397485],[121.46926091385683,31.171975196579147],[121.46321059487656,31.171975196579147],[121.46321059487656,31.171683720397485]]],[[[121.46292248444892,31.17197519657915],[121.46926091385683,31.17197519657915],[121.46926091385683,31.172266672760813],[121.46292248444892,31.172266672760813],[121.46292248444892,31.17197519657915]]],[[[121.46292248444892,31.172266672760813],[121.46926091385683,31.172266672760813],[121.46926091385683,31.172558148942475],[121.46292248444892,31.172558148942475],[121.46292248444892,31.172266672760813]]],[[[121.46292248444892,31.172558148942475],[121.46926091385683,31.172558148942475],[121.46926091385683,31.172849625124137],[121.46292248444892,31.172849625124137],[121.46292248444892,31.172558148942475]]],[[[121.46263437402129,31.17284962512414],[121.46926091385683,31.17284962512414],[121.46926091385683,31.173141101305802],[121.46263437402129,31.173141101305802],[121.46263437402129,31.17284962512414]]],[[[121.46263437402129,31.173141101305802],[121.46868469300156,31.173141101305802],[121.46868469300156,31.173432577487464],[121.46263437402129,31.173432577487464],[121.46263437402129,31.173141101305802]]],[[[121.46263437402129,31.173432577487468],[121.46868469300156,31.173432577487468],[121.46868469300156,31.17372405366913],[121.46263437402129,31.17372405366913],[121.46263437402129,31.173432577487468]]],[[[121.46263437402129,31.17372405366913],[121.46868469300156,31.17372405366913],[121.46868469300156,31.17401552985079],[121.46263437402129,31.17401552985079],[121.46263437402129,31.17372405366913]]],[[[121.46234626359366,31.17401552985079],[121.46868469300156,31.17401552985079],[121.46868469300156,31.174307006032453],[121.46234626359366,31.174307006032453],[121.46234626359366,31.17401552985079]]],[[[121.46234626359366,31.174307006032457],[121.46868469300156,31.174307006032457],[121.46868469300156,31.17459848221412],[121.46234626359366,31.17459848221412],[121.46234626359366,31.174307006032457]]],[[[121.46234626359366,31.17459848221412],[121.46839658257393,31.17459848221412],[121.46839658257393,31.17488995839578],[121.46234626359366,31.17488995839578],[121.46234626359366,31.17459848221412]]],[[[121.46234626359366,31.17488995839578],[121.4681084721463,31.17488995839578],[121.4681084721463,31.175181434577443],[121.46234626359366,31.175181434577443],[121.46234626359366,31.17488995839578]]],[[[121.46234626359366,31.175181434577446],[121.4681084721463,31.175181434577446],[121.4681084721463,31.175472910759108],[121.46234626359366,31.175472910759108],[121.46234626359366,31.175181434577446]]],[[[121.46205815316603,31.175472910759108],[121.4681084721463,31.175472910759108],[121.4681084721463,31.17576438694077],[121.46205815316603,31.17576438694077],[121.46205815316603,31.175472910759108]]],[[[121.46839658257393,31.175472910759108],[121.46868469300156,31.175472910759108],[121.46868469300156,31.17576438694077],[121.46839658257393,31.17576438694077],[121.46839658257393,31.175472910759108]]],[[[121.46205815316603,31.175764386940774],[121.46868469300156,31.175764386940774],[121.46868469300156,31.176055863122436],[121.46205815316603,31.176055863122436],[121.46205815316603,31.175764386940774]]],[[[121.46205815316603,31.176055863122436],[121.46868469300156,31.176055863122436],[121.46868469300156,31.176347339304098],[121.46205815316603,31.176347339304098],[121.46205815316603,31.176055863122436]]],[[[121.46205815316603,31.176347339304098],[121.46868469300156,31.176347339304098],[121.46868469300156,31.17663881548576],[121.46205815316603,31.17663881548576],[121.46205815316603,31.176347339304098]]],[[[121.46234626359366,31.176638815485763],[121.46868469300156,31.176638815485763],[121.46868469300156,31.176930291667425],[121.46234626359366,31.176930291667425],[121.46234626359366,31.176638815485763]]],[[[121.46234626359366,31.176930291667425],[121.46868469300156,31.176930291667425],[121.46868469300156,31.177221767849087],[121.46234626359366,31.177221767849087],[121.46234626359366,31.176930291667425]]],[[[121.46234626359366,31.177221767849087],[121.46868469300156,31.177221767849087],[121.46868469300156,31.17751324403075],[121.46234626359366,31.17751324403075],[121.46234626359366,31.177221767849087]]],[[[121.46263437402129,31.177513244030752],[121.46868469300156,31.177513244030752],[121.46868469300156,31.177804720212414],[121.46263437402129,31.177804720212414],[121.46263437402129,31.177513244030752]]],[[[121.46263437402129,31.177804720212414],[121.46868469300156,31.177804720212414],[121.46868469300156,31.178096196394076],[121.46263437402129,31.178096196394076],[121.46263437402129,31.177804720212414]]],[[[121.46292248444892,31.17809619639408],[121.46868469300156,31.17809619639408],[121.46868469300156,31.17838767257574],[121.46292248444892,31.17838767257574],[121.46292248444892,31.17809619639408]]],[[[121.46292248444892,31.17838767257574],[121.46868469300156,31.17838767257574],[121.46868469300156,31.178679148757404],[121.46292248444892,31.178679148757404],[121.46292248444892,31.17838767257574]]],[[[121.46321059487656,31.178679148757404],[121.46868469300156,31.178679148757404],[121.46868469300156,31.178970624939065],[121.46321059487656,31.178970624939065],[121.46321059487656,31.178679148757404]]],[[[121.46321059487656,31.17897062493907],[121.46868469300156,31.17897062493907],[121.46868469300156,31.17926210112073],[121.46321059487656,31.17926210112073],[121.46321059487656,31.17897062493907]]],[[[121.46321059487656,31.17926210112073],[121.46868469300156,31.17926210112073],[121.46868469300156,31.179553577302393],[121.46321059487656,31.179553577302393],[121.46321059487656,31.17926210112073]]],[[[121.46349870530419,31.179553577302393],[121.46868469300156,31.179553577302393],[121.46868469300156,31.179845053484055],[121.46349870530419,31.179845053484055],[121.46349870530419,31.179553577302393]]],[[[121.46349870530419,31.17984505348406],[121.46868469300156,31.17984505348406],[121.46868469300156,31.18013652966572],[121.46349870530419,31.18013652966572],[121.46349870530419,31.17984505348406]]],[[[121.46378681573182,31.18013652966572],[121.46868469300156,31.18013652966572],[121.46868469300156,31.180428005847382],[121.46378681573182,31.180428005847382],[121.46378681573182,31.18013652966572]]],[[[121.46378681573182,31.180428005847382],[121.46868469300156,31.180428005847382],[121.46868469300156,31.180719482029044],[121.46378681573182,31.180719482029044],[121.46378681573182,31.180428005847382]]],[[[121.46407492615946,31.180719482029048],[121.46868469300156,31.180719482029048],[121.46868469300156,31.18101095821071],[121.46407492615946,31.18101095821071],[121.46407492615946,31.180719482029048]]],[[[121.46407492615946,31.18101095821071],[121.46868469300156,31.18101095821071],[121.46868469300156,31.18130243439237],[121.46407492615946,31.18130243439237],[121.46407492615946,31.18101095821071]]],[[[121.46436303658709,31.181302434392375],[121.46868469300156,31.181302434392375],[121.46868469300156,31.181593910574037],[121.46436303658709,31.181593910574037],[121.46436303658709,31.181302434392375]]],[[[121.46436303658709,31.181593910574037],[121.46868469300156,31.181593910574037],[121.46868469300156,31.1818853867557],[121.46436303658709,31.1818853867557],[121.46436303658709,31.181593910574037]]],[[[121.46465114701472,31.1818853867557],[121.46868469300156,31.1818853867557],[121.46868469300156,31.18217686293736],[121.46465114701472,31.18217686293736],[121.46465114701472,31.1818853867557]]],[[[121.46493925744235,31.182176862937364],[121.46868469300156,31.182176862937364],[121.46868469300156,31.182468339119026],[121.46493925744235,31.182468339119026],[121.46493925744235,31.182176862937364]]],[[[121.46493925744235,31.182468339119026],[121.46868469300156,31.182468339119026],[121.46868469300156,31.182759815300688],[121.46493925744235,31.182759815300688],[121.46493925744235,31.182468339119026]]],[[[121.46493925744235,31.182759815300688],[121.46868469300156,31.182759815300688],[121.46868469300156,31.18305129148235],[121.46493925744235,31.18305129148235],[121.46493925744235,31.182759815300688]]],[[[121.46493925744235,31.183051291482354],[121.46868469300156,31.183051291482354],[121.46868469300156,31.183342767664016],[121.46493925744235,31.183342767664016],[121.46493925744235,31.183051291482354]]],[[[121.46493925744235,31.183342767664016],[121.46868469300156,31.183342767664016],[121.46868469300156,31.183634243845678],[121.46493925744235,31.183634243845678],[121.46493925744235,31.183342767664016]]],[[[121.46465114701472,31.18363424384568],[121.46868469300156,31.18363424384568],[121.46868469300156,31.183925720027343],[121.46465114701472,31.183925720027343],[121.46465114701472,31.18363424384568]]],[[[121.46436303658709,31.183925720027343],[121.46868469300156,31.183925720027343],[121.46868469300156,31.184217196209005],[121.46436303658709,31.184217196209005],[121.46436303658709,31.183925720027343]]],[[[121.46493925744235,31.184217196209005],[121.46868469300156,31.184217196209005],[121.46868469300156,31.184508672390667],[121.46493925744235,31.184508672390667],[121.46493925744235,31.184217196209005]]],[[[121.46551547829762,31.18450867239067],[121.46868469300156,31.18450867239067],[121.46868469300156,31.184800148572332],[121.46551547829762,31.184800148572332],[121.46551547829762,31.18450867239067]]],[[[121.46637980958052,31.184800148572332],[121.46954902428446,31.184800148572332],[121.46954902428446,31.185091624753994],[121.46637980958052,31.185091624753994],[121.46637980958052,31.184800148572332]]],[[[121.46666792000815,31.185091624753994],[121.46954902428446,31.185091624753994],[121.46954902428446,31.185383100935656],[121.46666792000815,31.185383100935656],[121.46666792000815,31.185091624753994]]],[[[121.46695603043578,31.18538310093566],[121.46954902428446,31.18538310093566],[121.46954902428446,31.18567457711732],[121.46695603043578,31.18567457711732],[121.46695603043578,31.18538310093566]]],[[[121.46753225129103,31.18567457711732],[121.46954902428446,31.18567457711732],[121.46954902428446,31.185966053298984],[121.46753225129103,31.185966053298984],[121.46753225129103,31.18567457711732]]],[[[121.4681084721463,31.185966053298987],[121.46954902428446,31.185966053298987],[121.46954902428446,31.18625752948065],[121.4681084721463,31.18625752948065],[121.4681084721463,31.185966053298987]]],[[[121.46839658257393,31.18625752948065],[121.46954902428446,31.18625752948065],[121.46954902428446,31.18654900566231],[121.46839658257393,31.18654900566231],[121.46839658257393,31.18625752948065]]],[[[121.46868469300156,31.18654900566231],[121.46954902428446,31.18654900566231],[121.46954902428446,31.186840481843973],[121.46868469300156,31.186840481843973],[121.46868469300156,31.18654900566231]]],[[[121.46926091385683,31.186840481843976],[121.46954902428446,31.186840481843976],[121.46954902428446,31.18713195802564],[121.46926091385683,31.18713195802564],[121.46926091385683,31.186840481843976]]]]}},{"type":"Feature","properties":{"parcel_id":"xujiahui_caohejing:parcel:0166","geometry_method":"road_barrier_raster_plus_buildings","functional_type":"mixed","dominant_type":"commercial","confidence":0.5,"building_count":5,"avg_building_area_m2":1825,"centroid_lng":121.404471,"centroid_lat":31.171142,"parcel_area_m2":23871,"safety_clipped":false,"classification_source":"osm_tags+building_morphology+spatial_prior","synthetic_classification":true,"qc_flags":"low_confidence"},"geometry":{"type":"MultiPolygon","coordinates":[[[[121.40357173635677,31.17022633948917],[121.40443606763966,31.17022633948917],[121.40443606763966,31.17051781567083],[121.40357173635677,31.17051781567083],[121.40357173635677,31.17022633948917]]],[[[121.40357173635677,31.170517815670834],[121.4055885093502,31.170517815670834],[121.4055885093502,31.170809291852496],[121.40357173635677,31.170809291852496],[121.40357173635677,31.170517815670834]]],[[[121.40328362592913,31.170809291852496],[121.40530039892256,31.170809291852496],[121.40530039892256,31.171100768034158],[121.40328362592913,31.171100768034158],[121.40328362592913,31.170809291852496]]],[[[121.40328362592913,31.17110076803416],[121.40530039892256,31.17110076803416],[121.40530039892256,31.171392244215824],[121.40328362592913,31.171392244215824],[121.40328362592913,31.17110076803416]]],[[[121.40443606763966,31.171392244215824],[121.40530039892256,31.171392244215824],[121.40530039892256,31.171683720397485],[121.40443606763966,31.171683720397485],[121.40443606763966,31.171392244215824]]]]}},{"type":"Feature","properties":{"parcel_id":"xujiahui_caohejing:parcel:0168","geometry_method":"road_barrier_raster_plus_buildings","functional_type":"mixed","dominant_type":"public_service","confidence":0.36,"building_count":22,"avg_building_area_m2":1268,"centroid_lng":121.456117,"centroid_lat":31.17178,"parcel_area_m2":66308,"safety_clipped":false,"classification_source":"osm_tags+building_morphology+spatial_prior","synthetic_classification":true,"qc_flags":"low_confidence"},"geometry":{"type":"MultiPolygon","coordinates":[[[[121.45399106119234,31.170517815670834],[121.45485539247524,31.170517815670834],[121.45485539247524,31.170809291852496],[121.45399106119234,31.170809291852496],[121.45399106119234,31.170517815670834]]],[[[121.45427917161997,31.170809291852496],[121.45514350290287,31.170809291852496],[121.45514350290287,31.171100768034158],[121.45427917161997,31.171100768034158],[121.45427917161997,31.170809291852496]]],[[[121.4554316133305,31.170809291852496],[121.4562959446134,31.170809291852496],[121.4562959446134,31.171100768034158],[121.4554316133305,31.171100768034158],[121.4554316133305,31.170809291852496]]],[[[121.45427917161997,31.17110076803416],[121.45744838632392,31.17110076803416],[121.45744838632392,31.171392244215824],[121.45427917161997,31.171392244215824],[121.45427917161997,31.17110076803416]]],[[[121.4545672820476,31.171392244215824],[121.45716027589629,31.171392244215824],[121.45716027589629,31.171683720397485],[121.4545672820476,31.171683720397485],[121.4545672820476,31.171392244215824]]],[[[121.4545672820476,31.171683720397485],[121.45716027589629,31.171683720397485],[121.45716027589629,31.171975196579147],[121.4545672820476,31.171975196579147],[121.4545672820476,31.171683720397485]]],[[[121.4545672820476,31.17197519657915],[121.45716027589629,31.17197519657915],[121.45716027589629,31.172266672760813],[121.4545672820476,31.172266672760813],[121.4545672820476,31.17197519657915]]],[[[121.45485539247524,31.172266672760813],[121.45716027589629,31.172266672760813],[121.45716027589629,31.172558148942475],[121.45485539247524,31.172558148942475],[121.45485539247524,31.172266672760813]]],[[[121.45485539247524,31.172558148942475],[121.45716027589629,31.172558148942475],[121.45716027589629,31.172849625124137],[121.45485539247524,31.172849625124137],[121.45485539247524,31.172558148942475]]],[[[121.45485539247524,31.17284962512414],[121.45687216546867,31.17284962512414],[121.45687216546867,31.173141101305802],[121.45485539247524,31.173141101305802],[121.45485539247524,31.17284962512414]]],[[[121.4554316133305,31.173141101305802],[121.45687216546867,31.173141101305802],[121.45687216546867,31.173432577487464],[121.4554316133305,31.173432577487464],[121.4554316133305,31.173141101305802]]]]}},{"type":"Feature","properties":{"parcel_id":"xujiahui_caohejing:parcel:0189","geometry_method":"road_barrier_raster_plus_buildings","functional_type":"mixed","dominant_type":"office","confidence":0.5,"building_count":22,"avg_building_area_m2":1357,"centroid_lng":121.407201,"centroid_lat":31.174434,"parcel_area_m2":76918,"safety_clipped":false,"classification_source":"osm_tags+building_morphology+spatial_prior","synthetic_classification":true,"qc_flags":"low_confidence"},"geometry":{"type":"MultiPolygon","coordinates":[[[[121.40587661977783,31.173141101305802],[121.40731717191598,31.173141101305802],[121.40731717191598,31.173432577487464],[121.40587661977783,31.173432577487464],[121.40587661977783,31.173141101305802]]],[[[121.40587661977783,31.173432577487468],[121.40875772405414,31.173432577487468],[121.40875772405414,31.17372405366913],[121.40587661977783,31.17372405366913],[121.40587661977783,31.173432577487468]]],[[[121.40587661977783,31.17372405366913],[121.40875772405414,31.17372405366913],[121.40875772405414,31.17401552985079],[121.40587661977783,31.17401552985079],[121.40587661977783,31.17372405366913]]],[[[121.40587661977783,31.17401552985079],[121.40875772405414,31.17401552985079],[121.40875772405414,31.174307006032453],[121.40587661977783,31.174307006032453],[121.40587661977783,31.17401552985079]]],[[[121.4055885093502,31.174307006032457],[121.40875772405414,31.174307006032457],[121.40875772405414,31.17459848221412],[121.4055885093502,31.17459848221412],[121.4055885093502,31.174307006032457]]],[[[121.4055885093502,31.17459848221412],[121.40875772405414,31.17459848221412],[121.40875772405414,31.17488995839578],[121.4055885093502,31.17488995839578],[121.4055885093502,31.17459848221412]]],[[[121.4055885093502,31.17488995839578],[121.40846961362651,31.17488995839578],[121.40846961362651,31.175181434577443],[121.4055885093502,31.175181434577443],[121.4055885093502,31.17488995839578]]],[[[121.4055885093502,31.175181434577446],[121.40846961362651,31.175181434577446],[121.40846961362651,31.175472910759108],[121.4055885093502,31.175472910759108],[121.4055885093502,31.175181434577446]]],[[[121.4064528406331,31.175472910759108],[121.40846961362651,31.175472910759108],[121.40846961362651,31.17576438694077],[121.4064528406331,31.17576438694077],[121.4064528406331,31.175472910759108]]],[[[121.40760528234361,31.175764386940774],[121.40846961362651,31.175764386940774],[121.40846961362651,31.176055863122436],[121.40760528234361,31.176055863122436],[121.40760528234361,31.175764386940774]]]]}},{"type":"Feature","properties":{"parcel_id":"xujiahui_caohejing:parcel:0198","geometry_method":"road_barrier_raster_plus_buildings","functional_type":"mixed","dominant_type":"residential","confidence":0.43,"building_count":8,"avg_building_area_m2":1144,"centroid_lng":121.429359,"centroid_lat":31.175646,"parcel_area_m2":23871,"safety_clipped":false,"classification_source":"osm_tags+building_morphology+spatial_prior","synthetic_classification":true,"qc_flags":"low_confidence"},"geometry":{"type":"MultiPolygon","coordinates":[[[[121.42978978527127,31.17459848221412],[121.43065411655417,31.17459848221412],[121.43065411655417,31.17488995839578],[121.42978978527127,31.17488995839578],[121.42978978527127,31.17459848221412]]],[[[121.42978978527127,31.17488995839578],[121.43065411655417,31.17488995839578],[121.43065411655417,31.175181434577443],[121.42978978527127,31.175181434577443],[121.42978978527127,31.17488995839578]]],[[[121.42950167484364,31.175181434577446],[121.43036600612653,31.175181434577446],[121.43036600612653,31.175472910759108],[121.42950167484364,31.175472910759108],[121.42950167484364,31.175181434577446]]],[[[121.429213564416,31.175472910759108],[121.43036600612653,31.175472910759108],[121.43036600612653,31.17576438694077],[121.429213564416,31.17576438694077],[121.429213564416,31.175472910759108]]],[[[121.429213564416,31.175764386940774],[121.43036600612653,31.175764386940774],[121.43036600612653,31.176055863122436],[121.429213564416,31.176055863122436],[121.429213564416,31.175764386940774]]],[[[121.42892545398837,31.176055863122436],[121.4300778956989,31.176055863122436],[121.4300778956989,31.176347339304098],[121.42892545398837,31.176347339304098],[121.42892545398837,31.176055863122436]]],[[[121.42892545398837,31.176347339304098],[121.42978978527127,31.176347339304098],[121.42978978527127,31.17663881548576],[121.42892545398837,31.17663881548576],[121.42892545398837,31.176347339304098]]],[[[121.42863734356074,31.176638815485763],[121.42950167484364,31.176638815485763],[121.42950167484364,31.176930291667425],[121.42863734356074,31.176930291667425],[121.42863734356074,31.176638815485763]]]]}},{"type":"Feature","properties":{"parcel_id":"xujiahui_caohejing:parcel:0214","geometry_method":"road_barrier_raster_plus_buildings","functional_type":"mixed","dominant_type":"commercial","confidence":0.37,"building_count":13,"avg_building_area_m2":1681,"centroid_lng":121.409638,"centroid_lat":31.178099,"parcel_area_m2":38901,"safety_clipped":false,"classification_source":"osm_tags+building_morphology+spatial_prior","synthetic_classification":true,"qc_flags":"low_confidence"},"geometry":{"type":"MultiPolygon","coordinates":[[[[121.4093339449094,31.176347339304098],[121.40962205533704,31.176347339304098],[121.40962205533704,31.17663881548576],[121.4093339449094,31.17663881548576],[121.4093339449094,31.176347339304098]]],[[[121.4093339449094,31.176638815485763],[121.41048638661994,31.176638815485763],[121.41048638661994,31.176930291667425],[121.4093339449094,31.176930291667425],[121.4093339449094,31.176638815485763]]],[[[121.40904583448177,31.176930291667425],[121.41077449704757,31.176930291667425],[121.41077449704757,31.177221767849087],[121.40904583448177,31.177221767849087],[121.40904583448177,31.176930291667425]]],[[[121.40904583448177,31.177221767849087],[121.41048638661994,31.177221767849087],[121.41048638661994,31.17751324403075],[121.40904583448177,31.17751324403075],[121.40904583448177,31.177221767849087]]],[[[121.40904583448177,31.177513244030752],[121.41048638661994,31.177513244030752],[121.41048638661994,31.177804720212414],[121.40904583448177,31.177804720212414],[121.40904583448177,31.177513244030752]]],[[[121.40904583448177,31.177804720212414],[121.41048638661994,31.177804720212414],[121.41048638661994,31.178096196394076],[121.40904583448177,31.178096196394076],[121.40904583448177,31.177804720212414]]],[[[121.40904583448177,31.17809619639408],[121.4101982761923,31.17809619639408],[121.4101982761923,31.17838767257574],[121.40904583448177,31.17838767257574],[121.40904583448177,31.17809619639408]]],[[[121.40904583448177,31.17838767257574],[121.4101982761923,31.17838767257574],[121.4101982761923,31.178679148757404],[121.40904583448177,31.178679148757404],[121.40904583448177,31.17838767257574]]],[[[121.40904583448177,31.178679148757404],[121.4101982761923,31.178679148757404],[121.4101982761923,31.178970624939065],[121.40904583448177,31.178970624939065],[121.40904583448177,31.178679148757404]]],[[[121.40875772405414,31.17897062493907],[121.40991016576467,31.17897062493907],[121.40991016576467,31.17926210112073],[121.40875772405414,31.17926210112073],[121.40875772405414,31.17897062493907]]],[[[121.4093339449094,31.17926210112073],[121.40991016576467,31.17926210112073],[121.40991016576467,31.179553577302393],[121.4093339449094,31.179553577302393],[121.4093339449094,31.17926210112073]]]]}},{"type":"Feature","properties":{"parcel_id":"xujiahui_caohejing:parcel:0222","geometry_method":"road_barrier_raster_plus_buildings","functional_type":"mixed","dominant_type":"office","confidence":0.48,"building_count":3,"avg_building_area_m2":1680,"centroid_lng":121.416261,"centroid_lat":31.177567,"parcel_area_m2":3536,"safety_clipped":false,"classification_source":"osm_tags+building_morphology+spatial_prior","synthetic_classification":true,"qc_flags":"low_confidence"},"geometry":{"type":"MultiPolygon","coordinates":[[[[121.41567237431731,31.177221767849087],[121.41624859517258,31.177221767849087],[121.41624859517258,31.17751324403075],[121.41567237431731,31.17751324403075],[121.41567237431731,31.177221767849087]]],[[[121.41596048474494,31.177513244030752],[121.41653670560021,31.177513244030752],[121.41653670560021,31.177804720212414],[121.41596048474494,31.177804720212414],[121.41596048474494,31.177513244030752]]]]}},{"type":"Feature","properties":{"parcel_id":"xujiahui_caohejing:parcel:0272","geometry_method":"road_barrier_raster_plus_buildings","functional_type":"mixed","dominant_type":"residential","confidence":0.49,"building_count":9,"avg_building_area_m2":1006,"centroid_lng":121.452068,"centroid_lat":31.188808,"parcel_area_m2":103441,"safety_clipped":false,"classification_source":"osm_tags+building_morphology+spatial_prior","synthetic_classification":true,"qc_flags":"low_confidence"},"geometry":{"type":"MultiPolygon","coordinates":[[[[121.45024562563313,31.18713195802564],[121.45110995691603,31.18713195802564],[121.45110995691603,31.1874234342073],[121.45024562563313,31.1874234342073],[121.45024562563313,31.18713195802564]]],[[[121.45312672990944,31.18713195802564],[121.45370295076471,31.18713195802564],[121.45370295076471,31.1874234342073],[121.45312672990944,31.1874234342073],[121.45312672990944,31.18713195802564]]],[[[121.4499575152055,31.1874234342073],[121.4516861777713,31.1874234342073],[121.4516861777713,31.187714910388962],[121.4499575152055,31.187714910388962],[121.4499575152055,31.1874234342073]]],[[[121.45341484033708,31.1874234342073],[121.45485539247524,31.1874234342073],[121.45485539247524,31.187714910388962],[121.45341484033708,31.187714910388962],[121.45341484033708,31.1874234342073]]],[[[121.4499575152055,31.187714910388966],[121.45226239862654,31.187714910388966],[121.45226239862654,31.188006386570628],[121.4499575152055,31.188006386570628],[121.4499575152055,31.187714910388966]]],[[[121.45283861948181,31.187714910388966],[121.45571972375814,31.187714910388966],[121.45571972375814,31.188006386570628],[121.45283861948181,31.188006386570628],[121.45283861948181,31.187714910388966]]],[[[121.4499575152055,31.188006386570628],[121.45255050905418,31.188006386570628],[121.45255050905418,31.18829786275229],[121.4499575152055,31.18829786275229],[121.4499575152055,31.188006386570628]]],[[[121.45312672990944,31.188006386570628],[121.4554316133305,31.188006386570628],[121.4554316133305,31.18829786275229],[121.45312672990944,31.18829786275229],[121.45312672990944,31.188006386570628]]],[[[121.44966940477786,31.18829786275229],[121.45197428819893,31.18829786275229],[121.45197428819893,31.18858933893395],[121.44966940477786,31.18858933893395],[121.44966940477786,31.18829786275229]]],[[[121.45312672990944,31.18829786275229],[121.4554316133305,31.18829786275229],[121.4554316133305,31.18858933893395],[121.45312672990944,31.18858933893395],[121.45312672990944,31.18829786275229]]],[[[121.4499575152055,31.188589338933955],[121.45226239862654,31.188589338933955],[121.45226239862654,31.188880815115617],[121.4499575152055,31.188880815115617],[121.4499575152055,31.188589338933955]]],[[[121.45370295076471,31.188589338933955],[121.45514350290287,31.188589338933955],[121.45514350290287,31.188880815115617],[121.45370295076471,31.188880815115617],[121.45370295076471,31.188589338933955]]],[[[121.4508218464884,31.188880815115617],[121.45283861948181,31.188880815115617],[121.45283861948181,31.18917229129728],[121.4508218464884,31.18917229129728],[121.4508218464884,31.188880815115617]]],[[[121.45399106119234,31.188880815115617],[121.45514350290287,31.188880815115617],[121.45514350290287,31.18917229129728],[121.45399106119234,31.18917229129728],[121.45399106119234,31.188880815115617]]],[[[121.45197428819893,31.189172291297282],[121.45283861948181,31.189172291297282],[121.45283861948181,31.189463767478944],[121.45197428819893,31.189463767478944],[121.45197428819893,31.189172291297282]]],[[[121.45312672990944,31.189172291297282],[121.45370295076471,31.189172291297282],[121.45370295076471,31.189463767478944],[121.45312672990944,31.189463767478944],[121.45312672990944,31.189172291297282]]],[[[121.45427917161997,31.189172291297282],[121.45514350290287,31.189172291297282],[121.45514350290287,31.189463767478944],[121.45427917161997,31.189463767478944],[121.45427917161997,31.189172291297282]]],[[[121.45226239862654,31.189463767478944],[121.45485539247524,31.189463767478944],[121.45485539247524,31.189755243660606],[121.45226239862654,31.189755243660606],[121.45226239862654,31.189463767478944]]],[[[121.45312672990944,31.189755243660606],[121.45485539247524,31.189755243660606],[121.45485539247524,31.190046719842268],[121.45312672990944,31.190046719842268],[121.45312672990944,31.189755243660606]]],[[[121.45370295076471,31.19004671984227],[121.4545672820476,31.19004671984227],[121.4545672820476,31.190338196023934],[121.45370295076471,31.190338196023934],[121.45370295076471,31.19004671984227]]]]}},{"type":"Feature","properties":{"parcel_id":"xujiahui_caohejing:parcel:0279","geometry_method":"road_barrier_raster_plus_buildings","functional_type":"mixed","dominant_type":"office","confidence":0.45,"building_count":9,"avg_building_area_m2":1997,"centroid_lng":121.395341,"centroid_lat":31.18871,"parcel_area_m2":8841,"safety_clipped":false,"classification_source":"osm_tags+building_morphology+spatial_prior","synthetic_classification":true,"qc_flags":"low_confidence"},"geometry":{"type":"MultiPolygon","coordinates":[[[[121.39550464438308,31.188006386570628],[121.39608086523835,31.188006386570628],[121.39608086523835,31.18829786275229],[121.39550464438308,31.18829786275229],[121.39550464438308,31.188006386570628]]],[[[121.39550464438308,31.18829786275229],[121.39636897566598,31.18829786275229],[121.39636897566598,31.18858933893395],[121.39550464438308,31.18858933893395],[121.39550464438308,31.18829786275229]]],[[[121.39550464438308,31.188589338933955],[121.39608086523835,31.188589338933955],[121.39608086523835,31.188880815115617],[121.39550464438308,31.188880815115617],[121.39550464438308,31.188589338933955]]],[[[121.39550464438308,31.188880815115617],[121.39608086523835,31.188880815115617],[121.39608086523835,31.18917229129728],[121.39550464438308,31.18917229129728],[121.39550464438308,31.188880815115617]]],[[[121.39550464438308,31.189172291297282],[121.39579275481071,31.189172291297282],[121.39579275481071,31.189463767478944],[121.39550464438308,31.189463767478944],[121.39550464438308,31.189172291297282]]]]}},{"type":"Feature","properties":{"parcel_id":"xujiahui_caohejing:parcel:0300","geometry_method":"road_barrier_raster_plus_buildings","functional_type":"mixed","dominant_type":"commercial","confidence":0.45,"building_count":23,"avg_building_area_m2":1278,"centroid_lng":121.436326,"centroid_lat":31.192205,"parcel_area_m2":39785,"safety_clipped":false,"classification_source":"osm_tags+building_morphology+spatial_prior","synthetic_classification":true,"qc_flags":"low_confidence"},"geometry":{"type":"MultiPolygon","coordinates":[[[[121.43497577296864,31.190338196023934],[121.4355519938239,31.190338196023934],[121.4355519938239,31.190629672205596],[121.43497577296864,31.190629672205596],[121.43497577296864,31.190338196023934]]],[[[121.43439955211338,31.190629672205596],[121.4355519938239,31.190629672205596],[121.4355519938239,31.190921148387257],[121.43439955211338,31.190921148387257],[121.43439955211338,31.190629672205596]]],[[[121.43439955211338,31.19092114838726],[121.43670443553444,31.19092114838726],[121.43670443553444,31.191212624568923],[121.43439955211338,31.191212624568923],[121.43439955211338,31.19092114838726]]],[[[121.43439955211338,31.191212624568923],[121.43670443553444,31.191212624568923],[121.43670443553444,31.191504100750585],[121.43439955211338,31.191504100750585],[121.43439955211338,31.191212624568923]]],[[[121.43439955211338,31.19150410075059],[121.43728065638969,31.19150410075059],[121.43728065638969,31.19179557693225],[121.43439955211338,31.19179557693225],[121.43439955211338,31.19150410075059]]],[[[121.43497577296864,31.19179557693225],[121.43728065638969,31.19179557693225],[121.43728065638969,31.192087053113912],[121.43497577296864,31.192087053113912],[121.43497577296864,31.19179557693225]]],[[[121.43584010425154,31.192087053113912],[121.43728065638969,31.192087053113912],[121.43728065638969,31.192378529295574],[121.43584010425154,31.192378529295574],[121.43584010425154,31.192087053113912]]]]}},{"type":"Feature","properties":{"parcel_id":"xujiahui_caohejing:parcel:0308","geometry_method":"road_barrier_raster_plus_buildings","functional_type":"mixed","dominant_type":"office","confidence":0.45,"building_count":9,"avg_building_area_m2":1709,"centroid_lng":121.414723,"centroid_lat":31.194749,"parcel_area_m2":46858,"safety_clipped":false,"classification_source":"osm_tags+building_morphology+spatial_prior","synthetic_classification":true,"qc_flags":"low_confidence"},"geometry":{"type":"MultiPolygon","coordinates":[[[[121.41394371175151,31.19150410075059],[121.41480804303441,31.19150410075059],[121.41480804303441,31.19179557693225],[121.41394371175151,31.19179557693225],[121.41394371175151,31.19150410075059]]],[[[121.41394371175151,31.19179557693225],[121.41480804303441,31.19179557693225],[121.41480804303441,31.192087053113912],[121.41394371175151,31.192087053113912],[121.41394371175151,31.19179557693225]]],[[[121.41394371175151,31.192087053113912],[121.41480804303441,31.192087053113912],[121.41480804303441,31.192378529295574],[121.41394371175151,31.192378529295574],[121.41394371175151,31.192087053113912]]],[[[121.41394371175151,31.192378529295578],[121.41480804303441,31.192378529295578],[121.41480804303441,31.19267000547724],[121.41394371175151,31.19267000547724],[121.41394371175151,31.192378529295578]]],[[[121.41394371175151,31.19267000547724],[121.41480804303441,31.19267000547724],[121.41480804303441,31.1929614816589],[121.41394371175151,31.1929614816589],[121.41394371175151,31.19267000547724]]],[[[121.41394371175151,31.1929614816589],[121.41480804303441,31.1929614816589],[121.41480804303441,31.193252957840564],[121.41394371175151,31.193252957840564],[121.41394371175151,31.1929614816589]]],[[[121.41394371175151,31.193252957840567],[121.41509615346204,31.193252957840567],[121.41509615346204,31.19354443402223],[121.41394371175151,31.19354443402223],[121.41394371175151,31.193252957840567]]],[[[121.41394371175151,31.19354443402223],[121.41509615346204,31.19354443402223],[121.41509615346204,31.19383591020389],[121.41394371175151,31.19383591020389],[121.41394371175151,31.19354443402223]]],[[[121.41394371175151,31.193835910203894],[121.41509615346204,31.193835910203894],[121.41509615346204,31.194127386385556],[121.41394371175151,31.194127386385556],[121.41394371175151,31.193835910203894]]],[[[121.41394371175151,31.194127386385556],[121.41509615346204,31.194127386385556],[121.41509615346204,31.19441886256722],[121.41394371175151,31.19441886256722],[121.41394371175151,31.194127386385556]]],[[[121.41394371175151,31.19441886256722],[121.41596048474494,31.19441886256722],[121.41596048474494,31.19471033874888],[121.41394371175151,31.19471033874888],[121.41394371175151,31.19441886256722]]],[[[121.41394371175151,31.194710338748884],[121.41567237431731,31.194710338748884],[121.41567237431731,31.195001814930546],[121.41394371175151,31.195001814930546],[121.41394371175151,31.194710338748884]]],[[[121.41394371175151,31.195001814930546],[121.41538426388968,31.195001814930546],[121.41538426388968,31.195293291112208],[121.41394371175151,31.195293291112208],[121.41394371175151,31.195001814930546]]],[[[121.41394371175151,31.195293291112208],[121.41423182217915,31.195293291112208],[121.41423182217915,31.19558476729387],[121.41394371175151,31.19558476729387],[121.41394371175151,31.195293291112208]]]]}},{"type":"Feature","properties":{"parcel_id":"xujiahui_caohejing:parcel:0321","geometry_method":"road_barrier_raster_plus_buildings","functional_type":"mixed","dominant_type":"public_service","confidence":0.46,"building_count":42,"avg_building_area_m2":1335,"centroid_lng":121.448577,"centroid_lat":31.195355,"parcel_area_m2":155603,"safety_clipped":false,"classification_source":"osm_tags+building_morphology+spatial_prior","synthetic_classification":true,"qc_flags":"low_confidence"},"geometry":{"type":"MultiPolygon","coordinates":[[[[121.4473645213568,31.192378529295578],[121.44794074221207,31.192378529295578],[121.44794074221207,31.19267000547724],[121.4473645213568,31.19267000547724],[121.4473645213568,31.192378529295578]]],[[[121.4473645213568,31.19267000547724],[121.4482288526397,31.19267000547724],[121.4482288526397,31.1929614816589],[121.4473645213568,31.1929614816589],[121.4473645213568,31.19267000547724]]],[[[121.44707641092918,31.1929614816589],[121.44880507349497,31.1929614816589],[121.44880507349497,31.193252957840564],[121.44707641092918,31.193252957840564],[121.44707641092918,31.1929614816589]]],[[[121.44707641092918,31.193252957840567],[121.44938129435023,31.193252957840567],[121.44938129435023,31.19354443402223],[121.44707641092918,31.19354443402223],[121.44707641092918,31.193252957840567]]],[[[121.44707641092918,31.19354443402223],[121.4499575152055,31.19354443402223],[121.4499575152055,31.19383591020389],[121.44707641092918,31.19383591020389],[121.44707641092918,31.19354443402223]]],[[[121.44678830050155,31.193835910203894],[121.45024562563313,31.193835910203894],[121.45024562563313,31.194127386385556],[121.44678830050155,31.194127386385556],[121.44678830050155,31.193835910203894]]],[[[121.44678830050155,31.194127386385556],[121.45053373606076,31.194127386385556],[121.45053373606076,31.19441886256722],[121.44678830050155,31.19441886256722],[121.44678830050155,31.194127386385556]]],[[[121.44650019007392,31.19441886256722],[121.45110995691603,31.19441886256722],[121.45110995691603,31.19471033874888],[121.44650019007392,31.19471033874888],[121.44650019007392,31.19441886256722]]],[[[121.44650019007392,31.194710338748884],[121.4490931839226,31.194710338748884],[121.4490931839226,31.195001814930546],[121.44650019007392,31.195001814930546],[121.44650019007392,31.194710338748884]]],[[[121.44938129435023,31.194710338748884],[121.45139806734366,31.194710338748884],[121.45139806734366,31.195001814930546],[121.44938129435023,31.195001814930546],[121.44938129435023,31.194710338748884]]],[[[121.44621207964629,31.195001814930546],[121.44880507349497,31.195001814930546],[121.44880507349497,31.195293291112208],[121.44621207964629,31.195293291112208],[121.44621207964629,31.195001814930546]]],[[[121.44938129435023,31.195001814930546],[121.45139806734366,31.195001814930546],[121.45139806734366,31.195293291112208],[121.44938129435023,31.195293291112208],[121.44938129435023,31.195001814930546]]],[[[121.44592396921865,31.195293291112208],[121.4490931839226,31.195293291112208],[121.4490931839226,31.19558476729387],[121.44592396921865,31.19558476729387],[121.44592396921865,31.195293291112208]]],[[[121.45024562563313,31.195293291112208],[121.4508218464884,31.195293291112208],[121.4508218464884,31.19558476729387],[121.45024562563313,31.19558476729387],[121.45024562563313,31.195293291112208]]],[[[121.44592396921865,31.195584767293873],[121.4490931839226,31.195584767293873],[121.4490931839226,31.195876243475535],[121.44592396921865,31.195876243475535],[121.44592396921865,31.195584767293873]]],[[[121.44592396921865,31.195876243475535],[121.44765263178444,31.195876243475535],[121.44765263178444,31.196167719657197],[121.44592396921865,31.196167719657197],[121.44592396921865,31.195876243475535]]],[[[121.4482288526397,31.195876243475535],[121.4490931839226,31.195876243475535],[121.4490931839226,31.196167719657197],[121.4482288526397,31.196167719657197],[121.4482288526397,31.195876243475535]]],[[[121.44592396921865,31.196167719657197],[121.4473645213568,31.196167719657197],[121.4473645213568,31.19645919583886],[121.44592396921865,31.19645919583886],[121.44592396921865,31.196167719657197]]],[[[121.44650019007392,31.196459195838862],[121.4473645213568,31.196459195838862],[121.4473645213568,31.196750672020524],[121.44650019007392,31.196750672020524],[121.44650019007392,31.196459195838862]]],[[[121.4490931839226,31.196459195838862],[121.4499575152055,31.196459195838862],[121.4499575152055,31.196750672020524],[121.4490931839226,31.196750672020524],[121.4490931839226,31.196459195838862]]],[[[121.44707641092918,31.196750672020524],[121.44794074221207,31.196750672020524],[121.44794074221207,31.197042148202186],[121.44707641092918,31.197042148202186],[121.44707641092918,31.196750672020524]]],[[[121.44880507349497,31.196750672020524],[121.45024562563313,31.196750672020524],[121.45024562563313,31.197042148202186],[121.44880507349497,31.197042148202186],[121.44880507349497,31.196750672020524]]],[[[121.44765263178444,31.19704214820219],[121.45024562563313,31.19704214820219],[121.45024562563313,31.19733362438385],[121.44765263178444,31.19733362438385],[121.44765263178444,31.19704214820219]]],[[[121.4482288526397,31.19733362438385],[121.45024562563313,31.19733362438385],[121.45024562563313,31.197625100565514],[121.4482288526397,31.197625100565514],[121.4482288526397,31.19733362438385]]],[[[121.4490931839226,31.197625100565514],[121.45024562563313,31.197625100565514],[121.45024562563313,31.197916576747176],[121.4490931839226,31.197916576747176],[121.4490931839226,31.197625100565514]]],[[[121.44966940477786,31.19791657674718],[121.45024562563313,31.19791657674718],[121.45024562563313,31.19820805292884],[121.44966940477786,31.19820805292884],[121.44966940477786,31.19791657674718]]]]}},{"type":"Feature","properties":{"parcel_id":"xujiahui_caohejing:parcel:0344","geometry_method":"road_barrier_raster_plus_buildings","functional_type":"mixed","dominant_type":"residential","confidence":0.5,"building_count":21,"avg_building_area_m2":627,"centroid_lng":121.464155,"centroid_lat":31.195496,"parcel_area_m2":22103,"safety_clipped":false,"classification_source":"osm_tags+building_morphology+spatial_prior","synthetic_classification":true,"qc_flags":"low_confidence"},"geometry":{"type":"MultiPolygon","coordinates":[[[[121.46407492615946,31.19441886256722],[121.46436303658709,31.19441886256722],[121.46436303658709,31.19471033874888],[121.46407492615946,31.19471033874888],[121.46407492615946,31.19441886256722]]],[[[121.46407492615946,31.194710338748884],[121.46551547829762,31.194710338748884],[121.46551547829762,31.195001814930546],[121.46407492615946,31.195001814930546],[121.46407492615946,31.194710338748884]]],[[[121.46378681573182,31.195001814930546],[121.46465114701472,31.195001814930546],[121.46465114701472,31.195293291112208],[121.46378681573182,31.195293291112208],[121.46378681573182,31.195001814930546]]],[[[121.46493925744235,31.195001814930546],[121.46551547829762,31.195001814930546],[121.46551547829762,31.195293291112208],[121.46493925744235,31.195293291112208],[121.46493925744235,31.195001814930546]]],[[[121.46378681573182,31.195293291112208],[121.46465114701472,31.195293291112208],[121.46465114701472,31.19558476729387],[121.46378681573182,31.19558476729387],[121.46378681573182,31.195293291112208]]],[[[121.46493925744235,31.195293291112208],[121.46522736786999,31.195293291112208],[121.46522736786999,31.19558476729387],[121.46493925744235,31.19558476729387],[121.46493925744235,31.195293291112208]]],[[[121.46349870530419,31.195584767293873],[121.46465114701472,31.195584767293873],[121.46465114701472,31.195876243475535],[121.46349870530419,31.195876243475535],[121.46349870530419,31.195584767293873]]],[[[121.46407492615946,31.195876243475535],[121.46493925744235,31.195876243475535],[121.46493925744235,31.196167719657197],[121.46407492615946,31.196167719657197],[121.46407492615946,31.195876243475535]]],[[[121.46436303658709,31.196167719657197],[121.46493925744235,31.196167719657197],[121.46493925744235,31.19645919583886],[121.46436303658709,31.19645919583886],[121.46436303658709,31.196167719657197]]],[[[121.46436303658709,31.196459195838862],[121.46465114701472,31.196459195838862],[121.46465114701472,31.196750672020524],[121.46436303658709,31.196750672020524],[121.46436303658709,31.196459195838862]]]]}},{"type":"Feature","properties":{"parcel_id":"xujiahui_caohejing:parcel:0351","geometry_method":"road_barrier_raster_plus_buildings","functional_type":"mixed","dominant_type":"public_service","confidence":0.42,"building_count":27,"avg_building_area_m2":1392,"centroid_lng":121.453002,"centroid_lat":31.197401,"parcel_area_m2":99020,"safety_clipped":false,"classification_source":"osm_tags+building_morphology+spatial_prior","synthetic_classification":true,"qc_flags":"low_confidence"},"geometry":{"type":"MultiPolygon","coordinates":[[[[121.45255050905418,31.195293291112208],[121.45341484033708,31.195293291112208],[121.45341484033708,31.19558476729387],[121.45255050905418,31.19558476729387],[121.45255050905418,31.195293291112208]]],[[[121.45226239862654,31.195584767293873],[121.45427917161997,31.195584767293873],[121.45427917161997,31.195876243475535],[121.45226239862654,31.195876243475535],[121.45226239862654,31.195584767293873]]],[[[121.45226239862654,31.195876243475535],[121.45514350290287,31.195876243475535],[121.45514350290287,31.196167719657197],[121.45226239862654,31.196167719657197],[121.45226239862654,31.195876243475535]]],[[[121.45197428819893,31.196167719657197],[121.45514350290287,31.196167719657197],[121.45514350290287,31.19645919583886],[121.45197428819893,31.19645919583886],[121.45197428819893,31.196167719657197]]],[[[121.4516861777713,31.196459195838862],[121.45514350290287,31.196459195838862],[121.45514350290287,31.196750672020524],[121.4516861777713,31.196750672020524],[121.4516861777713,31.196459195838862]]],[[[121.45139806734366,31.196750672020524],[121.45514350290287,31.196750672020524],[121.45514350290287,31.197042148202186],[121.45139806734366,31.197042148202186],[121.45139806734366,31.196750672020524]]],[[[121.45139806734366,31.19704214820219],[121.45370295076471,31.19704214820219],[121.45370295076471,31.19733362438385],[121.45139806734366,31.19733362438385],[121.45139806734366,31.19704214820219]]],[[[121.45427917161997,31.19704214820219],[121.45485539247524,31.19704214820219],[121.45485539247524,31.19733362438385],[121.45427917161997,31.19733362438385],[121.45427917161997,31.19704214820219]]],[[[121.45139806734366,31.19733362438385],[121.45399106119234,31.19733362438385],[121.45399106119234,31.197625100565514],[121.45139806734366,31.197625100565514],[121.45139806734366,31.19733362438385]]],[[[121.45110995691603,31.197625100565514],[121.45341484033708,31.197625100565514],[121.45341484033708,31.197916576747176],[121.45110995691603,31.197916576747176],[121.45110995691603,31.197625100565514]]],[[[121.45110995691603,31.19791657674718],[121.45399106119234,31.19791657674718],[121.45399106119234,31.19820805292884],[121.45110995691603,31.19820805292884],[121.45110995691603,31.19791657674718]]],[[[121.45110995691603,31.19820805292884],[121.45255050905418,31.19820805292884],[121.45255050905418,31.198499529110503],[121.45110995691603,31.198499529110503],[121.45110995691603,31.19820805292884]]],[[[121.45312672990944,31.19820805292884],[121.4545672820476,31.19820805292884],[121.4545672820476,31.198499529110503],[121.45312672990944,31.198499529110503],[121.45312672990944,31.19820805292884]]],[[[121.45110995691603,31.198499529110503],[121.45226239862654,31.198499529110503],[121.45226239862654,31.198791005292165],[121.45110995691603,31.198791005292165],[121.45110995691603,31.198499529110503]]],[[[121.45370295076471,31.198499529110503],[121.45427917161997,31.198499529110503],[121.45427917161997,31.198791005292165],[121.45370295076471,31.198791005292165],[121.45370295076471,31.198499529110503]]],[[[121.45139806734366,31.19879100529217],[121.45226239862654,31.19879100529217],[121.45226239862654,31.19908248147383],[121.45139806734366,31.19908248147383],[121.45139806734366,31.19879100529217]]]]}},{"type":"Feature","properties":{"parcel_id":"xujiahui_caohejing:parcel:0355","geometry_method":"road_barrier_raster_plus_buildings","functional_type":"mixed","dominant_type":"commercial","confidence":0.47,"building_count":7,"avg_building_area_m2":2524,"centroid_lng":121.396133,"centroid_lat":31.197181,"parcel_area_m2":40669,"safety_clipped":false,"classification_source":"osm_tags+building_morphology+spatial_prior","synthetic_classification":true,"qc_flags":"low_confidence"},"geometry":{"type":"MultiPolygon","coordinates":[[[[121.39550464438308,31.195876243475535],[121.39608086523835,31.195876243475535],[121.39608086523835,31.196167719657197],[121.39550464438308,31.196167719657197],[121.39550464438308,31.195876243475535]]],[[[121.39550464438308,31.196167719657197],[121.39723330694886,31.196167719657197],[121.39723330694886,31.19645919583886],[121.39550464438308,31.19645919583886],[121.39550464438308,31.196167719657197]]],[[[121.39550464438308,31.196459195838862],[121.3975214173765,31.196459195838862],[121.3975214173765,31.196750672020524],[121.39550464438308,31.196750672020524],[121.39550464438308,31.196459195838862]]],[[[121.39550464438308,31.196750672020524],[121.3975214173765,31.196750672020524],[121.3975214173765,31.197042148202186],[121.39550464438308,31.197042148202186],[121.39550464438308,31.196750672020524]]],[[[121.39550464438308,31.19704214820219],[121.39780952780413,31.19704214820219],[121.39780952780413,31.19733362438385],[121.39550464438308,31.19733362438385],[121.39550464438308,31.19704214820219]]],[[[121.39579275481071,31.19733362438385],[121.39780952780413,31.19733362438385],[121.39780952780413,31.197625100565514],[121.39579275481071,31.197625100565514],[121.39579275481071,31.19733362438385]]],[[[121.39636897566598,31.197625100565514],[121.39780952780413,31.197625100565514],[121.39780952780413,31.197916576747176],[121.39636897566598,31.197916576747176],[121.39636897566598,31.197625100565514]]],[[[121.39694519652124,31.19791657674718],[121.39780952780413,31.19791657674718],[121.39780952780413,31.19820805292884],[121.39694519652124,31.19820805292884],[121.39694519652124,31.19791657674718]]],[[[121.3975214173765,31.19820805292884],[121.39780952780413,31.19820805292884],[121.39780952780413,31.198499529110503],[121.3975214173765,31.198499529110503],[121.3975214173765,31.19820805292884]]]]}},{"type":"Feature","properties":{"parcel_id":"xujiahui_caohejing:parcel:0380","geometry_method":"road_barrier_raster_plus_buildings","functional_type":"mixed","dominant_type":"public_service","confidence":0.48,"building_count":9,"avg_building_area_m2":886,"centroid_lng":121.409172,"centroid_lat":31.198061,"parcel_area_m2":6189,"safety_clipped":false,"classification_source":"osm_tags+building_morphology+spatial_prior","synthetic_classification":true,"qc_flags":"low_confidence"},"geometry":{"type":"MultiPolygon","coordinates":[[[[121.40904583448177,31.19791657674718],[121.40962205533704,31.19791657674718],[121.40962205533704,31.19820805292884],[121.40904583448177,31.19820805292884],[121.40904583448177,31.19791657674718]]],[[[121.40904583448177,31.19820805292884],[121.40962205533704,31.19820805292884],[121.40962205533704,31.198499529110503],[121.40904583448177,31.198499529110503],[121.40904583448177,31.19820805292884]]],[[[121.40904583448177,31.198499529110503],[121.40991016576467,31.198499529110503],[121.40991016576467,31.198791005292165],[121.40904583448177,31.198791005292165],[121.40904583448177,31.198499529110503]]]]}},{"type":"Feature","properties":{"parcel_id":"xujiahui_caohejing:parcel:0406","geometry_method":"road_barrier_raster_plus_buildings","functional_type":"mixed","dominant_type":"office","confidence":0.39,"building_count":5,"avg_building_area_m2":1569,"centroid_lng":121.434947,"centroid_lat":31.19993,"parcel_area_m2":4421,"safety_clipped":false,"classification_source":"osm_tags+building_morphology+spatial_prior","synthetic_classification":true,"qc_flags":"low_confidence"},"geometry":{"type":"MultiPolygon","coordinates":[[[[121.43411144168574,31.199665433837158],[121.4355519938239,31.199665433837158],[121.4355519938239,31.19995691001882],[121.43411144168574,31.19995691001882],[121.43411144168574,31.199665433837158]]]]}},{"type":"Feature","properties":{"parcel_id":"xujiahui_caohejing:parcel:0415","geometry_method":"road_barrier_raster_plus_buildings","functional_type":"mixed","dominant_type":"residential","confidence":0.52,"building_count":27,"avg_building_area_m2":861,"centroid_lng":121.459459,"centroid_lat":31.20133,"parcel_area_m2":25639,"safety_clipped":false,"classification_source":"osm_tags+building_morphology+spatial_prior","synthetic_classification":true,"qc_flags":"low_confidence"},"geometry":{"type":"MultiPolygon","coordinates":[[[[121.45831271760682,31.200248386200485],[121.45917704888971,31.200248386200485],[121.45917704888971,31.200539862382147],[121.45831271760682,31.200539862382147],[121.45831271760682,31.200248386200485]]],[[[121.45831271760682,31.200539862382147],[121.46090571145551,31.200539862382147],[121.46090571145551,31.20083133856381],[121.45831271760682,31.20083133856381],[121.45831271760682,31.200539862382147]]],[[[121.45802460717918,31.20083133856381],[121.46061760102788,31.20083133856381],[121.46061760102788,31.20112281474547],[121.45802460717918,31.20112281474547],[121.45802460717918,31.20083133856381]]],[[[121.45860082803445,31.201122814745474],[121.46061760102788,31.201122814745474],[121.46061760102788,31.201414290927136],[121.45860082803445,31.201414290927136],[121.45860082803445,31.201122814745474]]],[[[121.46032949060024,31.201414290927136],[121.46061760102788,31.201414290927136],[121.46061760102788,31.2017057671088],[121.46032949060024,31.2017057671088],[121.46032949060024,31.201414290927136]]]]}},{"type":"Feature","properties":{"parcel_id":"xujiahui_caohejing:parcel:0417","geometry_method":"road_barrier_raster_plus_buildings","functional_type":"mixed","dominant_type":"residential","confidence":0.52,"building_count":7,"avg_building_area_m2":547,"centroid_lng":121.436959,"centroid_lat":31.201434,"parcel_area_m2":6189,"safety_clipped":false,"classification_source":"osm_tags+building_morphology+spatial_prior","synthetic_classification":true,"qc_flags":"low_confidence"},"geometry":{"type":"MultiPolygon","coordinates":[[[[121.43728065638969,31.200539862382147],[121.43756876681732,31.200539862382147],[121.43756876681732,31.20083133856381],[121.43728065638969,31.20083133856381],[121.43728065638969,31.200539862382147]]],[[[121.43728065638969,31.20083133856381],[121.43756876681732,31.20083133856381],[121.43756876681732,31.20112281474547],[121.43728065638969,31.20112281474547],[121.43728065638969,31.20083133856381]]],[[[121.43699254596207,31.201122814745474],[121.43756876681732,31.201122814745474],[121.43756876681732,31.201414290927136],[121.43699254596207,31.201414290927136],[121.43699254596207,31.201122814745474]]],[[[121.43699254596207,31.201414290927136],[121.43756876681732,31.201414290927136],[121.43756876681732,31.2017057671088],[121.43699254596207,31.2017057671088],[121.43699254596207,31.201414290927136]]],[[[121.43728065638969,31.201705767108802],[121.43756876681732,31.201705767108802],[121.43756876681732,31.201997243290464],[121.43728065638969,31.201997243290464],[121.43728065638969,31.201705767108802]]]]}},{"type":"Feature","properties":{"parcel_id":"xujiahui_caohejing:parcel:0453","geometry_method":"road_barrier_raster_plus_buildings","functional_type":"mixed","dominant_type":"residential","confidence":0.45,"building_count":9,"avg_building_area_m2":1727,"centroid_lng":121.458914,"centroid_lat":31.203954,"parcel_area_m2":16798,"safety_clipped":false,"classification_source":"osm_tags+building_morphology+spatial_prior","synthetic_classification":true,"qc_flags":"low_confidence"},"geometry":{"type":"MultiPolygon","coordinates":[[[[121.45888893846208,31.20345462419878],[121.45917704888971,31.20345462419878],[121.45917704888971,31.203746100380442],[121.45888893846208,31.203746100380442],[121.45888893846208,31.20345462419878]]],[[[121.45888893846208,31.203746100380442],[121.46004138017261,31.203746100380442],[121.46004138017261,31.204037576562104],[121.45888893846208,31.204037576562104],[121.45888893846208,31.203746100380442]]],[[[121.45860082803445,31.204037576562108],[121.45946515931735,31.204037576562108],[121.45946515931735,31.20432905274377],[121.45860082803445,31.20432905274377],[121.45860082803445,31.204037576562108]]],[[[121.45975326974498,31.204037576562108],[121.46032949060024,31.204037576562108],[121.46032949060024,31.20432905274377],[121.45975326974498,31.20432905274377],[121.45975326974498,31.204037576562108]]],[[[121.45860082803445,31.20432905274377],[121.45917704888971,31.20432905274377],[121.45917704888971,31.20462052892543],[121.45860082803445,31.20462052892543],[121.45860082803445,31.20432905274377]]],[[[121.45946515931735,31.20432905274377],[121.46032949060024,31.20432905274377],[121.46032949060024,31.20462052892543],[121.45946515931735,31.20462052892543],[121.45946515931735,31.20432905274377]]],[[[121.45946515931735,31.20462052892543],[121.46032949060024,31.20462052892543],[121.46032949060024,31.204912005107094],[121.45946515931735,31.204912005107094],[121.45946515931735,31.20462052892543]]],[[[121.46004138017261,31.204912005107097],[121.46032949060024,31.204912005107097],[121.46032949060024,31.20520348128876],[121.46004138017261,31.20520348128876],[121.46004138017261,31.204912005107097]]]]}},{"type":"Feature","properties":{"parcel_id":"xujiahui_caohejing:parcel:0483","geometry_method":"road_barrier_raster_plus_buildings","functional_type":"mixed","dominant_type":"office","confidence":0.28,"building_count":6,"avg_building_area_m2":1375,"centroid_lng":121.428613,"centroid_lat":31.206308,"parcel_area_m2":5305,"safety_clipped":false,"classification_source":"osm_tags+building_morphology+spatial_prior","synthetic_classification":true,"qc_flags":"low_confidence"},"geometry":{"type":"MultiPolygon","coordinates":[[[[121.42806112270547,31.20549495747042],[121.4283492331331,31.20549495747042],[121.4283492331331,31.205786433652083],[121.42806112270547,31.205786433652083],[121.42806112270547,31.20549495747042]]],[[[121.42806112270547,31.205786433652086],[121.4283492331331,31.205786433652086],[121.4283492331331,31.20607790983375],[121.42806112270547,31.20607790983375],[121.42806112270547,31.205786433652086]]],[[[121.42806112270547,31.20607790983375],[121.4283492331331,31.20607790983375],[121.4283492331331,31.20636938601541],[121.42806112270547,31.20636938601541],[121.42806112270547,31.20607790983375]]],[[[121.42806112270547,31.20636938601541],[121.42892545398837,31.20636938601541],[121.42892545398837,31.206660862197072],[121.42806112270547,31.206660862197072],[121.42806112270547,31.20636938601541]]]]}},{"type":"Feature","properties":{"parcel_id":"xujiahui_caohejing:parcel:0497","geometry_method":"road_barrier_raster_plus_buildings","functional_type":"mixed","dominant_type":"residential","confidence":0.51,"building_count":8,"avg_building_area_m2":1471,"centroid_lng":121.401529,"centroid_lat":31.206696,"parcel_area_m2":7073,"safety_clipped":false,"classification_source":"osm_tags+building_morphology+spatial_prior","synthetic_classification":true,"qc_flags":"low_confidence"},"geometry":{"type":"MultiPolygon","coordinates":[[[[121.40069063208045,31.20636938601541],[121.40270740507387,31.20636938601541],[121.40270740507387,31.206660862197072],[121.40069063208045,31.206660862197072],[121.40069063208045,31.20636938601541]]],[[[121.40069063208045,31.206660862197076],[121.40097874250809,31.206660862197076],[121.40097874250809,31.206952338378738],[121.40069063208045,31.206952338378738],[121.40069063208045,31.206660862197076]]]]}},{"type":"Feature","properties":{"parcel_id":"xujiahui_caohejing:parcel:0527","geometry_method":"road_barrier_raster_plus_buildings","functional_type":"mixed","dominant_type":"public_service","confidence":0.44,"building_count":8,"avg_building_area_m2":691,"centroid_lng":121.431908,"centroid_lat":31.209086,"parcel_area_m2":3536,"safety_clipped":false,"classification_source":"osm_tags+building_morphology+spatial_prior","synthetic_classification":true,"qc_flags":"low_confidence"},"geometry":{"type":"MultiPolygon","coordinates":[[[[121.4318065582647,31.208701195468716],[121.43238277911995,31.208701195468716],[121.43238277911995,31.20899267165038],[121.4318065582647,31.20899267165038],[121.4318065582647,31.208701195468716]]],[[[121.4318065582647,31.208992671650382],[121.43238277911995,31.208992671650382],[121.43238277911995,31.209284147832044],[121.4318065582647,31.209284147832044],[121.4318065582647,31.208992671650382]]]]}}]}