{"type":"FeatureCollection","features":[{"type":"Feature","properties":{"zone_id":"sh:z:retail:nanjing_east","name":"南京东路","zone_type":"retail","grade":"premium","centroid_lng":121.488489,"centroid_lat":31.234031,"batch":"batch1","source":"public_name+road_aligned_aoi","geometry_method":"road_convex_hull","road_pts_used":564,"labels":["pedestrian"],"color_token":"retail","fill":"#7C3AED","stroke":"#5B21B6","fill_opacity":0.45},"geometry":{"type":"Polygon","coordinates":[[[121.476581,31.23448],[121.476856,31.232096],[121.478511,31.228884],[121.482711,31.225346],[121.488303,31.223729],[121.496598,31.227166],[121.498829,31.229028],[121.498906,31.229175],[121.499177,31.238694],[121.490452,31.244092],[121.489308,31.244236],[121.482676,31.242478],[121.478907,31.240162],[121.478182,31.238778],[121.476762,31.235951],[121.476581,31.23448]]]}},{"type":"Feature","properties":{"zone_id":"sh:z:retail:xintiandi","name":"新天地","zone_type":"retail","grade":"premium","centroid_lng":121.479518,"centroid_lat":31.218049,"batch":"batch1","source":"public_name+road_aligned_aoi","geometry_method":"road_convex_hull","road_pts_used":227,"labels":[],"color_token":"retail","fill":"#7C3AED","stroke":"#5B21B6","fill_opacity":0.45},"geometry":{"type":"Polygon","coordinates":[[[121.473585,31.220161],[121.473772,31.219029],[121.474578,31.214817],[121.474711,31.214126],[121.477015,31.212795],[121.479263,31.212545],[121.48018,31.212862],[121.481318,31.213278],[121.484008,31.214303],[121.4853,31.215808],[121.485946,31.219333],[121.484362,31.222014],[121.481716,31.223405],[121.474838,31.221236],[121.473585,31.220161]]]}},{"type":"Feature","properties":{"zone_id":"sh:z:retail:lujiazui_retail","name":"陆家嘴商圈","zone_type":"retail","grade":"premium","centroid_lng":121.509414,"centroid_lat":31.23597,"batch":"batch1","source":"public_name+road_aligned_aoi","geometry_method":"road_convex_hull","road_pts_used":539,"labels":["cbd"],"color_token":"retail","fill":"#7C3AED","stroke":"#5B21B6","fill_opacity":0.45},"geometry":{"type":"Polygon","coordinates":[[[121.499061,31.23837],[121.499384,31.235914],[121.499462,31.235333],[121.499559,31.235045],[121.499739,31.234689],[121.503255,31.229357],[121.506033,31.227681],[121.512601,31.227349],[121.516267,31.22909],[121.518487,31.2317],[121.518599,31.23215],[121.519144,31.238565],[121.519095,31.238654],[121.518129,31.240384],[121.515967,31.242728],[121.505626,31.244339],[121.500682,31.240537],[121.500301,31.240197],[121.499973,31.239792],[121.499268,31.23874],[121.499061,31.23837]]]}},{"type":"Feature","properties":{"zone_id":"sh:z:retail:ifc_shanghai","name":"上海IFC","zone_type":"retail","grade":"premium","centroid_lng":121.502439,"centroid_lat":31.23399,"batch":"batch1","source":"public_name+road_aligned_aoi","geometry_method":"road_convex_hull","road_pts_used":307,"labels":[],"color_token":"retail","fill":"#7C3AED","stroke":"#5B21B6","fill_opacity":0.45},"geometry":{"type":"Polygon","coordinates":[[[121.500311,31.237082],[121.500316,31.236778],[121.500361,31.236191],[121.500408,31.235749],[121.500455,31.235531],[121.500535,31.235323],[121.500616,31.235146],[121.500715,31.234966],[121.500752,31.234917],[121.501079,31.234488],[121.502716,31.232551],[121.503036,31.232204],[121.504767,31.23067],[121.504874,31.230755],[121.506358,31.232442],[121.507061,31.234273],[121.507051,31.234375],[121.505834,31.236753],[121.505278,31.237115],[121.504741,31.237445],[121.504392,31.237625],[121.504003,31.237743],[121.502936,31.237938],[121.500437,31.237356],[121.500311,31.237082]]]}},{"type":"Feature","properties":{"zone_id":"sh:z:retail:lujiazui_century","name":"世纪大道商带","zone_type":"retail","grade":"mass","centroid_lng":121.534327,"centroid_lat":31.227894,"batch":"batch1","source":"public_name+road_aligned_aoi","geometry_method":"road_convex_hull","road_pts_used":569,"labels":[],"color_token":"retail","fill":"#A78BFA","stroke":"#5B21B6","fill_opacity":0.38},"geometry":{"type":"Polygon","coordinates":[[[121.519067,31.228727],[121.520059,31.223911],[121.524158,31.218823],[121.528908,31.21555],[121.535229,31.214988],[121.541722,31.216263],[121.548233,31.222706],[121.548876,31.224473],[121.549777,31.227299],[121.549541,31.228766],[121.547008,31.233881],[121.545313,31.237141],[121.535599,31.240778],[121.529719,31.240499],[121.521521,31.235351],[121.519665,31.232088],[121.519067,31.228727]]]}},{"type":"Feature","properties":{"zone_id":"sh:z:retail:huangpu_huaihai","name":"淮海中路","zone_type":"retail","grade":"premium","centroid_lng":121.474534,"centroid_lat":31.218063,"batch":"batch1","source":"public_name+road_aligned_aoi","geometry_method":"road_convex_hull","road_pts_used":453,"labels":[],"color_token":"retail","fill":"#7C3AED","stroke":"#5B21B6","fill_opacity":0.45},"geometry":{"type":"Polygon","coordinates":[[[121.462078,31.21856],[121.465023,31.211157],[121.468083,31.208474],[121.472021,31.207309],[121.473092,31.207112],[121.476788,31.20814],[121.479663,31.209126],[121.48404,31.210756],[121.486405,31.213901],[121.486904,31.215154],[121.487363,31.217019],[121.487105,31.219909],[121.483679,31.225813],[121.48213,31.226871],[121.479993,31.227942],[121.476921,31.228938],[121.471568,31.22879],[121.467188,31.227129],[121.466853,31.226916],[121.464063,31.224535],[121.462458,31.220526],[121.462078,31.21856]]]}},{"type":"Feature","properties":{"zone_id":"sh:z:residential:res_yangpu_kongjiang","name":"控江杨浦居住带","zone_type":"residential","grade":"dense_mass","centroid_lng":121.5443,"centroid_lat":31.272889,"batch":"batch1","source":"public_name+road_aligned_aoi","geometry_method":"road_convex_hull","road_pts_used":547,"labels":[],"color_token":"residential","fill":"#F5F0E8","stroke":"#C4B8A8","fill_opacity":0.5},"geometry":{"type":"Polygon","coordinates":[[[121.526393,31.274792],[121.527858,31.266438],[121.533227,31.260635],[121.540439,31.257757],[121.541593,31.257985],[121.562003,31.270961],[121.562062,31.2758],[121.559742,31.280862],[121.558985,31.281802],[121.553236,31.285958],[121.543597,31.288322],[121.535411,31.285746],[121.530425,31.282779],[121.526438,31.275425],[121.526393,31.274792]]]}},{"type":"Feature","properties":{"zone_id":"sh:z:residential:res_hongkou_sichuan","name":"四川北路居住","zone_type":"residential","grade":"dense_mass","centroid_lng":121.489487,"centroid_lat":31.258039,"batch":"batch1","source":"public_name+road_aligned_aoi","geometry_method":"road_convex_hull","road_pts_used":467,"labels":[],"color_token":"residential","fill":"#F5F0E8","stroke":"#C4B8A8","fill_opacity":0.5},"geometry":{"type":"Polygon","coordinates":[[[121.477978,31.261034],[121.478227,31.259169],[121.479095,31.252801],[121.482239,31.250308],[121.48418,31.248774],[121.489561,31.247892],[121.494439,31.248704],[121.495805,31.249267],[121.497778,31.250705],[121.499041,31.251918],[121.501354,31.256293],[121.501351,31.259917],[121.498773,31.264495],[121.496406,31.266407],[121.492571,31.26786],[121.488675,31.26777],[121.484038,31.26692],[121.481652,31.265799],[121.478419,31.262036],[121.477978,31.261034]]]}},{"type":"Feature","properties":{"zone_id":"sh:z:residential:res_pudong_lujiazui_apt","name":"陆家嘴滨江公寓","zone_type":"residential","grade":"premium_low","centroid_lng":121.514396,"centroid_lat":31.237956,"batch":"batch1","source":"public_name+road_aligned_aoi","geometry_method":"road_convex_hull","road_pts_used":440,"labels":[],"color_token":"residential","fill":"#F5F0E8","stroke":"#C4B8A8","fill_opacity":0.38},"geometry":{"type":"Polygon","coordinates":[[[121.505393,31.23613],[121.505554,31.235327],[121.507537,31.232519],[121.509386,31.231166],[121.514663,31.230771],[121.517915,31.230555],[121.521196,31.232767],[121.522824,31.236215],[121.523036,31.240995],[121.520405,31.243556],[121.507353,31.242306],[121.506344,31.241439],[121.505726,31.240873],[121.505466,31.240282],[121.505393,31.23613]]]}},{"type":"Feature","properties":{"zone_id":"sh:z:office:office_lujiazui","name":"陆家嘴金融城","zone_type":"office","grade":null,"centroid_lng":121.509414,"centroid_lat":31.237971,"batch":"batch1","source":"public_name+road_aligned_aoi","geometry_method":"road_convex_hull","road_pts_used":555,"labels":["cbd","finance"],"color_token":"office","fill":"#5EEAD4","stroke":"#0F766E","fill_opacity":0.4},"geometry":{"type":"Polygon","coordinates":[[[121.494726,31.236876],[121.498301,31.228771],[121.510052,31.225148],[121.513375,31.225719],[121.516826,31.226622],[121.518746,31.227992],[121.522391,31.231164],[121.523949,31.23418],[121.524012,31.234343],[121.524531,31.240998],[121.521086,31.245938],[121.500838,31.248672],[121.494726,31.236876]]]}},{"type":"Feature","properties":{"zone_id":"sh:z:office:office_people_sq","name":"人民广场办公","zone_type":"office","grade":null,"centroid_lng":121.479519,"centroid_lat":31.230055,"batch":"batch1","source":"public_name+road_aligned_aoi","geometry_method":"road_convex_hull","road_pts_used":520,"labels":[],"color_token":"office","fill":"#5EEAD4","stroke":"#0F766E","fill_opacity":0.4},"geometry":{"type":"Polygon","coordinates":[[[121.470497,31.227941],[121.470763,31.227501],[121.47237,31.225227],[121.474237,31.223702],[121.481658,31.222262],[121.483569,31.222831],[121.48844,31.227628],[121.488614,31.229034],[121.488756,31.231113],[121.488695,31.23132],[121.488657,31.2314],[121.486546,31.235356],[121.483926,31.237043],[121.479944,31.23805],[121.473617,31.236079],[121.473488,31.23601],[121.471925,31.234673],[121.471368,31.233838],[121.470497,31.227941]]]}},{"type":"Feature","properties":{"zone_id":"sh:z:office:office_north_bund","name":"北外滩","zone_type":"office","grade":null,"centroid_lng":121.504433,"centroid_lat":31.24799,"batch":"batch1","source":"public_name+road_aligned_aoi","geometry_method":"road_convex_hull","road_pts_used":520,"labels":[],"color_token":"office","fill":"#5EEAD4","stroke":"#0F766E","fill_opacity":0.4},"geometry":{"type":"Polygon","coordinates":[[[121.492435,31.248408],[121.49267,31.246068],[121.500817,31.2383],[121.504694,31.237741],[121.507738,31.238191],[121.513595,31.241279],[121.515579,31.251704],[121.511288,31.256436],[121.507106,31.257971],[121.503334,31.258255],[121.502389,31.258147],[121.49625,31.254825],[121.494415,31.253627],[121.492558,31.24982],[121.492435,31.248408]]]}},{"type":"Feature","properties":{"zone_id":"sh:z:office:office_suzhou_creek","name":"苏河湾","zone_type":"office","grade":null,"centroid_lng":121.474536,"centroid_lat":31.243074,"batch":"batch1","source":"public_name+road_aligned_aoi","geometry_method":"road_convex_hull","road_pts_used":512,"labels":[],"color_token":"office","fill":"#5EEAD4","stroke":"#0F766E","fill_opacity":0.4},"geometry":{"type":"Polygon","coordinates":[[[121.465385,31.244392],[121.465604,31.24195],[121.466646,31.239883],[121.467579,31.23825],[121.46823,31.23729],[121.474034,31.235102],[121.477872,31.236093],[121.480378,31.236884],[121.482915,31.239604],[121.483857,31.242233],[121.483897,31.242471],[121.48383,31.244019],[121.483165,31.246171],[121.482754,31.246953],[121.481695,31.248211],[121.481501,31.248331],[121.476607,31.250503],[121.469407,31.249392],[121.469323,31.249373],[121.465515,31.244575],[121.465385,31.244392]]]}},{"type":"Feature","properties":{"zone_id":"sh:z:hub:hub_people_sq_metro","name":"人民广场地铁枢纽","zone_type":"hub","grade":null,"centroid_lng":121.479519,"centroid_lat":31.228054,"batch":"batch1","source":"public_name+road_aligned_aoi","geometry_method":"road_convex_hull","road_pts_used":519,"labels":["metro"],"color_token":"hub","fill":"#FBBF24","stroke":"#D97706","fill_opacity":0.42},"geometry":{"type":"Polygon","coordinates":[[[121.474578,31.226707],[121.476006,31.224692],[121.477226,31.223963],[121.480946,31.223937],[121.4833,31.224869],[121.48457,31.227047],[121.484722,31.227389],[121.483514,31.231067],[121.482995,31.23146],[121.480377,31.232222],[121.476303,31.231666],[121.476157,31.231599],[121.474578,31.226707]]]}},{"type":"Feature","properties":{"zone_id":"sh:z:hub:hub_century_ave","name":"世纪大道换乘","zone_type":"hub","grade":null,"centroid_lng":121.531336,"centroid_lat":31.227902,"batch":"batch1","source":"public_name+road_aligned_aoi","geometry_method":"road_convex_hull","road_pts_used":130,"labels":["metro"],"color_token":"hub","fill":"#FBBF24","stroke":"#D97706","fill_opacity":0.42},"geometry":{"type":"Polygon","coordinates":[[[121.526304,31.229061],[121.527281,31.226045],[121.531433,31.223902],[121.534243,31.224276],[121.536399,31.228884],[121.535985,31.230156],[121.530569,31.232072],[121.529001,31.231978],[121.527826,31.231232],[121.526304,31.229061]]]}},{"type":"Feature","properties":{"zone_id":"sh:z:scenic:scenic_the_bund","name":"外滩","zone_type":"scenic","grade":null,"centroid_lng":121.494468,"centroid_lat":31.238015,"batch":"batch1","source":"public_name+road_aligned_aoi","geometry_method":"road_convex_hull","road_pts_used":568,"labels":["waterfront"],"color_token":"scenic","fill":"#FDBA74","stroke":"#C2410C","fill_opacity":0.4},"geometry":{"type":"Polygon","coordinates":[[[121.47946,31.23511],[121.480049,31.233021],[121.480505,31.231559],[121.481552,31.22988],[121.481976,31.229476],[121.483783,31.228164],[121.485137,31.227293],[121.496895,31.225657],[121.499362,31.225548],[121.507065,31.229629],[121.507347,31.229807],[121.508834,31.231971],[121.510263,31.236063],[121.510475,31.236934],[121.510503,31.23707],[121.509717,31.241619],[121.508871,31.24363],[121.500609,31.25059],[121.497126,31.251374],[121.495611,31.251621],[121.490969,31.250994],[121.489123,31.250484],[121.484058,31.248314],[121.480421,31.244549],[121.479976,31.240262],[121.47946,31.23511]]]}},{"type":"Feature","properties":{"zone_id":"sh:z:scenic:scenic_yuyuan","name":"豫园","zone_type":"scenic","grade":null,"centroid_lng":121.49646,"centroid_lat":31.225004,"batch":"batch1","source":"public_name+road_aligned_aoi","geometry_method":"road_convex_hull","road_pts_used":209,"labels":[],"color_token":"scenic","fill":"#FDBA74","stroke":"#C2410C","fill_opacity":0.4},"geometry":{"type":"Polygon","coordinates":[[[121.4938,31.221757],[121.49414,31.221566],[121.496492,31.221107],[121.497039,31.221033],[121.497478,31.221138],[121.499172,31.221797],[121.500294,31.22289],[121.50103,31.224807],[121.500483,31.225931],[121.500282,31.226183],[121.500008,31.226485],[121.499934,31.226562],[121.499684,31.226822],[121.499456,31.227045],[121.498762,31.227652],[121.497606,31.228639],[121.497196,31.228891],[121.495247,31.228683],[121.4938,31.221757]]]}},{"type":"Feature","properties":{"zone_id":"sh:z:scenic:scenic_oriental_pearl","name":"小陆家嘴观光","zone_type":"scenic","grade":null,"centroid_lng":121.504432,"centroid_lat":31.237986,"batch":"batch1","source":"public_name+road_aligned_aoi","geometry_method":"road_convex_hull","road_pts_used":446,"labels":[],"color_token":"scenic","fill":"#FDBA74","stroke":"#C2410C","fill_opacity":0.4},"geometry":{"type":"Polygon","coordinates":[[[121.499088,31.237817],[121.500243,31.235193],[121.501854,31.234056],[121.504077,31.233537],[121.506061,31.23389],[121.506932,31.234132],[121.508595,31.235135],[121.509386,31.236269],[121.509573,31.236861],[121.50782,31.241346],[121.507739,31.241435],[121.504968,31.242515],[121.504531,31.242353],[121.502168,31.240833],[121.501699,31.240505],[121.501379,31.240255],[121.499372,31.238567],[121.499326,31.238515],[121.499144,31.238115],[121.499088,31.237817]]]}}]}